StoreCode	Name	Address	City	State	CountryCode	PostalCode	MainPhone	HomePage	Hours	Categories	Description	Latitude	Longitude	c:ohSummer	c:ohHoliday	c:currencies	c:summerTime	c:summerTime2	c:ohSummer2
101618	Ulsteinvik bedriftssenter	STOREH&Oslash;LVEGEN 16	ULSTEINVIK	M&Oslash;RE OG ROMSDAL	NO	6065		https://www.dnb.no		postal		62.3386581159987	5.88986744660545						
101621	Larvik bedriftssenter	ELVEVEIEN 130	LARVIK	VESTFOLD	NO	3271		https://www.dnb.no		postal		59.0779582746918	10.0630560469609						
101646	Askim bedriftssenter	MASENGVEIEN 1	ASKIM	&Oslash;STFOLD	NO	1814		https://www.dnb.no		postal		59.5750409709483	11.1992536731621						
101647	Sarpsborg bedriftssenter	TORGET 2	SARPSBORG	&Oslash;STFOLD	NO	1707		https://www.dnb.no		postal		59.2843911818768	11.1099358990421						
101648	Moss bedriftssenter	GUDES GATE 1 C	MOSS	&Oslash;STFOLD	NO	1530		https://www.dnb.no		postal		59.4375094013369	10.6661939450723						
101746	Mo i Rana bedriftssenter	NORDRE GATE 13	MO I RANA	NORDLAND	NO	8622		https://www.dnb.no		postal		66.3205996427481	14.1475613954665						
101781	Halden bedriftssenter	GARVERGATA 6	HALDEN	&Oslash;STFOLD	NO	1772		https://www.dnb.no		postal		59.1257947564347	11.3900194616831						
101831	Spjelkavik bedriftssenter	POSTVEGEN 2	&Aring;LESUND	M&Oslash;RE OG ROMSDAL	NO	6018		https://www.dnb.no		postal		62.471615915236	6.34698408930361						
101953	Bragernes bedriftssenter	S&Oslash;REN LEMMICHS GATE 1	DRAMMEN	BUSKERUD	NO	3015		https://www.dnb.no		postal		59.7408387927986	10.2155145663147						
101955	Kolbotn bedriftssenter	SKIVEIEN 44	KOLBOTN	AKERSHUS	NO	1410		https://www.dnb.no		postal		59.8176319549485	10.8082668473395						
101956	Lillestr&oslash;m bedriftssenter	ODALSGATA 25	LILLESTR&Oslash;M	AKERSHUS	NO	2003		https://www.dnb.no		postal		59.9623439603873	11.0481708697917						
121102	Meny Dr&oslash;bak	HOLTERVEIEN 3	DR&Oslash;BAK	AKERSHUS	NO	1448		https://www.dnb.no		postal		59.6727762286843	10.6585432665018						
121108	B&aelig;rum Videosenter	KIRKEVEIEN 97	HASLUM	AKERSHUS	NO	1344		https://www.dnb.no		postal		59.917554750073	10.5609158597564						
121110	Meny Greverud	FL&Aring;TESTADVEIEN 3	OPPEG&Aring;RD	AKERSHUS	NO	1415		https://www.dnb.no		postal		59.7739794055442	10.8032299114961						
121113	Meny Snar&oslash;ya	SNAR&Oslash;YVEIEN 139	SNAR&Oslash;YA	AKERSHUS	NO	1367		https://www.dnb.no		postal		59.881905766616	10.6107111662657						
121118	Kiwi 210 Minnesund	MINNESUNDSENTERET	MINNESUND	AKERSHUS	NO	2092		https://www.dnb.no		postal		60.4029000522726	11.2426455653586						
121139	Extra Gjerdrum	ASK	GJERDRUM	AKERSHUS	NO	2022		https://www.dnb.no		postal		60.0708252041013	11.0352543948181						
121143	Extra L&oslash;venstad	L&Oslash;VENSTADTORGET 12	L&Oslash;VENSTAD	AKERSHUS	NO	2006		https://www.dnb.no		postal		59.9374496378501	11.0215582340696						
121157	Coop Prix Lindeberg&aring;sen	LINDEBERG&Aring;SEN 10	OSLO	OSLO	NO	1068		https://www.dnb.no		postal		59.9288506303187	10.8796141288901						
121180	Extra Huseby	STASJONSVEIEN 69	OSLO	OSLO	NO	0768		https://www.dnb.no		postal		59.9469199386363	10.6548587862908						
121186	Coop Mega B&oslash;ler	B&Oslash;LERLIA 2	OSLO	OSLO	NO	0691		https://www.dnb.no		postal		59.8828183975327	10.8447874315562						
121205	Veng Norge	ISEBAKKEVEIEN 6	HALDEN	&Oslash;STFOLD	NO	1788		https://www.dnb.no		postal		59.1205221250097	11.3074750631208						
121211	Kiwi Nordkisa	STORVEGEN 10	NORDKISA	AKERSHUS	NO	2055		https://www.dnb.no		postal		60.1859981160322	11.2628146311655						
121212	Joker Fenstad	SVANFOSSVEGEN 1	FENSTAD	AKERSHUS	NO	2170		https://www.dnb.no		postal		60.2199344203857	11.3917050230086						
121213	Thorvaldsen Larkollen	SKOGLYVEIEN 1 A	LARKOLLEN	&Oslash;STFOLD	NO	1560		https://www.dnb.no		postal		59.3274052201602	10.6797178344664						
121243	Spar Holmlia	DYRETR&Aring;KKET 31	OSLO	OSLO	NO	1251		https://www.dnb.no		postal		59.8269459675196	10.7843422921202						
121248	Coop Prix Degernes	IDRETTSVEIEN 2	DEGERNES	&Oslash;STFOLD	NO	1892		https://www.dnb.no		postal		59.3563151872393	11.4220182627937						
121265	Joker Skogbygda	SKOGBYGDAVEGEN 512	SKOGBYGDA	AKERSHUS	NO	2164		https://www.dnb.no		postal		60.2289133374849	11.5115561204395						
121275	Kiwi Risum	IDDEVEIEN 35	HALDEN	&Oslash;STFOLD	NO	1769		https://www.dnb.no		postal		59.1175565679981	11.4112356208875						
121278	Meny Vollebekk	BROBEKKVEIEN 52	OSLO	OSLO	NO	0598		https://www.dnb.no		postal		59.9364713212336	10.8269576196433						
121288	Extra Algarheimveien	ALGARHEIMSVEGEN 77	JESSHEIM	AKERSHUS	NO	2052		https://www.dnb.no		postal		60.1407274150997	11.2111811524806						
121291	Meny Kols&aring;s	R&Oslash;DSKIFERVEIEN 1	KOLS&Aring;S	AKERSHUS	NO	1352		https://www.dnb.no		postal		59.9165821073254	10.5007593514022						
121297	Extra Sagene	THURMANNS GATE 12 A	OSLO	OSLO	NO	0461		https://www.dnb.no		postal		59.9355797931196	10.7523889559788						
121305	Kiwi Son	HAVNEGATA 6	SON	AKERSHUS	NO	1555		https://www.dnb.no		postal		59.5259663661354	10.6892365413538						
121322	Coop Prix St.Halvardsgate	ST. HALVARDS GATE 67	OSLO	OSLO	NO	0657		https://www.dnb.no		postal		59.9073162699697	10.7808187224275						
121323	Extra R&aelig;lingen	BUHOLEN 4	R&AElig;LINGEN	AKERSHUS	NO	2005		https://www.dnb.no		postal		59.9464875278965	11.0293983652182						
121325	Matkroken Besserud	HOLMENKOLLVEIEN 96 A	OSLO	OSLO	NO	0784		https://www.dnb.no		postal		59.9572465350171	10.6729953006422						
121327	Jacobs	EKEBERGVEIEN 145	OSLO	OSLO	NO	1178		https://www.dnb.no		postal		59.8811063486804	10.7867224714297						
121345	Spar T&aring;sen	KAJ MUNKS VEI 41	OSLO	OSLO	NO	0876		https://www.dnb.no		postal		59.9525129284907	10.7513301633						
121365	Meny &Aring;neby	&Aring;NEBYVEIEN 17	HAKADAL	AKERSHUS	NO	1484		https://www.dnb.no		postal		60.0890102730607	10.8719921922467						
121371	Kiwi Lillestr&oslash;m Stasjon	STILLVERKSVEIEN 5	LILLESTR&Oslash;M	AKERSHUS	NO	2004		https://www.dnb.no		postal		59.9532978737979	11.0489985195952						
121377	Meny Skjetten	NORDENS VEI 15	SKJETTEN	AKERSHUS	NO	2013		https://www.dnb.no		postal		59.9668380440939	10.9998640045849						
121381	Meny H&oslash;vik	O.H. BANGS VEI 5	H&Oslash;VIK	AKERSHUS	NO	1363		https://www.dnb.no		postal		59.8991792705491	10.5795190552976						
121383	Extra Fetsund	GAMLE FETVEI 20	FETSUND	AKERSHUS	NO	1900		https://www.dnb.no		postal		59.9277222056408	11.1633545239111						
121386	Kiwi Bogerud	STALLERUDVEIEN 105	OSLO	OSLO	NO	0693		https://www.dnb.no		postal		59.8756841069463	10.8432289904845						
121396	Extra Vard&aring;sen	SLOTTSBERGET 2	ASKER	AKERSHUS	NO	1385		https://www.dnb.no		postal		59.82012688704	10.3825094047477						
121404	Extra Finstadjordet	FINSTADLIA 3	FINSTADJORDET	AKERSHUS	NO	1475		https://www.dnb.no		postal		59.9145135827312	10.9679993287291						
121411	Bunnpris S&oslash;rumsand	S&Oslash;RUMSANDVEGEN 69	S&Oslash;RUMSAND	AKERSHUS	NO	1920		https://www.dnb.no		postal		59.9868571468513	11.2421171280946						
121413	Matkroken Gressbanen	HOLMENKOLLVEIEN 43 B	OSLO	OSLO	NO	0376		https://www.dnb.no		postal		59.9492982674418	10.6765786747553						
121417	Ullern Dagligvare	ULLERN ALLÉ 41	OSLO	OSLO	NO	0381		https://www.dnb.no		postal		59.9285379314581	10.6471807599215						
121422	Bunnpris Tr&oslash;gstad	KIRKEVEIEN 36	TR&Oslash;GSTAD	&Oslash;STFOLD	NO	1860		https://www.dnb.no		postal		59.6408295572304	11.3164119967916						
121424	Joker Ulv&oslash;ya	VARGVEIEN 16 A	OSLO	OSLO	NO	0139		https://www.dnb.no		postal		59.870243114794	10.7726664943185						
121425	Extra Aurskog	SENTERVEIEN 10	AURSKOG	AKERSHUS	NO	1930		https://www.dnb.no		postal		59.9270877172121	11.4470831491988						
121426	Rema 1000 Lommedalen	SLAL&Aring;MVEIEN 35	LOMMEDALEN	AKERSHUS	NO	1350		https://www.dnb.no		postal		59.9556019338474	10.4804874242001						
121430	Joker R&oslash;mskog	STORVEIEN 503	R&Oslash;MSKOG	&Oslash;STFOLD	NO	1950		https://www.dnb.no		postal		59.7435755928893	11.8057509172475						
121432	Coop Prix Siggerud	SVALEVEIEN 6	SIGGERUD	AKERSHUS	NO	1404		https://www.dnb.no		postal		59.7912406638006	10.8815319575929						
121433	Joker Blaker	VESTHAGAN 1	BLAKER	AKERSHUS	NO	1925		https://www.dnb.no		postal		59.9775293181033	11.3624063695835						
121434	Kiwi Refsnes	REFSNESALLEEN 66	MOSS	&Oslash;STFOLD	NO	1518		https://www.dnb.no		postal		59.4426589469486	10.6190071292399						
121436	Extra Grorud	ROMS&Aring;SVEIEN 6	OSLO	OSLO	NO	0962		https://www.dnb.no		postal		59.9609043549906	10.8851134602463						
121437	Coop Prix Sellebakk	L&Oslash;ENVEIEN 6	SELLEBAKK	&Oslash;STFOLD	NO	1653		https://www.dnb.no		postal		59.227346834716	10.9959674494011						
121439	Coop Mega Holmen	VOGELLUND 6	NESBRU	AKERSHUS	NO	1394		https://www.dnb.no		postal		59.854433583113	10.4882699820809						
121441	Matkroken Dr&oslash;bak	KIRKEGATA 9	DR&Oslash;BAK	AKERSHUS	NO	1440		https://www.dnb.no		postal		59.6639596122438	10.628954194122						
121442	Coop Mega Hagan	HELLINGA 8 B	HAGAN	AKERSHUS	NO	1481		https://www.dnb.no		postal		59.9970356606088	10.9179914861523						
121443	Extra Mysen	SMEDGATA 30	MYSEN	&Oslash;STFOLD	NO	1850		https://www.dnb.no		postal		59.5534256437623	11.3325426701675						
121444	Coop Prix Lilleaker	LILLEAKERVEIEN 32	OSLO	OSLO	NO	0284		https://www.dnb.no		postal		59.9213157527311	10.6357334600662						
121445	Joker H&oslash;ybr&aring;ten	H&Oslash;YBR&Aring;TENVEIEN 51	OSLO	OSLO	NO	1086		https://www.dnb.no		postal		59.944037340315	10.9177623682749						
121446	Meny &Oslash;stfoldhallen	DIKEVEIEN 28	ROLVS&Oslash;Y	&Oslash;STFOLD	NO	1661		https://www.dnb.no		postal		59.2513174769424	10.9933805380591						
121447	Extra Raveien	RAVEIEN 9	&Aring;S	AKERSHUS	NO	1430		https://www.dnb.no		postal		59.665373060041	10.7918091442465						
121448	Rema 1000 Torshov	SANDAKERVEIEN 24	OSLO	OSLO	NO	0473		https://www.dnb.no		postal		59.9338146866163	10.7612331587136						
121449	Meny Bj&oslash;lsen	MOLDEGATA 1	OSLO	OSLO	NO	0445		https://www.dnb.no		postal		59.9436936585618	10.7608661624414						
121451	Extra Mortensrud	LOFSRUDVEIEN 6	OSLO	OSLO	NO	1281		https://www.dnb.no		postal		59.8484575455479	10.8295641351302						
121452	Extra Askimtorget	P.M.R&Oslash;WDES GATE 5	ASKIM	&Oslash;STFOLD	NO	1811		https://www.dnb.no		postal		59.5831024316988	11.1665263125593						
121454	Extra St. Marie gate	ST. MARIE GATE 81	SARPSBORG	&Oslash;STFOLD	NO	1706		https://www.dnb.no		postal		59.2821380044382	11.115762641693						
121455	Coop Prix Kjels&aring;s	MIDTODDVEIEN 2	OSLO	OSLO	NO	0494		https://www.dnb.no		postal		59.9631513822944	10.7838408550171						
121458	Coop Mega Linderud	ERICH MOGENS&Oslash;NS VEI 38	OSLO	OSLO	NO	0594		https://www.dnb.no		postal		59.9430636178009	10.835249773857						
121459	Kiwi Bj&oslash;rkelangen	R&Aring;DHUSVEIEN 8	BJ&Oslash;RKELANGEN	AKERSHUS	NO	1940		https://www.dnb.no		postal		59.8838209035698	11.5708208797388						
121460	Coop Prix Sk&oslash;yen&aring;sen	HAAKON TVETERS VEI 8	OSLO	OSLO	NO	0682		https://www.dnb.no		postal		59.9007773881537	10.8343789894534						
121461	Coop Mega Moss	STORGATA 41	MOSS	&Oslash;STFOLD	NO	1531		https://www.dnb.no		postal		59.4365466911383	10.6626629286323						
121462	Bunnpris &Aring;rnes	R&Aring;DHUSGATA 12	&Aring;RNES	AKERSHUS	NO	2150		https://www.dnb.no		postal		60.1231132042951	11.4682110541391						
121464	Coop Prix Str&oslash;mmen	STR&Oslash;MSVEIEN 79 A	STR&Oslash;MMEN	AKERSHUS	NO	2010		https://www.dnb.no		postal		59.950654959449	11.0108146305658						
121465	Extra Halden	GR&Oslash;NLAND 6	HALDEN	&Oslash;STFOLD	NO	1767		https://www.dnb.no		postal		59.1226419186832	11.3923622300393						
121466	Meny L&oslash;ren	L&Oslash;RENVEIEN 44	OSLO	OSLO	NO	0585		https://www.dnb.no		postal		59.930349194779	10.7939230063457						
121467	Rema 1000 Holmlia	HOLMLIAVEIEN 100	OSLO	OSLO	NO	1252		https://www.dnb.no		postal		59.8319777393337	10.7965837014535						
121468	Meny Bryn	&Oslash;STENSJ&Oslash;VEIEN 79	OSLO	OSLO	NO	0667		https://www.dnb.no		postal		59.9034370475505	10.8224104338139						
121469	Meny Manglerud	PLOGVEIEN 6	OSLO	OSLO	NO	0679		https://www.dnb.no		postal		59.8973217330643	10.8133185571151						
121471	Rema 1000 Kalbakken	TRONDHEIMSVEIEN 391	OSLO	OSLO	NO	0953		https://www.dnb.no		postal		59.9523331178359	10.8674990766774						
121472	Kiwi 581 Lambertseter Senter	LANGB&Oslash;LGEN 13	OSLO	OSLO	NO	1150		https://www.dnb.no		postal		59.8727135602853	10.8116607872204						
121474	Coop Prix Hemnes	HEMNESVEIEN 220	HEMNES	AKERSHUS	NO	1970		https://www.dnb.no		postal		59.7205069592542	11.4540887429807						
121475	Extra Slependen	PUSTUTVEIEN 6	BILLINGSTAD	AKERSHUS	NO	1396		https://www.dnb.no		postal		59.8737086520608	10.5022535313229						
121476	Coop Mega Ullev&aring;l	SOGNSVEIEN 75	OSLO	OSLO	NO	0855		https://www.dnb.no		postal		59.9491596766653	10.7324362726481						
121480	Coop Mega Metro	BIBLIOTEKGATA 30	L&Oslash;RENSKOG	AKERSHUS	NO	1473		https://www.dnb.no		postal		59.9273609124591	10.956855593834						
121481	Rema 1000 Kl&oslash;fta	TRONDHEIMSV - KL&Oslash;FTA 86	KL&Oslash;FTA	AKERSHUS	NO	2040		https://www.dnb.no		postal		60.076516709359	11.1363090102248						
121483	Coop Mega Fredrikstad	BROCHS GATE 8	FREDRIKSTAD	&Oslash;STFOLD	NO	1607		https://www.dnb.no		postal		59.2141070700983	10.9401974820872						
121484	Extra Jessheim	TRONDHEIMSV - JESSHEIM 85	JESSHEIM	AKERSHUS	NO	2050		https://www.dnb.no		postal		60.1457035239358	11.1701538659739						
121485	Coop Mega Alexander Kiellands plass	WALDEMAR THRANES GATE 72	OSLO	OSLO	NO	0175		https://www.dnb.no		postal		59.928240472897	10.7503729822479						
121486	Extra Slemdal	STASJONSVEIEN 2	OSLO	OSLO	NO	0776		https://www.dnb.no		postal		59.9504570310327	10.6938345564475						
121487	Rema 1000 Ila	WALDEMAR THRANES GATE 25	OSLO	OSLO	NO	0171		https://www.dnb.no		postal		59.9255929932389	10.7449621364547						
121488	Coop Mega Kolbotn	KOLBOTNVEIEN 35	KOLBOTN	AKERSHUS	NO	1410		https://www.dnb.no		postal		59.8103919104368	10.7980746507515						
121489	Coop Obs! Jessheim	ROMSAAS ALLÉ 1	JESSHEIM	AKERSHUS	NO	2063		https://www.dnb.no		postal		60.1431429308924	11.1643049475287						
121490	Joker Aremark		AREMARK	&Oslash;STFOLD	NO	1798		https://www.dnb.no		postal		59.2206086534048	11.6974727763223						
121491	Coop Mega T&oslash;yen	HAGEGATA 23	OSLO	OSLO	NO	0653		https://www.dnb.no		postal		59.9143235049114	10.7741800506662						
121492	Extra Stovner	STOVNER SENTER 3	OSLO	OSLO	NO	0985		https://www.dnb.no		postal		59.9621479677582	10.9245500758168						
121493	Rema 1000 Nedre Rommen	NEDRE ROMMEN 1	OSLO	OSLO	NO	0988		https://www.dnb.no		postal		59.9631192713544	10.9080235944275						
121494	Extra Iseveien	R&Aring;DHUSVEIEN 24 A	BORGENHAUGEN	&Oslash;STFOLD	NO	1739		https://www.dnb.no		postal		59.26836016572	11.1667866406681						
121495	Extra Nesoddtangen	KAPELLVEIEN 2	NESODDTANGEN	AKERSHUS	NO	1452		https://www.dnb.no		postal		59.8456232078464	10.6707008875635						
121497	Meny Fornebu	SNAR&Oslash;YVEIEN 55	FORNEBU	AKERSHUS	NO	1364		https://www.dnb.no		postal		59.8930351652419	10.6195131961336						
121498	Coop Mega Bislett	DALSBERGSTIEN 19	OSLO	OSLO	NO	0167		https://www.dnb.no		postal		59.9230903056069	10.7329241763472						
121499	Bunnpris Lambertseter	NYL&AElig;NDE 5	OSLO	OSLO	NO	1154		https://www.dnb.no		postal		59.8760165321437	10.8185418154041						
121500	Coop Mega Sj&oslash;lyst	KARENSLYST ALL&Eacute; 58	OSLO	OSLO	NO	0277		https://www.dnb.no		postal		59.9211624307189	10.6774156171377						
121501	Coop Obs! Hypermarked Lillestr&oslash;m	NITTEDALSGATA 50	LILLESTR&Oslash;M	AKERSHUS	NO	2000		https://www.dnb.no		postal		59.9571823726573	11.0364529289892						
121502	Extra Rykkinn	VALKYRIEVEIEN 2	RYKKINN	AKERSHUS	NO	1349		https://www.dnb.no		postal		59.9290836078865	10.4669725215103						
121504	Extra Auli	SENTERVEGEN 7	AULI	AKERSHUS	NO	1929		https://www.dnb.no		postal		60.034011197426	11.3509808502946						
121505	Extra Bekkestua	GAMLE RINGERIKSVEI 35 A	BEKKESTUA	AKERSHUS	NO	1357		https://www.dnb.no		postal		59.9169327737307	10.5884194740901						
121506	Bunnpris Blindern	PROBLEMVEIEN 3	OSLO	OSLO	NO	0313		https://www.dnb.no		postal		59.9404345274344	10.720978870964						
121509	Bunnpris Ryen	RYENSVINGEN 1	OSLO	OSLO	NO	0680		https://www.dnb.no		postal		59.8938358049302	10.806063107644						
121510	Rema 1000 Furuset	TRYGVE LIES PLASS 1	OSLO	OSLO	NO	1051		https://www.dnb.no		postal		59.9414794334199	10.8976490389754						
121511	Extra Tveita Senter	TVETENVEIEN 150	OSLO	OSLO	NO	0671		https://www.dnb.no		postal		59.9143020372342	10.8418315092636						
121512	Bunnpris B&aring;stad	B&Aring;STADVEIEN 651	B&Aring;STAD	&Oslash;STFOLD	NO	1866		https://www.dnb.no		postal		59.7048657278384	11.2940718851598						
121513	Meny V&oslash;yenenga	V&Oslash;YENENGTUNET 14	V&Oslash;YENENGA	AKERSHUS	NO	1339		https://www.dnb.no		postal		59.9086458770987	10.4767658837296						
121514	Rema 1000 Skullerud	JOHAN SCHARFFENBERGS V 75 A	OSLO	OSLO	NO	0694		https://www.dnb.no		postal		59.8680528319844	10.8393194103924						
121515	Extra Flateby	KJENSLIVEIEN 1	FLATEBY	AKERSHUS	NO	1911		https://www.dnb.no		postal		59.8342150359089	11.1385195246532						
121516	Rema 1000 &Aring;r&aring;sen	&Aring;R&Aring;SSVINGEN 9	KJELLER	AKERSHUS	NO	2007		https://www.dnb.no		postal		59.9642209123389	11.0652316975118						
121517	Bunnpris Sk&aring;rer	SK&Aring;RERSLETTA 60 F	L&Oslash;RENSKOG	AKERSHUS	NO	1473		https://www.dnb.no		postal		59.9210046009731	10.9553915355242						
121518	Extra Gr&aring;lum	VESTERHEIMVEIEN 2	GR&Aring;LUM	&Oslash;STFOLD	NO	1712		https://www.dnb.no		postal		59.2942832087439	11.0646031651109						
121521	Joker Eiksmarka	EIKSVEIEN 57 B	EIKSMARKA	AKERSHUS	NO	1359		https://www.dnb.no		postal		59.9443344164072	10.6140257821635						
121522	Coop Prix Kambo Forum	SKREDDERVEIEN 2	MOSS	&Oslash;STFOLD	NO	1537		https://www.dnb.no		postal		59.4642678988194	10.6894416647656						
121523	V&aring;g Post AS Ytre Enebakk	SAGSTUVEIEN 1	YTRE ENEBAKK	AKERSHUS	NO	1914		https://www.dnb.no		postal		59.7239786241147	11.0504806163802						
121524	Coop Obs! Hypermarked Vinterbro	SJ&Oslash;SKOGENVEIEN 7	VINTERBRO	AKERSHUS	NO	1407		https://www.dnb.no		postal		59.739327009967	10.7707813492604						
121525	Rema 1000 Hoffsveien	HOFFSVEIEN 10 E	OSLO	OSLO	NO	0275		https://www.dnb.no		postal		59.9257582295432	10.6747029417339						
121527	Plantasjen Tunejordet	HUNDSKINNVEIEN 97	SARPSBORG	&Oslash;STFOLD	NO	1711		https://www.dnb.no		postal		59.2877787958243	11.079043861936						
121528	Rema 1000 Skiptvet	STORVEIEN 7	SKIPTVET	&Oslash;STFOLD	NO	1816		https://www.dnb.no		postal		59.471694835853	11.1641360087421						
121529	Rema 1000 Nannestad	EKERVEGEN 2 A	NANNESTAD	AKERSHUS	NO	2030		https://www.dnb.no		postal		60.2207256421877	11.0143590756158						
121530	Extra R&aring;holt	GLADBAKKVEGEN 1	R&Aring;HOLT	AKERSHUS	NO	2070		https://www.dnb.no		postal		60.2810614581763	11.1738676347265						
121532	Extra Vestby	GARDERVEIEN 15	VESTBY	AKERSHUS	NO	1540		https://www.dnb.no		postal		59.6003456967906	10.7462227347511						
121533	Bunnpris Gjettum	DR. H&Oslash;STS VEI 2	GJETTUM	AKERSHUS	NO	1346		https://www.dnb.no		postal		59.9022887675974	10.5170011356342						
121534	Extra Br&aring;n&aring;sen	BR&Aring;N&Aring;SLIA 4	SKEDSMOKORSET	AKERSHUS	NO	2019		https://www.dnb.no		postal		59.9915064518637	11.0280897273698						
121535	Coop Prix R&aring;de	MOSSEVEIEN 4	R&Aring;DE	&Oslash;STFOLD	NO	1640		https://www.dnb.no		postal		59.3522442307107	10.872946885494						
121536	Meny R&oslash;a	V&AElig;KER&Oslash;VEIEN 205 A	OSLO	OSLO	NO	0751		https://www.dnb.no		postal		59.9479689222272	10.6438760153765						
121537	Extra Trondheimsveien	TRONDHEIMSVEIEN 5 A	OSLO	OSLO	NO	0560		https://www.dnb.no		postal		59.9182730334629	10.7611052985816						
121538	Joker Nordberg	CARL KJELSENS VEI 21 B	OSLO	OSLO	NO	0860		https://www.dnb.no		postal		59.9612221479155	10.7445287459702						
121539	Extra Sofiemyr	KONGEVEIEN 49	SOFIEMYR	AKERSHUS	NO	1412		https://www.dnb.no		postal		59.7960972873832	10.8218041484652						
121540	Extra L&oslash;renfallet	HALDENVEGEN 321	S&Oslash;RUM	AKERSHUS	NO	1923		https://www.dnb.no		postal		60.0207992008254	11.2273046436133						
121541	Rema 1000 Ammerud	AMMERUDVEIEN 21	OSLO	OSLO	NO	0958		https://www.dnb.no		postal		59.9589102054451	10.8713762763212						
121542	Coop Prix Seiersten	GUTZEITS GATE 4	FREDRIKSTAD	&Oslash;STFOLD	NO	1610		https://www.dnb.no		postal		59.216644757042	10.9261993084308						
121543	Bunnpris Hvaler	R&Oslash;D 55	VESTER&Oslash;Y	&Oslash;STFOLD	NO	1684		https://www.dnb.no		postal		59.0790165779037	10.9399614292087						
121544	Extra Manstad	LERVIKVEIEN 26	MANSTAD	&Oslash;STFOLD	NO	1626		https://www.dnb.no		postal		59.2692850626387	10.7696017524996						
121545	Extra Elton&aring;sen	GAMLE &Aring;SVEGEN 91	HOLTER	AKERSHUS	NO	2034		https://www.dnb.no		postal		60.1355769476671	11.0237772426274						
121546	Extra Langhus	LANGHUSVEIEN 211	LANGHUS	AKERSHUS	NO	1405		https://www.dnb.no		postal		59.7546066365184	10.829578595957						
121547	Extra Prinsdal	NEDRE PRINSDALS VEI 70	OSLO	OSLO	NO	1263		https://www.dnb.no		postal		59.8344250164006	10.8084573426793						
121548	Rema 1000 Halmstad	RYGGEVEIEN 375	RYGGE	&Oslash;STFOLD	NO	1580		https://www.dnb.no		postal		59.3773579134274	10.7595993755992						
121549	Rema 1000 Bj&oslash;rndal	SLIMEVEIEN 6 A	OSLO	OSLO	NO	1275		https://www.dnb.no		postal		59.8326652028429	10.8385259716595						
121550	Rema 1000 Ellingsrud	SKANSEN TERRASSE 2	OSLO	OSLO	NO	1063		https://www.dnb.no		postal		59.9386472466926	10.908051438073						
121551	Rema 1000 Haugenstua	GARVER YTTEBORGS VEI 98	OSLO	OSLO	NO	0977		https://www.dnb.no		postal		59.9530680269527	10.9089061561948						
121552	Extra Bjerke	NANNESTADVEGEN 507	MAURA	AKERSHUS	NO	2032		https://www.dnb.no		postal		60.2540544247705	11.0270353542567						
121553	Spar Sperrebotn	V&Aring;LERVEIEN 925	SPERREBOTN	&Oslash;STFOLD	NO	1591		https://www.dnb.no		postal		59.4580974653354	10.8029968168843						
121554	Rema 1000 Christian Kroghsgate	CHRISTIAN KROHGS GATE 1	OSLO	OSLO	NO	0186		https://www.dnb.no		postal		59.9140327884388	10.7567584178045						
121555	Bunnpris V&aring;lerveien	V&Aring;LERVEIEN 130	MOSS	&Oslash;STFOLD	NO	1599		https://www.dnb.no		postal		59.441566719994	10.6936593192111						
121556	Rema 1000 Veitvet	VEITVETVEIEN 8	OSLO	OSLO	NO	0596		https://www.dnb.no		postal		59.9441348744478	10.8478216851588						
121557	Tomter Bibliotek	ENGEN 2	TOMTER	&Oslash;STFOLD	NO	1825		https://www.dnb.no		postal		59.6589225588738	11.0020714999331						
121558	Hageland Fredrikstad	ROLVS&Oslash;YVEIEN 205	FREDRIKSTAD	&Oslash;STFOLD	NO	1617		https://www.dnb.no		postal		59.2406575048526	10.9745746909958						
121559	Joker Jel&oslash;y	NESVEIEN 11	MOSS	&Oslash;STFOLD	NO	1513		https://www.dnb.no		postal		59.4417927688514	10.6444217593503						
121561	Coop Prix Braveien	B R A VEIEN 55	HALDEN	&Oslash;STFOLD	NO	1782		https://www.dnb.no		postal		59.1376177468412	11.37624925696						
121562	Extra N&aelig;ridsr&oslash;d	ASAKVEIEN 27	HALDEN	&Oslash;STFOLD	NO	1785		https://www.dnb.no		postal		59.1405810436352	11.4029457128181						
121563	Coop Prix Bj&oslash;rnemyr	TOSLETTA 44	BJ&Oslash;RNEMYR	AKERSHUS	NO	1453		https://www.dnb.no		postal		59.8305167416799	10.6424236955212						
121564	Bunnpris Rakkestad	STORGATA 20	RAKKESTAD	&Oslash;STFOLD	NO	1890		https://www.dnb.no		postal		59.4255018970578	11.3423665919898						
121565	Frogner Idrettslag	TRONDHEIMSVEGEN 350	FROGNER	AKERSHUS	NO	2016		https://www.dnb.no		postal		60.0253753255877	11.0993222032244						
121566	Coop Prix Jar	STORENGVEIEN 8	JAR	AKERSHUS	NO	1358		https://www.dnb.no		postal		59.919770424957	10.6249393845277						
121567	Rema 1000 Parkveien	PARKVEIEN 21	OSLO	OSLO	NO	0352		https://www.dnb.no		postal		59.921179082074	10.728889347935						
121568	Extra Haugerud senter	HAUGERUDSENTERET 1	OSLO	OSLO	NO	0673		https://www.dnb.no		postal		59.9226730158605	10.8563821384156						
121569	Rema 1000 S&oslash;renga	S&Oslash;RENGKAIA 11	OSLO	OSLO	NO	0194		https://www.dnb.no		postal		59.9040245921341	10.7559072729898						
121571	Rema 1000 Vinderen	HOLMENVEIEN 1	OSLO	OSLO	NO	0374		https://www.dnb.no		postal		59.9428363262976	10.7027821948484						
121572	Rema 1000 L&oslash;ken	SANDUMVEIEN 2	L&Oslash;KEN	AKERSHUS	NO	1960		https://www.dnb.no		postal		59.7956132006512	11.4668349700706						
121573	Matkroken Ljabru	LJABRUBAKKEN 1	OSLO	OSLO	NO	1165		https://www.dnb.no		postal		59.8537898910917	10.8021752488793						
121574	Matkroken Br&aring;ten	EKEBERGVEIEN 195	OSLO	OSLO	NO	1162		https://www.dnb.no		postal		59.8675103287381	10.7925936350059						
121575	Skedsmokorset Post	FURUVEIEN 1	SKEDSMOKORSET	AKERSHUS	NO	2020		https://www.dnb.no		postal		60.0000357171466	11.0408691790104						
121576	Rema 1000 &Aring;rvoll	&Aring;RVOLLVEIEN 17	OSLO	OSLO	NO	0590		https://www.dnb.no		postal		59.9451257045654	10.8089852175427						
121577	Rema 1000 B&aelig;rums Verk	ELVEGANGEN 7	B&AElig;RUMS VERK	AKERSHUS	NO	1353		https://www.dnb.no		postal		59.942401015922	10.5012701212535						
121578	Joker Gan	FETVEIEN 1202	GAN	AKERSHUS	NO	1903		https://www.dnb.no		postal		59.8812891988164	11.2204169526888						
122106	Kiwi 023 Harestua	FURUVEIEN 2	HARESTUA	OPPLAND	NO	2743		https://www.dnb.no		postal		60.2026784992334	10.7151045958666						
122114	Kiwi 207 Kapp	MJ&Oslash;SVEGEN 513	KAPP	OPPLAND	NO	2849		https://www.dnb.no		postal		60.7139234848387	10.8637745964316						
122145	Extra Vestad	MEIERIGATA 2	ELVERUM	HEDMARK	NO	2406		https://www.dnb.no		postal		60.8815904954527	11.5532217230477						
122149	Bunnpris Rasta	RASTAVEGEN 1	KONGSVINGER	HEDMARK	NO	2211		https://www.dnb.no		postal		60.1793984088194	12.018774937234						
122154	Joker Drevsj&oslash;	MOALIA 4	DREVSJ&Oslash;	HEDMARK	NO	2443		https://www.dnb.no		postal		61.8909635518722	12.0298919066137						
122157	Spar Os Mat	S&Oslash;STERGATA 4	OS I &Oslash;STERDALEN	HEDMARK	NO	2550		https://www.dnb.no		postal		62.4960764029386	11.223817703581						
122163	Spar Sannerud	FURNESVEGEN 134	HAMAR	HEDMARK	NO	2318		https://www.dnb.no		postal		60.8086825433917	11.0878787269338						
122167	Menkerud Motorsenter	HAMARVEGEN 75	LILLEHAMMER	OPPLAND	NO	2613		https://www.dnb.no		postal		61.0991367541161	10.4746666944258						
122168	Kiwi Skreia	TOTENVEGEN 790	SKREIA	OPPLAND	NO	2848		https://www.dnb.no		postal		60.6519609474588	10.9379557085739						
122180	Coop Mega V&aring;g&aring;	V&Aring;G&Aring;VEGEN 47	V&Aring;G&Aring;	OPPLAND	NO	2680		https://www.dnb.no		postal		61.8767278518721	9.09598914173273						
122181	Valdrestunet Matsenter	STOREBRUVEGEN 3	BAGN	OPPLAND	NO	2930		https://www.dnb.no		postal		60.82283436466	9.55367236980622						
122188	Kiwi Lom, Nils Haugen	BERGOMSVEGEN 17	LOM	OPPLAND	NO	2686		https://www.dnb.no		postal		61.8379765993542	8.56842258678774						
122189	Coop Marked Dovre	KONGSVEGEN 12	DOVRE	OPPLAND	NO	2662		https://www.dnb.no		postal		61.9867416503176	9.24853083641334						
122195	Spar Kodal	SAGMYRA 2	KODAL	VESTFOLD	NO	3243		https://www.dnb.no		postal		59.2147319358652	10.1367401085375						
122196	Spar Svarstad	L&Aring;GAVEIEN 25	SVARSTAD	VESTFOLD	NO	3275		https://www.dnb.no		postal		59.4011175208138	9.96239480111839						
122201	Kiwi Vear	MELSOMVIKVEIEN 603	VEAR	VESTFOLD	NO	3173		https://www.dnb.no		postal		59.2635258600065	10.362560071403						
122208	Meny Gloppe	NORDLYVEIEN 1	LARVIK	VESTFOLD	NO	3260		https://www.dnb.no		postal		59.0408089249815	10.0676810643696						
122213	Spar Tangen	TANGSTUBAKKEN 4	TANGEN	HEDMARK	NO	2337		https://www.dnb.no		postal		60.6176322887736	11.2671978422202						
122216	Meny Helgeroa	S&Oslash;NDERSR&Oslash;D	HELGEROA	VESTFOLD	NO	3295		https://www.dnb.no		postal		58.9882591921434	9.87304467593974						
122219	Spar Kvelde	HOLMFOSSVEIEN 22	KVELDE	VESTFOLD	NO	3282		https://www.dnb.no		postal		59.1902742760399	9.96446757551461						
122220	Spar Brekke&aring;sen	SKAUGVEIEN 2	V&Aring;LE	VESTFOLD	NO	3178		https://www.dnb.no		postal		59.4154077949011	10.2800033394443						
122222	Joker Land&aring;sbygda	LAND&Aring;SVEGEN 660	LAND&Aring;SBYGDA	OPPLAND	NO	2861		https://www.dnb.no		postal		60.8333631245216	10.2966357394595						
122224	Bunnpris Lesjaskog	STRANDVEGEN 181	LESJASKOG	OPPLAND	NO	2668		https://www.dnb.no		postal		62.2330848141246	8.35305150082844						
122229	Kiwi Grua	MYLLAVEGEN 6	GRUA	OPPLAND	NO	2742		https://www.dnb.no		postal		60.2568026388345	10.6599254895239						
122230	Kiwi Jaren	S&AElig;TERGUTUA 7	JAREN	OPPLAND	NO	2770		https://www.dnb.no		postal		60.3946253144755	10.5579304773601						
122246	Coop Marked Lalm	KOLBOTTVEGEN 2 A	LALM	OPPLAND	NO	2682		https://www.dnb.no		postal		61.8167325965592	9.27610712391426						
122249	Coop Marked Sel	NER&Oslash;YGARDSVEGEN 59	SEL	OPPLAND	NO	2672		https://www.dnb.no		postal		61.8468675442955	9.41724140618554						
122250	Kiwi Kvam	LINVEGEN 1	KVAM	OPPLAND	NO	2642		https://www.dnb.no		postal		61.6653868937815	9.69918897679301						
122251	Coop Marked Sk&aring;bu	SK&Aring;BUVEGEN 2666	SK&Aring;BU	OPPLAND	NO	2643		https://www.dnb.no		postal		61.5272602480237	9.41226005017578						
122253	Joker Sl&aring;stad	STORSJ&Oslash;VEGEN 441	SL&Aring;STAD	HEDMARK	NO	2110		https://www.dnb.no		postal		60.2836447916175	11.7714361481235						
122260	Joker Tingnes	TINGNESVEGEN 792	NES P&Aring; HEDMARKEN	HEDMARK	NO	2350		https://www.dnb.no		postal		60.7625094650578	10.9402419005395						
122261	Joker Helstad	GAMLE KONGEVEI 4103	RENDALEN	HEDMARK	NO	2485		https://www.dnb.no		postal		61.8932085985751	11.0766631119415						
122262	Spar Romedal	M&Aring;G&Aring;RDVEGEN 81	ROMEDAL	HEDMARK	NO	2334		https://www.dnb.no		postal		60.7368546925453	11.2918614780409						
122274	Joker Bakketun	VESTSIDA 426	KNAPPER	HEDMARK	NO	2130		https://www.dnb.no		postal		60.4685556094561	11.6219453656277						
122288	Joker Rollag	NESET 8	ROLLAG	BUSKERUD	NO	3626		https://www.dnb.no		postal		59.9838064142588	9.29661608752959						
122294	Joker Filtvet	FILTVETVEIEN 56	FILTVET	BUSKERUD	NO	3480		https://www.dnb.no		postal		59.572323766816	10.6125393225867						
122299	Joker Dagali Handel	DAGALI	DAGALI	BUSKERUD	NO	3588		https://www.dnb.no		postal		60.4109841184122	8.4410435714055						
122307	Spar Hanstad	JOHAN FALKBERGETS VEG 4	ELVERUM	HEDMARK	NO	2407		https://www.dnb.no		postal		60.861129705717	11.5676824760368						
122308	Meny N&oslash;tter&oslash;y	SKALLESTADVEIEN 2	SKALLESTAD	VESTFOLD	NO	3138		https://www.dnb.no		postal		59.2053407123071	10.4422640095676						
122343	Joker Brandval	GOGGESTREDET 2	BRANDVAL	HEDMARK	NO	2219		https://www.dnb.no		postal		60.3173700741425	12.0154184139902						
122345	Meny &Aring;ssiden	INGENI&Oslash;R RYBERGS GATE 56 B	DRAMMEN	BUSKERUD	NO	3024		https://www.dnb.no		postal		59.7537993938051	10.1369815549745						
122356	Joker Fall	HOLMEVEGEN 57 A	FALL	OPPLAND	NO	2864		https://www.dnb.no		postal		60.6690484030055	10.3630013908854						
122359	Bunnpris Bjorli	BJORLIVEGEN 11	BJORLI	OPPLAND	NO	2669		https://www.dnb.no		postal		62.2590664814659	8.20741964763189						
122360	Kiwi 250 Sjusj&oslash;en	SJUSJ&Oslash;VEGEN 2000	SJUSJ&Oslash;EN	HEDMARK	NO	2612		https://www.dnb.no		postal		61.1524133274459	10.6906549693689						
122374	Spar V&aring;ler	V&Aring;LERSENTERET	V&Aring;LER I SOL&Oslash;R	HEDMARK	NO	2436		https://www.dnb.no		postal		60.670828352962	11.8352463329085						
122378	Kiwi Utfarten Hamar	KARLSVOGNEN 2	HAMAR	HEDMARK	NO	2315		https://www.dnb.no		postal		60.8122978728982	11.0450166858186						
122388	Mix Handleriet Asnes	VEL&Oslash;YVEIEN 41	SANDEFJORD	VESTFOLD	NO	3222		https://www.dnb.no		postal		59.1039291587751	10.2427814000844						
122400	Joker Bruvoll	L&Oslash;KKERVEGEN 130	BRUVOLL	HEDMARK	NO	2123		https://www.dnb.no		postal		60.4407811459275	11.480859642763						
122401	Joker Melsom	MELSOMVIKVEIEN 187	MELSOMVIK	VESTFOLD	NO	3159		https://www.dnb.no		postal		59.2307475235788	10.3386216521543						
122406	Coop Prix Holtandalen	H B HARALDSENS GATE 36	HORTEN	VESTFOLD	NO	3188		https://www.dnb.no		postal		59.4112405240413	10.4650353360578						
122412	Spar Saulandtunet	SAULANDSVEGEN 422	SAULAND	TELEMARK	NO	3692		https://www.dnb.no		postal		59.6131847858588	8.9467860033514						
122422	Joker Hauker&oslash;d	MOVEIEN 111	SANDEFJORD	VESTFOLD	NO	3221		https://www.dnb.no		postal		59.1477450755712	10.1916018817896						
122429	Joker Aasheim	ENGERDALSVEIEN 83	RENDALEN	HEDMARK	NO	2485		https://www.dnb.no		postal		61.6956384446035	11.2134422271632						
122434	Coop Prix &Aring;foss	ELSETVEGEN 120	SKIEN	TELEMARK	NO	3731		https://www.dnb.no		postal		59.19501496757	9.53809137126256						
122441	Rendalen Servicesenter	GAMLE KONGEVEI 2443	RENDALEN	HEDMARK	NO	2485		https://www.dnb.no		postal		61.756295522729	11.1771375378332						
122442	Coop Obs! Rudsh&oslash;gda	STOLVSTADVEGEN 2	RUDSH&Oslash;GDA	HEDMARK	NO	2360		https://www.dnb.no		postal		60.9098337846215	10.8138010015035						
122443	Extra Vikasenteret	VIKAVEGEN 15 A	OTTESTAD	HEDMARK	NO	2312		https://www.dnb.no		postal		60.7835960205378	11.108960677816						
122445	Coop Marked Bybrua	ODNESVEGEN 491	BYBRUA	OPPLAND	NO	2822		https://www.dnb.no		postal		60.8016972515806	10.5696410987127						
122446	Coop Marked Kolbu	BRUSTADVEGEN 2	KOLBU	OPPLAND	NO	2847		https://www.dnb.no		postal		60.6493142085262	10.7419926260883						
122448	N&aelig;rbutikken Hundorp	KOMMUNEVEGEN 9	S&Oslash;R-FRON	OPPLAND	NO	2647		https://www.dnb.no		postal		61.5560745646599	9.93854890541749						
122449	Coop Marked Ilseng	GAMLEVEGEN 25	ILSENG	HEDMARK	NO	2344		https://www.dnb.no		postal		60.7744536734788	11.2217512709691						
122451	Kiwi Skj&aelig;rhalden	KJ&Oslash;LHOLTVEIEN 1	SKJ&AElig;RHALDEN	&Oslash;STFOLD	NO	1680		https://www.dnb.no		postal		59.0277687622041	11.0327937371662						
122452	Meny Borreveien	BORREVEIEN 92	HORTEN	VESTFOLD	NO	3186		https://www.dnb.no		postal		59.3937573404978	10.4629848264216						
122455	Gamlebyen Frukt Og Tobakk	F&AElig;RGEPORTGATEN 81	GAMLE FREDRIKSTAD	&Oslash;STFOLD	NO	1632		https://www.dnb.no		postal		59.2042066147776	10.9557143122226						
122461	Kiwi Gre&aring;ker	TAMBURVEIEN 9	GRE&Aring;KER	&Oslash;STFOLD	NO	1718		https://www.dnb.no		postal		59.2678869350802	11.0320541600194						
122462	Meny Wilbergjordet	WILBERGJORDET 10	FREDRIKSTAD	&Oslash;STFOLD	NO	1605		https://www.dnb.no		postal		59.2249704259569	10.9540957221094						
122463	Meny Begby	OLAV KYRRES VEI 2	GAMLE FREDRIKSTAD	&Oslash;STFOLD	NO	1639		https://www.dnb.no		postal		59.2173014208923	11.008439352938						
122466	Spar Klavestadhaugen	SKJEBERGVEIEN 123 A	KLAVESTADHAUGEN	&Oslash;STFOLD	NO	1743		https://www.dnb.no		postal		59.2547123809878	11.1759047479364						
122467	Spar Mosenteret	ENGVEGEN 14	GARDVIK	HEDMARK	NO	2133		https://www.dnb.no		postal		60.4254668187261	11.6401452761117						
122468	Coop Marked Sunhov	H&Aring;KONSETGUTU 1 A	HOVET	BUSKERUD	NO	3577		https://www.dnb.no		postal		60.6223237336339	8.15335876265604						
122479	Coop Prix &Oslash;rje	TREKANTEN 6	&Oslash;RJE	&Oslash;STFOLD	NO	1870		https://www.dnb.no		postal		59.4806617452063	11.6616014385211						
122494	Spar Hvittingfoss	SENTRUMSVEIEN 28	HVITTINGFOSS	BUSKERUD	NO	3647		https://www.dnb.no		postal		59.4830351470679	10.0101634119377						
122497	Kiwi Skoppum	TUNET	SKOPPUM	VESTFOLD	NO	3185		https://www.dnb.no		postal		59.3852559716459	10.4046929599269						
122500	Spar Gausdal	STENSRUDVEGEN 23	&Oslash;STRE GAUSDAL	OPPLAND	NO	2651		https://www.dnb.no		postal		61.2264201621726	10.2276144748336						
122503	Kiwi R&oslash;n	LUNDESKOGEN 9	R&Oslash;N	OPPLAND	NO	2960		https://www.dnb.no		postal		61.0337068177776	9.05446174474671						
122507	Meny &Aring;mot	ENGERKRYSSET	&Aring;MOT	BUSKERUD	NO	3340		https://www.dnb.no		postal		59.8933654560229	9.92581509657948						
122510	Coop Marked B&oslash;verbru	B&Oslash;VERBRUGATA 9	B&Oslash;VERBRU	OPPLAND	NO	2846		https://www.dnb.no		postal		60.6644683092782	10.6746110677734						
122511	Joker Grue Finnskog	FINNSKOGVEGEN 2490	GRUE FINNSKOG	HEDMARK	NO	2256		https://www.dnb.no		postal		60.4187538919364	12.404090415361						
122512	Extra Hafslunds&oslash;y	HELGEBYVEIEN 8	HAFSLUNDS&Oslash;Y	&Oslash;STFOLD	NO	1734		https://www.dnb.no		postal		59.2916111099708	11.1498464205637						
122518	Joker Vingrom	PAUL A. OWRENS VEG 45	VINGROM	OPPLAND	NO	2607		https://www.dnb.no		postal		61.0444394225069	10.4303292087849						
122519	Joker Flesberg	NUMEDALSVEGEN 2937	FLESBERG	BUSKERUD	NO	3620		https://www.dnb.no		postal		59.8634969698191	9.42779194508575						
122522	Joker Lesja	JAKUP B. KLUKSTADS VEG 48	LESJA	OPPLAND	NO	2665		https://www.dnb.no		postal		62.1181432845534	8.86128789632421						
122523	Spar Hemsedal	HEMSEDALSVEGEN 2947	HEMSEDAL	BUSKERUD	NO	3560		https://www.dnb.no		postal		60.8623980848166	8.55479694032378						
122524	Coop Prix Tj&oslash;lling	STASJONSVEIEN 1	TJODALYNG	VESTFOLD	NO	3280		https://www.dnb.no		postal		59.0627363922894	10.1515532418632						
122525	Extra Gullhaug	GURANNVEIEN 1	HOLMESTRAND	VESTFOLD	NO	3089		https://www.dnb.no		postal		59.4999413884625	10.2571932987507						
122528	Joker Osen	OSVEIEN 2455	OSEN	HEDMARK	NO	2460		https://www.dnb.no		postal		61.3010372677271	11.7646411067364						
122532	Meny R&aring;el	LUNAS VEI 2	T&Oslash;NSBERG	VESTFOLD	NO	3113		https://www.dnb.no		postal		59.2665979241336	10.4535507822781						
122552	Kiwi Lampeland	NUMEDALSVEGEN 1966	LAMPELAND	BUSKERUD	NO	3623		https://www.dnb.no		postal		59.8353187798972	9.57872400901105						
122556	Joker Amundsen	HOFVEGEN 261	ARNEBERG	HEDMARK	NO	2266		https://www.dnb.no		postal		60.5530318961472	12.0220882764492						
122563	Coop Marked Kvikne		KVIKNE	HEDMARK	NO	2512		https://www.dnb.no		postal		62.5656799581205	10.3230751649579						
122564	Extra Gamlegrend&aring;sen	JOSEFINE NILSENS VEI 1	KONGSBERG	BUSKERUD	NO	3610		https://www.dnb.no		postal		59.6528334675788	9.65938400702056						
122571	Meny Fritz&oslash;e Brygge	FRITZ&Oslash;E BRYGGE	LARVIK	VESTFOLD	NO	3264		https://www.dnb.no		postal		59.0499883653891	10.0215029544117						
122575	Namn&aring; Shell Senter	SOL&Oslash;RVEGEN 1445	NAMN&Aring;	HEDMARK	NO	2265		https://www.dnb.no		postal		60.4898651440807	12.0779649053833						
122578	Meny Arena Pindsle	NYG&Aring;RDSVEIEN 84	SANDEFJORD	VESTFOLD	NO	3221		https://www.dnb.no		postal		59.1377621232975	10.1788257216895						
122582	Coop Mega Lillehammer	GUDBRANDSDALSVEGEN 188	LILLEHAMMER	OPPLAND	NO	2619		https://www.dnb.no		postal		61.1273876618886	10.452860637879						
122583	Meny Indre Havn	KILGATA 25	SANDEFJORD	VESTFOLD	NO	3217		https://www.dnb.no		postal		59.127848679597	10.2413479026635						
122585	Extra Spydeberg	WILSES VEI 3	SPYDEBERG	&Oslash;STFOLD	NO	1820		https://www.dnb.no		postal		59.6151686195228	11.0803293604432						
122591	Extra Glommen Brygge	KR&Aring;KER&Oslash;YVEIEN 2 A	KR&Aring;KER&Oslash;Y	&Oslash;STFOLD	NO	1671		https://www.dnb.no		postal		59.2064540312001	10.9378464521986						
122594	Extra F&aring;vang	TROMSNESVEGEN 34	F&Aring;VANG	OPPLAND	NO	2634		https://www.dnb.no		postal		61.4539151314547	10.1903863978063						
122595	Coop Mega Ringebu	HANSTADGATA 5	RINGEBU	OPPLAND	NO	2630		https://www.dnb.no		postal		61.5304491356198	10.1412108193002						
122596	Spar Fyresdal	FOLKESTADGATA 4	FYRESDAL	TELEMARK	NO	3870		https://www.dnb.no		postal		59.1847334455651	8.09154010170984						
122597	Meny Liertoppen	DRAMMENSVEIEN 201	LIERSKOGEN	BUSKERUD	NO	3420		https://www.dnb.no		postal		59.8095596887874	10.3001438556913						
122598	Coop Mega Domb&aring;s	SENTRALPLASSEN 5 A	DOMB&Aring;S	OPPLAND	NO	2660		https://www.dnb.no		postal		62.07346997014	9.12632234200401						
122599	Meny Revetal	K&Aring;PEVEIEN 7	REVETAL	VESTFOLD	NO	3174		https://www.dnb.no		postal		59.3717432070828	10.2642992636364						
122603	Extra Gressvik	STORVEIEN 81	GRESSVIK	&Oslash;STFOLD	NO	1621		https://www.dnb.no		postal		59.2167742832669	10.9060160667837						
122604	Kiwi Aurdal	OSLOVEGEN 1229	AURDAL	OPPLAND	NO	2910		https://www.dnb.no		postal		60.9195393965062	9.42248414883453						
122605	Meny Horten	DAMPEJORDET 1 A	HORTEN	VESTFOLD	NO	3189		https://www.dnb.no		postal		59.4285699434144	10.4528629319287						
122609	Coop Mega Raufoss	STORGATA 49	RAUFOSS	OPPLAND	NO	2830		https://www.dnb.no		postal		60.728726357666	10.6144730945215						
122612	Spar Noresund		NORESUND	BUSKERUD	NO	3536		https://www.dnb.no		postal		60.173145709726	9.63686268765444						
122615	Meny Stavern	LARVIKSVEIEN 13 A	STAVERN	VESTFOLD	NO	3290		https://www.dnb.no		postal		59.0001982499368	10.0342901499025						
122621	Joker Tor&oslash;d	TOR&Oslash;DVEIEN 45	TOR&Oslash;D	VESTFOLD	NO	3135		https://www.dnb.no		postal		59.1785086688776	10.4406389672381						
122623	Bunnpris Skotselv	VERKSVEIEN 19	SKOTSELV	BUSKERUD	NO	3330		https://www.dnb.no		postal		59.8424535794299	9.89244589645838						
122628	Spar Geilo	VESLESL&Aring;TTVEGEN 19	GEILO	BUSKERUD	NO	3580		https://www.dnb.no		postal		60.5346863684431	8.20947416503948						
122630	Spar Kaldnes Brygge	RAMBERGVEIEN 1	T&Oslash;NSBERG	VESTFOLD	NO	3115		https://www.dnb.no		postal		59.2639484210765	10.4025387875836						
122631	Spar Beitost&oslash;len	BYGDINVEGEN 3783	BEITOST&Oslash;LEN	OPPLAND	NO	2953		https://www.dnb.no		postal		61.2486447756422	8.90691111082322						
122636	Meny Stokke	JOHANNES SANDVIKS VEI 2	STOKKE	VESTFOLD	NO	3160		https://www.dnb.no		postal		59.2225145540085	10.3075835353265						
122638	Extra Helle	HELLEVEIEN 180	HELLE	TELEMARK	NO	3790		https://www.dnb.no		postal		58.9010609070562	9.37939416805923						
122642	Spar Kullboden	LANGGATEN 21 A	HOLMESTRAND	VESTFOLD	NO	3080		https://www.dnb.no		postal		59.489127433659	10.3171472592417						
122645	Coop Prix Vestre Gausdal	JORDMORVEGEN 11	VESTRE GAUSDAL	OPPLAND	NO	2653		https://www.dnb.no		postal		61.2019023738368	10.1445325331104						
122647	Joker J&oslash;rstadmoen	BAKLIVEGEN 1	F&Aring;BERG	OPPLAND	NO	2625		https://www.dnb.no		postal		61.1534956706552	10.3913484427098						
122649	Coop Mega Storhamar	M&Aring;S&Aring;BEKKVEGEN 2	HAMAR	HEDMARK	NO	2316		https://www.dnb.no		postal		60.803629862116	11.0440268008398						
122650	Joker Ryfoss	RYFOSSVEGEN 111	RYFOSS	OPPLAND	NO	2973		https://www.dnb.no		postal		61.1375897572016	8.82172278816078						
122652	Rema 1000 Borgheim	SEMSVEIEN 1	N&Oslash;TTER&Oslash;Y	VESTFOLD	NO	3140		https://www.dnb.no		postal		59.2260045627813	10.4081984774878						
122654	Kiwi Fl&aring;	SVINGELIE 6	FL&Aring;	BUSKERUD	NO	3539		https://www.dnb.no		postal		60.431291643155	9.45858573705288						
122658	Extra Kirkeby	VALDRESVEGEN 6	GJ&Oslash;VIK	OPPLAND	NO	2815		https://www.dnb.no		postal		60.7810001196781	10.6907938957089						
122659	Extra S&aelig;tre	FRANS&Aring;SVEIEN 2	S&AElig;TRE	BUSKERUD	NO	3475		https://www.dnb.no		postal		59.6817313818844	10.5259420264836						
122660	YX Reinsvoll	R&Oslash;ST&Oslash;ENVEGEN 1	REINSVOLL	OPPLAND	NO	2840		https://www.dnb.no		postal		60.685828855264	10.6137595016688						
122664	Coop Prix Nesbyen	RUKKEDALSVEGEN 5	NESBYEN	BUSKERUD	NO	3540		https://www.dnb.no		postal		60.5706952719266	9.1112480328581						
122666	Joker Br&oslash;ttum	M&AElig;LUMSVEGEN 5 A	BR&Oslash;TTUM	HEDMARK	NO	2372		https://www.dnb.no		postal		61.0292343348631	10.5526568986389						
122667	Spar Nykirke	KOPSTADVEIEN 3	NYKIRKE	VESTFOLD	NO	3180		https://www.dnb.no		postal		59.4246018955864	10.3827236219914						
122668	Meny Andebu	ANDEBU SENTRUM 21	ANDEBU	VESTFOLD	NO	3158		https://www.dnb.no		postal		59.3053114417821	10.1768428178268						
122670	Joker Brenneriroa	BUDORVEGEN 2	L&Oslash;TEN	HEDMARK	NO	2340		https://www.dnb.no		postal		60.8275812184523	11.3026502291356						
122675	Coop Prix Drangedal	STRANDGATA 1	DRANGEDAL	TELEMARK	NO	3750		https://www.dnb.no		postal		59.0967692979349	9.06183912657525						
122679	Coop Prix Snertingdal	SNERTINGDALSVEGEN 1722	SNERTINGDAL	OPPLAND	NO	2838		https://www.dnb.no		postal		60.8803850524312	10.3881821809781						
122681	Coop Prix Folldal	GRUVVEGEN 14	FOLLDAL	HEDMARK	NO	2580		https://www.dnb.no		postal		62.1331462992667	9.99370292863917						
122682	Joker Hedalen	HEDALSVEGEN 2036	HEDALEN	OPPLAND	NO	3528		https://www.dnb.no		postal		60.6190706255596	9.72897605672381						
122683	Coop Marked Heidal	HEIDALSVEGEN 1770	HEIDAL	OPPLAND	NO	2676		https://www.dnb.no		postal		61.7573376029668	9.29395759708583						
122685	Coop Marked Kroken	KROKENVEIEN 1671	NESLANDSVATN	TELEMARK	NO	3760		https://www.dnb.no		postal		58.968644673577	9.15894578306911						
122688	Coop Prix Alvdal	STEIA 15	ALVDAL	HEDMARK	NO	2560		https://www.dnb.no		postal		62.1089233703709	10.631664844106						
122692	Coop Prix Lena	HOVDESVINGEN 3	LENA	OPPLAND	NO	2850		https://www.dnb.no		postal		60.6787303732047	10.8142266914464						
122695	Coop Prix Biri	BIRIVEGEN 56	BIRI	OPPLAND	NO	2836		https://www.dnb.no		postal		60.9553566786699	10.6094068060357						
122696	Coop Prix &Aring;ker	TODDERUDVEGEN 19 A	RIDABU	HEDMARK	NO	2322		https://www.dnb.no		postal		60.8011779662647	11.123528544036						
122697	Coop Prix Vestfossen	M&Oslash;LLERGATA 1	VESTFOSSEN	BUSKERUD	NO	3320		https://www.dnb.no		postal		59.7334902386198	9.86809297092493						
122699	Coop Prix Bjerk&aring;s	H&Oslash;YMYRMARKA 3	VOLLEN	AKERSHUS	NO	1391		https://www.dnb.no		postal		59.7930282109681	10.4851607728627						
122700	Coop Prix Gvarv	GVARVGATA 41	GVARV	TELEMARK	NO	3810		https://www.dnb.no		postal		59.3877578057211	9.17423127422314						
122707	Coop Obs! Olrud	K&Aring;RTORPVEGEN 1	FURNES	HEDMARK	NO	2320		https://www.dnb.no		postal		60.8299910584076	11.0658830719816						
122709	Extra Vikersund	VIKERSUNDGATA 34	VIKERSUND	BUSKERUD	NO	3370		https://www.dnb.no		postal		59.9648294600885	9.99376251292757						
122710	Joker Kilen	KAPTEIN DREYERS VEG 1509	&Aring;SNES FINNSKOG	HEDMARK	NO	2283		https://www.dnb.no		postal		60.6673396249285	12.2021385759038						
122711	Spar Toppen	GREG. DAGSSONS GATE 50	SKIEN	TELEMARK	NO	3746		https://www.dnb.no		postal		59.1938105735637	9.62620271890517						
122714	Spar S&oslash;bakken	S&Oslash;BAKKVEGEN 2	ELVERUM	HEDMARK	NO	2409		https://www.dnb.no		postal		60.9007586330509	11.5605784750464						
122715	Coop Marked Dal	FURUSETHSENTERET	DAL	AKERSHUS	NO	2072		https://www.dnb.no		postal		60.249114774964	11.2076747273544						
122716	Extra Skotterud	DR. LUNDERBYS VEG 4	SKOTTERUD	HEDMARK	NO	2230		https://www.dnb.no		postal		59.9854261023308	12.1216240873613						
122717	Coop Mega Kongsvinger	JERNBANEGATA 6	KONGSVINGER	HEDMARK	NO	2211		https://www.dnb.no		postal		60.1863328446359	12.0055342629292						
122718	Extra Kongsvinger	KRISTIAN WALBYS VEG 2	KONGSVINGER	HEDMARK	NO	2212		https://www.dnb.no		postal		60.2007121096987	11.9775628184175						
122719	Extra Sand	HERREDSVEGEN 4	SAGSTUA	HEDMARK	NO	2120		https://www.dnb.no		postal		60.3928433675373	11.5418857067599						
122720	Spar Vang	SLEMSRUDVEGEN 8	VANG P&Aring; HEDMARKEN	HEDMARK	NO	2324		https://www.dnb.no		postal		60.8451956286898	11.2002036339122						
122721	Joker N&aelig;rsnes	SUNDBYVEIEN 19	N&AElig;RSNES	BUSKERUD	NO	3478		https://www.dnb.no		postal		59.7591718548149	10.5077975526832						
122722	Coop Marked Knai	VESTSIDEVEGEN 27	HURDAL	AKERSHUS	NO	2090		https://www.dnb.no		postal		60.4290240602706	11.0645596120458						
122723	Coop Marked Feiring	FEIRINGVEGEN 1153	FEIRING	AKERSHUS	NO	2093		https://www.dnb.no		postal		60.4818444476006	11.1584101699456						
122725	Coop Marked Tolga		TOLGA	HEDMARK	NO	2540		https://www.dnb.no		postal		62.4095521555318	10.9984976132947						
122727	Spar Prestfoss	HALLINGBERGET 1	PRESTFOSS	BUSKERUD	NO	3350		https://www.dnb.no		postal		60.0432423462801	9.63414402163386						
122728	Spar F&oslash;ynland	FJ&AElig;RHOLMVEIEN 1	HUS&Oslash;YSUND	VESTFOLD	NO	3132		https://www.dnb.no		postal		59.236371411747	10.4502627617872						
122729	Extra Mosser&oslash;d	RINGVEIEN 71	SANDEFJORD	VESTFOLD	NO	3226		https://www.dnb.no		postal		59.1465225645282	10.2076546182901						
122730	Joker Kjellmyra	HOLMBAKKEN 2	GJES&Aring;SEN	HEDMARK	NO	2280		https://www.dnb.no		postal		60.6408651509177	12.0333394400065						
122732	Joker Egedahl		NORE	BUSKERUD	NO	3629		https://www.dnb.no		postal		60.1685795393957	9.01114979473945						
122733	Coop Prix Vormsund	KJ&Oslash;LSTADVEGEN 1	VORMSUND	AKERSHUS	NO	2160		https://www.dnb.no		postal		60.1512105358681	11.4108215385462						
122739	Kiwi Falkum	HJALMAR JOHANSENS GATE 10	SKIEN	TELEMARK	NO	3722		https://www.dnb.no		postal		59.2122670338748	9.58873680572193						
122741	N&aelig;rbutikken Nissedal	NISSEDALSVEGEN 910	NISSEDAL	TELEMARK	NO	3854		https://www.dnb.no		postal		59.1651296075624	8.50109005784747						
122744	Rema 1000 Gulskogen	PROFESSOR SMITHS ALLE 54	DRAMMEN	BUSKERUD	NO	3048		https://www.dnb.no		postal		59.7419927392653	10.1619041874114						
122745	Europris L&oslash;ten	STASJONSVEGEN 12 B	L&Oslash;TEN	HEDMARK	NO	2340		https://www.dnb.no		postal		60.8198715823879	11.3420810898955						
122746	Joker Vr&aring;dal	VR&Aring;LIOSVEGEN 50	VR&Aring;DAL	TELEMARK	NO	3853		https://www.dnb.no		postal		59.3257369388234	8.4844253919633						
122747	Rema 1000 Tynset	ELFENGVEIEN 4 B	TYNSET	HEDMARK	NO	2500		https://www.dnb.no		postal		62.2788473254279	10.775638361683						
122748	Extra Festningen	&Oslash;VRE LANGELANDSVEG 34	KONGSVINGER	HEDMARK	NO	2213		https://www.dnb.no		postal		60.1965610595642	11.9997107623353						
122750	Coop Prix Vestsiden	MYNTGATA 16	KONGSBERG	BUSKERUD	NO	3616		https://www.dnb.no		postal		59.6636544689354	9.64737787237137						
122751	Coop Prix Hokksund sentrum	TANGENGATA 2	HOKKSUND	BUSKERUD	NO	3300		https://www.dnb.no		postal		59.7691754681468	9.9094503216742						
122755	Extra Dokka	STORGATA 27	DOKKA	OPPLAND	NO	2870		https://www.dnb.no		postal		60.8338051054542	10.0759034392541						
122758	Coop Prix Frankendalsveien	FRANKENDALSVEIEN 95	LARVIK	VESTFOLD	NO	3274		https://www.dnb.no		postal		59.0648317797504	10.0519650857567						
122760	Coop Prix Mj&oslash;ndalen	ARBEIDERGATA 6	MJ&Oslash;NDALEN	BUSKERUD	NO	3050		https://www.dnb.no		postal		59.7495048091481	10.0149609713117						
122761	Joker Vallset	SKALBERGVEGEN 2	VALLSET	HEDMARK	NO	2330		https://www.dnb.no		postal		60.6847397050049	11.3440539856144						
122763	Trysil Libris	STORVEGEN 30	TRYSIL	HEDMARK	NO	2420		https://www.dnb.no		postal		61.3125957625531	12.2674269734493						
122765	Meny Slemmestad	KIRKEALLEEN 1	SLEMMESTAD	BUSKERUD	NO	3470		https://www.dnb.no		postal		59.7764439599464	10.4861921840801						
122766	Extra Notodden	STORGATA 13	NOTODDEN	TELEMARK	NO	3674		https://www.dnb.no		postal		59.5569586439473	9.25518349733335						
122767	Coop Mega Berja	HERMAN FOSS GATE 12	KONGSBERG	BUSKERUD	NO	3611		https://www.dnb.no		postal		59.672060198036	9.64893393260645						
122769	Bunnpris Blakstad	SLEMMESTADVEIEN 243	VETTRE	AKERSHUS	NO	1392		https://www.dnb.no		postal		59.8149829981959	10.4672041890942						
122770	Extra Larvik	NANSETGATA 11	LARVIK	VESTFOLD	NO	3256		https://www.dnb.no		postal		59.0543011914866	10.029312732034						
122772	Extra Porsgrunn	JERNBANEGATA 3	PORSGRUNN	TELEMARK	NO	3916		https://www.dnb.no		postal		59.1394445126991	9.65487048716825						
122775	Joker Braskereidfoss	BRASKEREIDSVEGEN 1	BRASKEREIDFOSS	HEDMARK	NO	2435		https://www.dnb.no		postal		60.7254144175017	11.7992899271686						
122776	Extra Hunndalen	RAUFOSSVEGEN 223	HUNNDALEN	OPPLAND	NO	2827		https://www.dnb.no		postal		60.7858020783483	10.6418657875788						
122778	Joker Vingar	PINNIKVEGEN 2	LILLEHAMMER	OPPLAND	NO	2608		https://www.dnb.no		postal		61.1049817863015	10.4332847506123						
122779	Eurospar Brumunddal	BRUGATA 16	BRUMUNDDAL	HEDMARK	NO	2380		https://www.dnb.no		postal		60.8847878855652	10.943398308815						
122780	Coop Prix F&aring;berggata	F&Aring;BERGGATA 126	LILLEHAMMER	OPPLAND	NO	2615		https://www.dnb.no		postal		61.1198577672917	10.4591871519901						
122781	Spar Eggedal		EGGEDAL	BUSKERUD	NO	3359		https://www.dnb.no		postal		60.2460263546266	9.35587438825084						
122785	Kiwi Roverud	ROVERUDGATA 30	ROVERUD	HEDMARK	NO	2216		https://www.dnb.no		postal		60.2527357766982	12.0586575877704						
122786	Meny Braker&oslash;ya	BRANDTENBORGGATA 1	DRAMMEN	BUSKERUD	NO	3012		https://www.dnb.no		postal		59.7410088938784	10.2219054248331						
122787	Spar Leira	MARKAVEGEN 2	LEIRA I VALDRES	OPPLAND	NO	2920		https://www.dnb.no		postal		60.9711659933748	9.28873861472445						
122788	Kiwi Lunner	LUNNERLINNA 28 A	LUNNER	OPPLAND	NO	2730		https://www.dnb.no		postal		60.3030099766685	10.5843663889082						
122789	Spar Ottestad	HOBERGVEGEN 147	OTTESTAD	HEDMARK	NO	2312		https://www.dnb.no		postal		60.7697182236338	11.1282514963203						
122790	Coop Prix Veggli	KOLVEGEN 2	VEGGLI	BUSKERUD	NO	3628		https://www.dnb.no		postal		60.0404764679596	9.15661312195047						
122793	Joker Austmarka	M&Oslash;LLEVEGEN 92	AUSTMARKA	HEDMARK	NO	2224		https://www.dnb.no		postal		60.096768434366	12.3218547186638						
122794	Extra Hvaltorget	TORGET 7	SANDEFJORD	VESTFOLD	NO	3210		https://www.dnb.no		postal		59.130171287347	10.2262371392987						
122796	Bunnpris Nittedal	STASJONSVEIEN 69	NITTEDAL	AKERSHUS	NO	1482		https://www.dnb.no		postal		60.0586221940129	10.866856253033						
122799	Matkroken Etnedal	ETNEDALSVEGEN 1212	ETNEDAL	OPPLAND	NO	2890		https://www.dnb.no		postal		60.8887593881166	9.64250366090855						
122800	Spar Sundvollen	DRONNINGVEIEN 3	KROKKLEIVA	BUSKERUD	NO	3531		https://www.dnb.no		postal		60.0620222974559	10.3099290324032						
122801	Coop Prix Herre	HELLESTVEDTVEIEN 1	HERRE	TELEMARK	NO	3965		https://www.dnb.no		postal		59.1032679250419	9.5609027222556						
122802	Spar Haukeli	STOREGUTVEGEN 250	EDLAND	TELEMARK	NO	3895		https://www.dnb.no		postal		59.7370806936179	7.56576785469974						
122803	Joker Darbu	KONGSBERGVEIEN 750	FISKUM	BUSKERUD	NO	3322		https://www.dnb.no		postal		59.6963233009743	9.79676920032929						
122804	Spar Holsfjorden	MODUMVEIEN 43	SYLLING	BUSKERUD	NO	3410		https://www.dnb.no		postal		59.894194864205	10.2839798188						
122805	Spar Vinje	VINJEVEGEN 200	VINJE	TELEMARK	NO	3890		https://www.dnb.no		postal		59.5695504899089	7.98749621504519						
122806	Extra B&oslash; i Telemark	B&Oslash;GATA 34	B&Oslash; I TELEMARK	TELEMARK	NO	3800		https://www.dnb.no		postal		59.41420511687	9.06442144190423						
122807	Meny Kuben	KONG RINGS GATE 1	H&Oslash;NEFOSS	BUSKERUD	NO	3510		https://www.dnb.no		postal		60.1647314713147	10.254802868142						
122809	Extra Tranby	TRANBY TORG 6	TRANBY	BUSKERUD	NO	3408		https://www.dnb.no		postal		59.8112690740399	10.2690996644033						
122810	Coop Mega H&oslash;nefoss	H&Oslash;NENGATA 73	H&Oslash;NEFOSS	BUSKERUD	NO	3515		https://www.dnb.no		postal		60.1781534628371	10.2699260101974						
122811	Coop Prix Hallingby	HVALSBRUVEIEN 2 A	HALLINGBY	BUSKERUD	NO	3525		https://www.dnb.no		postal		60.2694509142121	10.1821228924867						
122812	Coop Marked Kr&oslash;deren	KR&Oslash;DERGATA	KR&Oslash;DEREN	BUSKERUD	NO	3535		https://www.dnb.no		postal		60.1243903131044	9.78494841913006						
122813	Coop Marked Nedre Eggedal		NEDRE EGGEDAL	BUSKERUD	NO	3358		https://www.dnb.no		postal		60.1350764455009	9.43749361357186						
122814	Coop Prix Nes i &Aring;dal	HEDALSVEIEN 1	NES I &Aring;DAL	BUSKERUD	NO	3524		https://www.dnb.no		postal		60.5633805765022	9.98691505811366						
122815	Extra Tyristrand	HOLLEIAVEIEN 8	TYRISTRAND	BUSKERUD	NO	3533		https://www.dnb.no		postal		60.086485701738	10.099888121389						
122816	Coop Marked Kirkebygden		UVDAL	BUSKERUD	NO	3632		https://www.dnb.no		postal		60.2694351138293	8.7510294927565						
122817	Bunnpris Bismo	SKJ&Aring;KVEGEN 1230	SKJ&Aring;K	OPPLAND	NO	2690		https://www.dnb.no		postal		61.8849061886803	8.26360141993627						
122818	Coop Prix Fjellvang	TYINVEGEN 5125	VANG I VALDRES	OPPLAND	NO	2975		https://www.dnb.no		postal		61.1262510090356	8.57860409908096						
122819	Coop Marked Slidre	SLIDREVEGEN 14	SLIDRE	OPPLAND	NO	2966		https://www.dnb.no		postal		61.0874811621499	8.98138007685294						
122820	Coop Prix Heggenes	BYGDINVEGEN 2128	HEGGENES	OPPLAND	NO	2940		https://www.dnb.no		postal		61.1432591322629	9.06928397658406						
122821	Coop Marked Rogne	BYGDINVEGEN 1132	ROGNE	OPPLAND	NO	2943		https://www.dnb.no		postal		61.0689410133775	9.14823276171139						
122822	Extra Fagernes	SKRAUTV&Aring;LSVEGEN 2	FAGERNES	OPPLAND	NO	2900		https://www.dnb.no		postal		60.9861473973985	9.23502721461595						
122823	Coop Marked Brandbu	TORGVEGEN 3	BRANDBU	OPPLAND	NO	2760		https://www.dnb.no		postal		60.4207630627493	10.5056342640849						
122824	Extra Gran	SMIEGATA 3	GRAN	OPPLAND	NO	2750		https://www.dnb.no		postal		60.3539502805683	10.5726945672058						
122825	Coop Marked Engerdal	ENGERDALSVEIEN 1790	ENGERDAL	HEDMARK	NO	2440		https://www.dnb.no		postal		61.7570523074869	11.9604705917871						
122826	Coop Prix Koppang	KJEMSJ&Oslash;VEIEN 2	KOPPANG	HEDMARK	NO	2480		https://www.dnb.no		postal		61.5704456600118	11.0510614949981						
122827	Extra Rena	TORGET 3	RENA	HEDMARK	NO	2450		https://www.dnb.no		postal		61.1325097496961	11.3732035211202						
122828	Coop Marked Lj&oslash;rdalen	SK&Aring;RVEGEN 2	LJ&Oslash;RDALEN	HEDMARK	NO	2425		https://www.dnb.no		postal		61.384217904882	12.6846126598525						
122829	Coop Marked &Oslash;stby	LANDSVEGEN 25	&Oslash;STBY	HEDMARK	NO	2423		https://www.dnb.no		postal		61.2542419325159	12.5325339913168						
122830	Coop Marked S&oslash;re Osen	OSENSJ&Oslash;EN VEST 11	S&Oslash;RE OSEN	HEDMARK	NO	2428		https://www.dnb.no		postal		61.1071828949538	11.9818079719464						
122831	Coop Marked S&oslash;rskogbygda	SL&Aring;TTSVEVEGEN 5	S&Oslash;RSKOGBYGDA	HEDMARK	NO	2412		https://www.dnb.no		postal		60.9425171819467	11.7727500673158						
122832	Extra Tj&oslash;me	HAUGSJORDET 2	TJ&Oslash;ME	VESTFOLD	NO	3145		https://www.dnb.no		postal		59.1213476149141	10.3990407261726						
122834	Coop Mega Stange	HEGGEDALSVEGEN 15	STANGE	HEDMARK	NO	2335		https://www.dnb.no		postal		60.7168930560084	11.1913492195533						
122835	Extra Skarnes	BRUVEGEN 13	SKARNES	HEDMARK	NO	2100		https://www.dnb.no		postal		60.2546585051694	11.681259565585						
122836	Spar Kirken&aelig;r	BRUVEGEN 9	KIRKEN&AElig;R	HEDMARK	NO	2260		https://www.dnb.no		postal		60.4571789100101	12.0575458713485						
122837	Extra Jevnaker	STORGATA 6	JEVNAKER	OPPLAND	NO	3520		https://www.dnb.no		postal		60.2400075238375	10.3895211663392						
122838	Circle K Hov	HOVLANDSVEGEN 2 A	HOV	OPPLAND	NO	2860		https://www.dnb.no		postal		60.6970079049961	10.3525833266193						
122841	Rema 1000 Krager&oslash;	DALANEVEIEN 8	KRAGER&Oslash;	TELEMARK	NO	3772		https://www.dnb.no		postal		58.8715530435999	9.3741838403174						
122842	Coop Prix Eidsvoll	NEDRE VILBERG VEG 6	EIDSVOLL	AKERSHUS	NO	2080		https://www.dnb.no		postal		60.3313136888792	11.2642852055556						
122843	Rema 1000 Spikkestad	SPIKKESTADVEIEN 128	SPIKKESTAD	BUSKERUD	NO	3430		https://www.dnb.no		postal		59.7438002989236	10.3394439268441						
122844	Coop Prix Store Landfall	STORE LANDFALL &Oslash;VRE 100	DRAMMEN	BUSKERUD	NO	3025		https://www.dnb.no		postal		59.7576919070927	10.1424945142948						
122845	Coop Prix Konnerud	PETTERSVOLLEN 7	DRAMMEN	BUSKERUD	NO	3032		https://www.dnb.no		postal		59.7169052359887	10.151217147774						
122847	N&aelig;rbutikken N&oslash;rstelien	NORD-TORPVEGEN 1375	NORD-TORPA	OPPLAND	NO	2880		https://www.dnb.no		postal		61.0158369126264	9.90706483664078						
122848	Plantasjen H&oslash;nefoss	BARBROVEIEN 1	H&Oslash;NEFOSS	BUSKERUD	NO	3511		https://www.dnb.no		postal		60.1538574645911	10.2500583341771						
122849	Spar &Aring;l	SUNDREVEGEN 95	&Aring;L	BUSKERUD	NO	3570		https://www.dnb.no		postal		60.6318371150888	8.56584829022428						
122852	YX Eina	FJORDGATA 10	EINA	OPPLAND	NO	2843		https://www.dnb.no		postal		60.6287235331499	10.5977364812804						
122854	Extra Stathelle	GANGVEIEN 4	STATHELLE	TELEMARK	NO	3960		https://www.dnb.no		postal		59.0454537568218	9.69408567111281						
122855	Coop Prix Skotfoss	SKOTFOSSVEGEN 242	SKIEN	TELEMARK	NO	3720		https://www.dnb.no		postal		59.2151007570427	9.52502625383053						
122856	Joker Finn&oslash;en	S&Oslash;RUMSVEGEN 22	BEGNA	OPPLAND	NO	2937		https://www.dnb.no		postal		60.6474393828286	9.85508826356632						
122857	Kiwi N&aelig;roset	&Aring;SMARKVEGEN 761	N&AElig;ROSET	HEDMARK	NO	2364		https://www.dnb.no		postal		60.9755943190269	10.7773352898016						
122859	Coop Mega Vinstra	NEDREGATA 1	VINSTRA	OPPLAND	NO	2640		https://www.dnb.no		postal		61.5900518190187	9.76410022181191						
122860	Rema 1000 Her&oslash;ya	FJORDGATA 29	PORSGRUNN	TELEMARK	NO	3936		https://www.dnb.no		postal		59.1144196216208	9.64619604078998						
122861	Spar Krager&oslash;	YTRE STRANDVEI 32	KRAGER&Oslash;	TELEMARK	NO	3770		https://www.dnb.no		postal		58.8723822643987	9.41517101981668						
122862	Coop Prix Horten	ANDERS J&Oslash;RGENSENS GATE 20	HORTEN	VESTFOLD	NO	3187		https://www.dnb.no		postal		59.4155062106279	10.4832382493513						
122863	Meny Teie Torg	&Oslash;RSNESALLEEN 37	N&Oslash;TTER&Oslash;Y	VESTFOLD	NO	3120		https://www.dnb.no		postal		59.2518021705817	10.4164177739846						
122864	Extra Otta	JOHAN NYG&Aring;RDS GATE 12	OTTA	OPPLAND	NO	2670		https://www.dnb.no		postal		61.7719127135371	9.54088055337552						
122868	Joker Bjoneroa	VESTSIDEVEGEN 149	BJONEROA	OPPLAND	NO	3522		https://www.dnb.no		postal		60.5181445647871	10.2938074835595						
122869	H&oslash;ydalsmo Servicenter AS	H&Oslash;YDALSMOVEGEN 752	H&Oslash;YDALSMO	TELEMARK	NO	3891		https://www.dnb.no		postal		59.4950424304918	8.20290506727356						
122871	Extra Austadveien	AUSTADVEIEN 1	DRAMMEN	BUSKERUD	NO	3043		https://www.dnb.no		postal		59.7293591269289	10.2056146470252						
122872	Coop Obs! Elverum	TORGGATA 1	ELVERUM	HEDMARK	NO	2408		https://www.dnb.no		postal		60.8854706546831	11.5615619463434						
122873	YX Magnor	GRENSEVEGEN 664	MAGNOR	HEDMARK	NO	2240		https://www.dnb.no		postal		59.949463184299	12.2032172160829						
122874	Coop Marked Geithus	FOLKVANGVEIEN 1	GEITHUS	BUSKERUD	NO	3360		https://www.dnb.no		postal		59.9319981294858	9.9686788411879						
122875	Rema 1000 Sem	D&Oslash;VLEVEIEN 5	SEM	VESTFOLD	NO	3170		https://www.dnb.no		postal		59.2830953917165	10.3333508678796						
122876	Coop Prix Svelvik	STR&Oslash;MMVEIEN 76	SVELVIK	VESTFOLD	NO	3060		https://www.dnb.no		postal		59.5975885207557	10.4004026275338						
122877	Joker Klevbakken	KLEVBAKKEN 91	&Aring;DALSBRUK	HEDMARK	NO	2345		https://www.dnb.no		postal		60.7871136048308	11.3208157936947						
122878	Coop Prix Gulset	NYHUSVEGEN 4	SKIEN	TELEMARK	NO	3726		https://www.dnb.no		postal		59.2160925905088	9.56787326347705						
122879	Rema 1000 Gims&oslash;y	PORSGRUNNSVEGEN 5	SKIEN	TELEMARK	NO	3730		https://www.dnb.no		postal		59.1915675598335	9.61119093099456						
122881	Rema 1000 Tuven	SEMSVEGEN 40 A	NOTODDEN	TELEMARK	NO	3676		https://www.dnb.no		postal		59.5664449686874	9.21946344249351						
122882	Rema 1000 Seljord	INGRID SLETTENS VEG 6	SELJORD	TELEMARK	NO	3840		https://www.dnb.no		postal		59.4827864739763	8.62892348152999						
122883	Coop Prix Rjukan	STORGATA 17	RJUKAN	TELEMARK	NO	3660		https://www.dnb.no		postal		59.879274154667	8.59106397209461						
122884	Coop Prix Lunde	BRUGATA 2	LUNDE	TELEMARK	NO	3825		https://www.dnb.no		postal		59.2989992601253	9.10319400798778						
122886	Rema 1000 Sannidal	TANGEN 11 A	SANNIDAL	TELEMARK	NO	3766		https://www.dnb.no		postal		58.8958121071962	9.28399501978163						
122887	Plantasjen Telemarksporten	PRESTEMOEN 8	PORSGRUNN	TELEMARK	NO	3946		https://www.dnb.no		postal		59.1208640833851	9.70882825322943						
122888	Extra Langesund	BAMBLEVEIEN 8	LANGESUND	TELEMARK	NO	3970		https://www.dnb.no		postal		59.0023869131677	9.74409280221952						
122889	Coop Obs! Hypermarked Krokstadelva	SANDSTRANDA 24	KROKSTADELVA	BUSKERUD	NO	3055		https://www.dnb.no		postal		59.7569107399879	10.0001247658877						
122890	Bunnpris Roa	HADELANDSVEGEN 2128	ROA	OPPLAND	NO	2740		https://www.dnb.no		postal		60.2874734019674	10.6245923887873						
122892	Kiwi R&oslash;dberg	SENTRUM	R&Oslash;DBERG	BUSKERUD	NO	3630		https://www.dnb.no		postal		60.2675899867678	8.94708996607187						
122893	Coop Prix Tretten	KONGSVEGEN 1566	TRETTEN	OPPLAND	NO	2635		https://www.dnb.no		postal		61.3144700645951	10.3003218042211						
122894	Rema 1000 &Oslash;ya	TJ&Oslash;LLINGVEIEN 38	LARVIK	VESTFOLD	NO	3262		https://www.dnb.no		postal		59.0453578234957	10.0602884627358						
122895	Coop Mega Hafjell	KONGSVEGEN 5	&Oslash;YER	OPPLAND	NO	2636		https://www.dnb.no		postal		61.2431703173572	10.4397558826669						
122896	Rema 1000 R&oslash;yslimoen	R&Oslash;YSLIVEGEN 1	LILLEHAMMER	OPPLAND	NO	2611		https://www.dnb.no		postal		61.0991502905981	10.5068227110764						
122897	Rema 1000 Thor&oslash;ya	THOR&Oslash;YAVEIEN 4	SANDEFJORD	VESTFOLD	NO	3209		https://www.dnb.no		postal		59.1028749339899	10.222695851457						
122899	Circle K &Aring;sg&aring;rdstrand	GREV WEDELS GATE 46	&Aring;SG&Aring;RDSTRAND	VESTFOLD	NO	3179		https://www.dnb.no		postal		59.3497617803908	10.4599384994852						
122900	Rema 1000 &Oslash;ster&oslash;yveien	&Oslash;STER&Oslash;YVEIEN 2	SANDEFJORD	VESTFOLD	NO	3236		https://www.dnb.no		postal		59.1339385697215	10.2514051244976						
122901	Rema 1000 T&oslash;nsberg	SLAGENVEIEN 57	T&Oslash;NSBERG	VESTFOLD	NO	3117		https://www.dnb.no		postal		59.274657571334	10.4287166643899						
122902	Rema 1000 Toppen	HVITTINGFOSSVEIEN 131	HOLMESTRAND	VESTFOLD	NO	3085		https://www.dnb.no		postal		59.4908332891444	10.2938119415696						
122904	Meny Borgestad	GREG. DAGSSONS GATE 221	SKIEN	TELEMARK	NO	3712		https://www.dnb.no		postal		59.1703799303475	9.65108187725938						
122905	Spar Torget Vest	R&Aring;DHUSGATA 2	DRAMMEN	BUSKERUD	NO	3016		https://www.dnb.no		postal		59.7451697719276	10.2030779124465						
122906	Rema 1000 Lierbyen	BRUVEIEN 2	LIER	BUSKERUD	NO	3403		https://www.dnb.no		postal		59.7872286950504	10.2445310548449						
122908	Joker Sundbyfoss	KAARBYVEIEN 39	SUNDBYFOSS	VESTFOLD	NO	3092		https://www.dnb.no		postal		59.5131821158164	10.1258397231942						
122909	Extra Tofte	&Oslash;STRE STRANDVEI 48	TOFTE	BUSKERUD	NO	3482		https://www.dnb.no		postal		59.5434670788856	10.5625109772821						
122910	Rema 1000 &Aring;skollen	TVERRLIGGEREN 4	DRAMMEN	BUSKERUD	NO	3038		https://www.dnb.no		postal		59.7129089745235	10.2575775747443						
122911	Snadderhj&oslash;rnet	LUDVIG SKATTUMS GATE 15	GJ&Oslash;VIK	OPPLAND	NO	2819		https://www.dnb.no		postal		60.8015928023591	10.6799619033263						
122912	Spar R&oslash;yken	BR&Aring;SETVEIEN 3	R&Oslash;YKEN	BUSKERUD	NO	3440		https://www.dnb.no		postal		59.7463975847756	10.3918141079487						
122913	Joker Dalsbygda	MOSENGVEIEN 475	DALSBYGDA	HEDMARK	NO	2552		https://www.dnb.no		postal		62.5275339974328	11.1090593082468						
122915	Coop Prix Heradsbygd	SOL&Oslash;RVEGEN 865	HERADSBYGD	HEDMARK	NO	2415		https://www.dnb.no		postal		60.8225585786976	11.6372446451028						
122916	Mix Neskollen	MELKEVEGEN 1	HVAM	AKERSHUS	NO	2165		https://www.dnb.no		postal		60.1262636203691	11.3394633745658						
122917	Rema 1000 Holmestrand	V&Aring;LEVEIEN 1	HOLMESTRAND	VESTFOLD	NO	3083		https://www.dnb.no		postal		59.4754787208662	10.317537608754						
122918	Rema 1000 Lierstranda	LIERSTRANDA 93	LIERSTRANDA	BUSKERUD	NO	3414		https://www.dnb.no		postal		59.7492421751538	10.2467330509086						
122919	Extra Brumunddal	FURNESVEGEN 54	BRUMUNDDAL	HEDMARK	NO	2382		https://www.dnb.no		postal		60.880365596727	10.9529612146388						
122920	Meny Sande	REV&Aring;VEIEN 5	SANDE I VESTFOLD	VESTFOLD	NO	3070		https://www.dnb.no		postal		59.5874253277286	10.2081009377179						
122921	Rema 1000 Eik	EIKVEIEN 28	T&Oslash;NSBERG	VESTFOLD	NO	3122		https://www.dnb.no		postal		59.2892431827561	10.4179142552718						
122922	Extra Flisa	KAFFEGATA 9	FLISA	HEDMARK	NO	2270		https://www.dnb.no		postal		60.6126782467665	12.0094600495527						
122923	Spar Mj&oslash;sbrua	STORGATA 127	MOELV	HEDMARK	NO	2390		https://www.dnb.no		postal		60.9248405232449	10.7021401525727						
122924	Rema 1000 Arkaden	BRUENE 1	SKIEN	TELEMARK	NO	3724		https://www.dnb.no		postal		59.2071158164669	9.6089625102426						
122925	Spar Atr&aring;	ATR&Aring;VEGEN 386	ATR&Aring;	TELEMARK	NO	3656		https://www.dnb.no		postal		59.9917712528027	8.74433241799432						
122926	Rema 1000 Tollnes	LEIRVOLLEN 4	SKIEN	TELEMARK	NO	3736		https://www.dnb.no		postal		59.1641964877201	9.63538323334961						
122927	Spar PP Senteret	VESTREGATA 21	PORSGRUNN	TELEMARK	NO	3919		https://www.dnb.no		postal		59.1417175310132	9.64171251078555						
122928	Circle K Skjelsvik	BREVIKSVEGEN 40	PORSGRUNN	TELEMARK	NO	3943		https://www.dnb.no		postal		59.0955256382012	9.68690998888516						
122934	Rema 1000 Olsr&oslash;d Park	GAUTER&Oslash;DVEIEN 6 B	TOLVSR&Oslash;D	VESTFOLD	NO	3154		https://www.dnb.no		postal		59.2756013301951	10.4517684605769						
122935	Joker Mesnali	GRUVA 1	MESNALI	HEDMARK	NO	2610		https://www.dnb.no		postal		61.1033865316922	10.6972278758554						
122936	Spar Gol	FURUVEGEN 6	GOL	BUSKERUD	NO	3550		https://www.dnb.no		postal									
123108	Eurospar Brokelandsheia	BROKELANDSHEIA	SUNDEBRU	AUST-AGDER	NO	4993		https://www.dnb.no		postal		58.821081742155	9.07193941336147						
123112	Kiwi S&oslash;ndeled	&Oslash;REN 37	S&Oslash;NDELED	AUST-AGDER	NO	4990		https://www.dnb.no		postal		58.7603869262993	9.07538247925927						
123138	Spar Treungen	TREUNGVEGEN 408	TREUNGEN	TELEMARK	NO	3855		https://www.dnb.no		postal		59.0202511783599	8.52056770505996						
123146	Meny Fl&aring;tten	DEICHMANSGATE 109	PORSGRUNN	TELEMARK	NO	3924		https://www.dnb.no		postal		59.121453115666	9.65895850966314						
123149	Extra Borge&aring;sen	BUERVEGEN 14	SKIEN	TELEMARK	NO	3711		https://www.dnb.no		postal		59.1643376532232	9.66320912414563						
123156	Extra Klyve	KONGER&Oslash;DVEGEN 3	SKIEN	TELEMARK	NO	3737		https://www.dnb.no		postal		59.1471868147322	9.62081590318081						
123159	Coop Prix Dalen	HOTELLVEGEN 36	DALEN	TELEMARK	NO	3880		https://www.dnb.no		postal		59.4447128367545	8.01008095664518						
123174	Kiwi Brenn&aring;sen	ROSSELANDSVEGEN 6	BRENN&Aring;SEN	VEST-AGDER	NO	4647		https://www.dnb.no		postal		58.1351850222993	7.85641499215621						
123177	Spar Simon Valand	KV&Aring;SHEIVEIEN 2	KONSMO	VEST-AGDER	NO	4525		https://www.dnb.no		postal		58.2845613047213	7.35439866155637						
123183	Spar Siljan	SENTRUMSVEIEN 26	SILJAN	TELEMARK	NO	3748		https://www.dnb.no		postal		59.2781355312014	9.72723259185756						
123189	Joker Lysefjorden	FORSAND	FORSAND	ROGALAND	NO	4110		https://www.dnb.no		postal		58.9033896270475	6.0922086158929						
123191	Joker Sandved	JUVELVEIEN 23	SANDNES	ROGALAND	NO	4321		https://www.dnb.no		postal		58.832595477471	5.71247874164253						
123195	Mix Gausel	BOGANESVEIEN 122	STAVANGER	ROGALAND	NO	4032		https://www.dnb.no		postal		58.9082710998527	5.72948749155131						
123199	Extra Finn&oslash;y	LAUVSNESVEGEN 17	FINN&Oslash;Y	ROGALAND	NO	4160		https://www.dnb.no		postal		59.1721391200638	5.87684925835962						
123201	Meny Ulefoss	ST&Aring;RRVEGEN 14	ULEFOSS	TELEMARK	NO	3830		https://www.dnb.no		postal		59.2812056582805	9.26790399750837						
123203	Coop Prix Kvernavik	ALKEVEIEN 2	HAFRSFJORD	ROGALAND	NO	4049		https://www.dnb.no		postal		58.971027990605	5.60283044209475						
123207	Extra Klepp St.	STASJONSVEGEN 268	KLEPP STASJON	ROGALAND	NO	4353		https://www.dnb.no		postal		58.7741667184555	5.67425925542216						
123218	Joker Helg&oslash;ysund	TALGJE	SJERNAR&Oslash;Y	ROGALAND	NO	4170		https://www.dnb.no		postal		59.2265569017229	5.83614777709804						
123224	Joker Sirev&aring;g	V&Aring;GEN 27	SIREV&Aring;G	ROGALAND	NO	4364		https://www.dnb.no		postal		58.5040817261955	5.80192292484148						
123226	Coop Prix Gjerstad	GJERSTADVEIEN 1337	GJERSTAD	AUST-AGDER	NO	4980		https://www.dnb.no		postal		58.8813496810936	9.01876315704081						
123229	Coop Marked Bykle	BYKLE	BYKLE	AUST-AGDER	NO	4754		https://www.dnb.no		postal		59.3523777562195	7.34659108653064						
123230	Coop Prix Hylestad	STOVEGEN 4	RYSSTAD	AUST-AGDER	NO	4748		https://www.dnb.no		postal		59.0959182523883	7.5300635158779						
123235	Coop Marked Feda	NEDRE FEDA	FEDA	VEST-AGDER	NO	4485		https://www.dnb.no		postal		58.2692949601377	6.81737854778755						
123236	Joker Finsland	KILEN	FINSLAND	VEST-AGDER	NO	4646		https://www.dnb.no		postal		58.2699464703906	7.65945876190697						
123261	Spar Frakkagjerd	FRAKKAGJERDVEGEN 90	F&Oslash;RRESFJORDEN	ROGALAND	NO	5563		https://www.dnb.no		postal		59.4166275961058	5.40493443494564						
123267	Kiwi Kviteseid	GARVERIVEGEN 4	KVITESEID	TELEMARK	NO	3850		https://www.dnb.no		postal		59.4019358275195	8.48959742804921						
123270	Meny Hovenga	AUGESTADVEGEN 7	PORSGRUNN	TELEMARK	NO	3914		https://www.dnb.no		postal		59.1497760562394	9.66339798542683						
123273	Coop Marked &Aring;seral	GARDSVEGEN 8	&Aring;SERAL	VEST-AGDER	NO	4540		https://www.dnb.no		postal		58.6165767152468	7.42027629082544						
123276	Meny Grim	GRIM TORV 3	KRISTIANSAND S	VEST-AGDER	NO	4616		https://www.dnb.no		postal		58.1492263349789	7.97117628259706						
123281	Coop Prix Vestheiene	SKOMAGERGADA 9	KRISTIANSAND S	VEST-AGDER	NO	4628		https://www.dnb.no		postal		58.1483609413582	7.92413100681637						
123286	Joker Brevik	STORGATA 15	BREVIK	TELEMARK	NO	3950		https://www.dnb.no		postal		59.0544830565047	9.69855907639199						
123287	Spar H&aelig;geland	SETESDALSVEGEN 882	H&AElig;GELAND	VEST-AGDER	NO	4720		https://www.dnb.no		postal		58.384188486493	7.73913067488701						
123291	Joker Skartveit		SKARTVEIT	ROGALAND	NO	4182		https://www.dnb.no		postal		59.1972914849666	5.95633495132644						
123292	Coop Marked Gransherad	GRANSHERADVEGEN 1039	GRANSHERAD	TELEMARK	NO	3691		https://www.dnb.no		postal		59.6906158150036	9.03936838014763						
123299	Bunnpris Strai	STRAISMOEN 2	KRISTIANSAND S	VEST-AGDER	NO	4618		https://www.dnb.no		postal		58.1890499221481	7.92894134559579						
123301	Spar Rauland	JUVLANDSVEGEN 2	RAULAND	TELEMARK	NO	3864		https://www.dnb.no		postal		59.6956733528884	8.06626922438083						
123302	Meny Fevik	FEVIKTOPPEN	FEVIK	AUST-AGDER	NO	4870		https://www.dnb.no		postal		58.3816081131152	8.67588863630894						
123304	Coop Prix Randabergveien	RANDABERGVEIEN 24	STAVANGER	ROGALAND	NO	4025		https://www.dnb.no		postal		58.9770243220337	5.70664833079176						
123315	Coop Marked Vikes&aring;	VIKES&Aring;GATA 1	VIKES&Aring;	ROGALAND	NO	4389		https://www.dnb.no		postal		58.6319886980789	6.07799280666616						
123316	Joker Rykene	PRESTEVEIEN 29	RYKENE	AUST-AGDER	NO	4821		https://www.dnb.no		postal		58.4094894956262	8.63886807415906						
123317	Europris Ganddal	LUNDEGEILEN 20	SANDNES	ROGALAND	NO	4323		https://www.dnb.no		postal		58.8201766634989	5.71182171821207						
123318	Spar S&oslash;rhaug	FJELLVEGEN 1 A	HAUGESUND	ROGALAND	NO	5532		https://www.dnb.no		postal		59.417330384489	5.29581443706888						
123319	Nelaug Daglegvare	NELAUGVEGEN 449	NELAUG	AUST-AGDER	NO	4863		https://www.dnb.no		postal		58.6584206544533	8.6300685650737						
123329	Extra Helsehuset	S&Oslash;RHAUGGATA 115	HAUGESUND	ROGALAND	NO	5527		https://www.dnb.no		postal		59.4118645636293	5.27193465177526						
123330	Extra Parken Kristiansand	GYLDENL&Oslash;VES GATE 14	KRISTIANSAND S	VEST-AGDER	NO	4611		https://www.dnb.no		postal		58.1472591800909	7.99607608893637						
123331	Helg&oslash; Meny Bogafjell	BOGAFJELLVEIEN 65	SANDNES	ROGALAND	NO	4324		https://www.dnb.no		postal		58.8211421252136	5.75398616558262						
123332	Meny Oasen Haugesund	AUSTB&Oslash;VEGEN 16	KARMSUND	ROGALAND	NO	5542		https://www.dnb.no		postal		59.3783410774296	5.30576766869362						
123333	Coop Prix Malm&oslash;	S&Oslash;REN JAAB&AElig;KS VEI 21	MANDAL	VEST-AGDER	NO	4515		https://www.dnb.no		postal		58.0260831020709	7.46605680971636						
123334	Joker Mykland	EVJEVEIEN 840	MYKLAND	AUST-AGDER	NO	4832		https://www.dnb.no		postal		58.6322880452751	8.29062165167133						
123335	Spar Byhagen	EIDSVOLLGATA 22	SANDNES	ROGALAND	NO	4307		https://www.dnb.no		postal		58.8514057029314	5.72963314617306						
123336	XL-Bygg Veg&aring;rshei	HEIVEIEN 857	VEG&Aring;RSHEI	AUST-AGDER	NO	4985		https://www.dnb.no		postal		58.7469167989283	8.86302515098208						
123337	N&aelig;rbutikken R&oslash;v&aelig;r	R&Oslash;V&AElig;R	R&Oslash;V&AElig;R	ROGALAND	NO	5549		https://www.dnb.no		postal		59.4395063552304	5.0914534441639						
123338	Spar Sk&aring;redalen	RAGNVALD WESTB&Oslash;ES GATE 1	HAUGESUND	ROGALAND	NO	5534		https://www.dnb.no		postal		59.4086673861383	5.32950040901816						
123339	Extra Lillesand	SENTERVEIEN 30	LILLESAND	AUST-AGDER	NO	4790		https://www.dnb.no		postal		58.2623183902291	8.39666882055394						
123340	Coop Obs! Lyngdal	FIBOVEIEN 16	LYNGDAL	VEST-AGDER	NO	4580		https://www.dnb.no		postal		58.1554628227208	7.10375679013834						
123341	Bunnpris Nedenes	VESTERVEIEN 778	NEDENES	AUST-AGDER	NO	4823		https://www.dnb.no		postal		58.411944971187	8.6979942918954						
123342	Extra Moksheim	R&Oslash;YSVEGEN 1	VORMEDAL	ROGALAND	NO	5545		https://www.dnb.no		postal		59.3634478907651	5.30794821753183						
123345	Matkroken Lillesand	STRANDGATA 5	LILLESAND	AUST-AGDER	NO	4790		https://www.dnb.no		postal		58.2481722442453	8.37685805162809						
123346	Coop Prix H&aring;nni	EPLEVEIEN 1	KRISTIANSAND S	VEST-AGDER	NO	4635		https://www.dnb.no		postal		58.1735526529792	8.091446278775						
123347	Tananger Service Senter	SKIBMANNSVEGEN 4	TANANGER	ROGALAND	NO	4056		https://www.dnb.no		postal		58.9354919705233	5.58622852802857						
123348	Coop Prix Hjelmeland	V&Aring;GAVEGEN 2	HJELMELAND	ROGALAND	NO	4130		https://www.dnb.no		postal		59.2335981046144	6.16667925249865						
123349	Coop Marked Kvits&oslash;y	MELINGSGARDEN 28	KVITS&Oslash;Y	ROGALAND	NO	4180		https://www.dnb.no		postal		59.0623278101414	5.40408219154449						
123350	Joker Iveland	&Aring;KLE 3	IVELAND	AUST-AGDER	NO	4724		https://www.dnb.no		postal		58.4546424175312	7.91644284710756						
123351	Extra Tasta	GJERDEVEIEN 49	STAVANGER	ROGALAND	NO	4027		https://www.dnb.no		postal		58.987971647862	5.69309830842581						
123352	Meny Tvedestrand	INDUSTRIVEIEN 8	TVEDESTRAND	AUST-AGDER	NO	4900		https://www.dnb.no		postal		58.628404117407	8.91537445131595						
123353	Extra Hillev&aring;g	SANDVIKVEIEN 1	STAVANGER	ROGALAND	NO	4016		https://www.dnb.no		postal		58.942793838309	5.74592159254919						
123354	Extra Lyngdal	KIRKEVEIEN 3	LYNGDAL	VEST-AGDER	NO	4580		https://www.dnb.no		postal		58.1385582876401	7.07080070537859						
123355	Spar &Oslash;vreb&oslash;	SKARPENGLAND	&Oslash;VREB&Oslash;	VEST-AGDER	NO	4715		https://www.dnb.no		postal		58.2952674188412	7.84021803265882						
123357	Matkroken Kirkehamn	KIRKEHAMNVEIEN 80	HIDRASUND	VEST-AGDER	NO	4432		https://www.dnb.no		postal		58.2320915313069	6.53863563842988						
123358	Extra Vard&aring;s	SALBUSTADVEIEN 2	KRISTIANSAND S	VEST-AGDER	NO	4638		https://www.dnb.no		postal		58.1476678602827	8.06556921100551						
124104	Kiwi Minipris Frekhaug	HAVNEVEGEN 39	FREKHAUG	HORDALAND	NO	5918		https://www.dnb.no		postal		60.5126302355094	5.24341299483771						
124107	Bunnpris Stadlandet	LEIKANGER	STADLANDET	SOGN OG FJORDANE	NO	6750		https://www.dnb.no		postal		62.1192508249117	5.31825482970894						
124111	Spar Kinsarvik		KINSARVIK	HORDALAND	NO	5780		https://www.dnb.no		postal		60.3752219541887	6.71896709848793						
124112	Eikefjord Handel	EIKEFJORD SENTRUM	EIKEFJORD	SOGN OG FJORDANE	NO	6940		https://www.dnb.no		postal		61.588594187782	5.46119404542652						
124119	Nye Bekkjarvik Handel	BEKKJARVIK 74	BEKKJARVIK	HORDALAND	NO	5397		https://www.dnb.no		postal		60.0072438566855	5.20455622338284						
124121	N&aelig;sheim & Co	EIDFJORDVEGEN 282	EIDFJORD	HORDALAND	NO	5783		https://www.dnb.no		postal		60.4662087515818	7.06929774094916						
124131	Spar Sk&aring;nevik	SK&Aring;NEVIK	SK&Aring;NEVIK	HORDALAND	NO	5593		https://www.dnb.no		postal		59.7326802108654	5.9330919214943						
124143	Extra B&oslash;nes	&Oslash;VRE KR&Aring;KENES 115	B&Oslash;NES	HORDALAND	NO	5152		https://www.dnb.no		postal		60.3344528448549	5.31040399371966						
124146	Eurospar Rosendal	SK&Aring;LAGATO 37	ROSENDAL	HORDALAND	NO	5470		https://www.dnb.no		postal		59.9864335410923	6.00992456589685						
124147	Extra Lonev&aring;g	LONEV&Aring;G	LONEV&Aring;G	HORDALAND	NO	5282		https://www.dnb.no		postal		60.5250293753815	5.49719322825056						
124148	Extra Valestrandsfossen	VALESTRAND	VALESTRANDSFOSSEN	HORDALAND	NO	5281		https://www.dnb.no		postal		60.5055114395996	5.43068675487769						
124150	Coop Prix Ytre Arna	PETER JEBSENS VEG 19	YTRE ARNA	HORDALAND	NO	5265		https://www.dnb.no		postal		60.4600857056031	5.43735039005385						
124153	Extra Manger	RAD&Oslash;YVEGEN 1680 D	MANGER	HORDALAND	NO	5936		https://www.dnb.no		postal		60.6406356874582	5.04203258513486						
124167	Spar &Oslash;yjordsveien	&Oslash;YJORDSVEIEN 1	BERGEN	HORDALAND	NO	5038		https://www.dnb.no		postal		60.4247488251455	5.30526758853363						
124171	Coop Marked Sandeid	SANDEIDSJ&Oslash;EN 8	SANDEID	ROGALAND	NO	5585		https://www.dnb.no		postal		59.5416753980088	5.86851128095338						
124175	Joker Vevring	VEVRING	NAUSTDAL	SOGN OG FJORDANE	NO	6817		https://www.dnb.no		postal		61.4898763774018	5.39051484503122						
124178	Spar Sande	VADHEIMSVEGEN 1	SANDE I SUNNFJORD	SOGN OG FJORDANE	NO	6973		https://www.dnb.no		postal		61.3261388787234	5.7977885419536						
124185	Joker Holmedal	KJ&Oslash;PSTAD	HOLMEDAL	SOGN OG FJORDANE	NO	6982		https://www.dnb.no		postal		61.3550037508788	5.1812786750757						
124186	Coop Marked Askvoll	ASKVOLL SENTRUM	ASKVOLL	SOGN OG FJORDANE	NO	6980		https://www.dnb.no		postal		61.346820182861	5.06174426569645						
124189	Joker Luster	LUSTRAVEGEN 3265 A	LUSTER	SOGN OG FJORDANE	NO	6872		https://www.dnb.no		postal		61.4414515379987	7.45674857443275						
124191	Bunnpris Leirvik i Sogn	LEIRVIK SENTRUM	LEIRVIK I SOGN	SOGN OG FJORDANE	NO	6953		https://www.dnb.no		postal		61.1371855310288	5.34815926219932						
124192	Joker Byrknes&oslash;y	S&Oslash;RE GARDEN 4	BYRKNES&Oslash;Y	SOGN OG FJORDANE	NO	5970		https://www.dnb.no		postal		60.8985716344574	4.83807345986229						
124207	Coop Marked Modalen	MO	MODALEN	HORDALAND	NO	5729		https://www.dnb.no		postal		60.8143582687358	5.80270702128659						
124210	Bj&oslash;rndal Handel	OSTER&Oslash;YVEGEN 3390	TYSSEBOTNEN	HORDALAND	NO	5284		https://www.dnb.no		postal		60.6189365500095	5.58719820340001						
124211	Butikken Buena	BUENA KAI	LYSEKLOSTER	HORDALAND	NO	5215		https://www.dnb.no		postal		60.2177360255197	5.38336341469455						
124213	Bunnpris Vedholmen	R&Oslash;TINGAVEGEN 112	LEPS&Oslash;Y	HORDALAND	NO	5216		https://www.dnb.no		postal		60.1456570973561	5.37858577059849						
124214	Kiwi Haus	HAUS SENTRUM	HAUS	HORDALAND	NO	5286		https://www.dnb.no		postal		60.4530636176947	5.49544097063029						
124219	Spar Kjerrgarden	FROMREIDE	KJERRGARDEN	HORDALAND	NO	5314		https://www.dnb.no		postal		60.5035183591449	5.06509638779323						
124221	Spar Tjeldst&oslash;	SANDR&Aring;SVEGEN	TJELDST&Oslash;	HORDALAND	NO	5336		https://www.dnb.no		postal		60.589943804862	4.8408517895145						
124223	N&aelig;rbutikken S&aelig;vareid	SENTRUM	S&AElig;VAREID	HORDALAND	NO	5645		https://www.dnb.no		postal		60.1897465366058	5.76109007126736						
124224	Joker Omastrand	OMAVEGEN 193	OMASTRAND	HORDALAND	NO	5632		https://www.dnb.no		postal		60.2183240965119	5.97521817523635						
124225	Coop Marked Strandebarm	TANGER&Aring;SHAGEN 5	STRANDEBARM	HORDALAND	NO	5630		https://www.dnb.no		postal		60.2607297357978	6.0116617578639						
124227	Coop Marked &Aring;lvik	&Aring;LVIKVEGEN 1051	&Aring;LVIK	HORDALAND	NO	5614		https://www.dnb.no		postal		60.4308861216837	6.43211140611578						
124230	L. Hylland Eftf		GUDVANGEN	SOGN OG FJORDANE	NO	5747		https://www.dnb.no		postal		60.8793651296549	6.84536692633353						
124231	Undredalsbui		UNDREDAL	SOGN OG FJORDANE	NO	5746		https://www.dnb.no		postal		60.9518540006423	7.10351617574103						
124236	Bunnpris Spildepollen	SPILDEPOLLEN	SKOGSV&Aring;G	HORDALAND	NO	5382		https://www.dnb.no		postal		60.2404426328501	5.04344563679422						
124242	Spar J&oslash;lstraholmen	FLUGE	VASSENDEN	SOGN OG FJORDANE	NO	6847		https://www.dnb.no		postal		61.4881323072974	6.08271385254473						
124247	Spar Hafslo	HAFSLOVEGEN 170	HAFSLO	SOGN OG FJORDANE	NO	6869		https://www.dnb.no		postal		61.315392109129	7.20251961130522						
124248	Joker Fj&aelig;rland	MUNDAL SENTRUM	FJ&AElig;RLAND	SOGN OG FJORDANE	NO	6848		https://www.dnb.no		postal		61.4059061502228	6.74160102949054						
124251	Joker Viksdalen	VIKJA	VIKSDALEN	SOGN OG FJORDANE	NO	6978		https://www.dnb.no		postal		61.3508789499119	6.11741019495504						
124256	Bunnpris Bryggja	YTRE NORE	BRYGGJA	SOGN OG FJORDANE	NO	6711		https://www.dnb.no		postal		61.9408336744231	5.45529394764245						
124257	Nik&oslash;y	NIK&Oslash;Y	BULANDET	SOGN OG FJORDANE	NO	6987		https://www.dnb.no		postal		61.2860066420462	4.63274806034727						
124258	Joker Hyen	STRAUMSHOLMEN	HYEN	SOGN OG FJORDANE	NO	6829		https://www.dnb.no		postal		61.7396367538732	5.91723009017019						
124260	Matkroken Dals&oslash;yra	GULAFJORDVEGEN 1424	DALS&Oslash;YRA	SOGN OG FJORDANE	NO	5960		https://www.dnb.no		postal		60.9331075270179	5.13511851021343						
124261	Coop Marked Byrkjelo	GAMLEVEGEN 2	BYRKJELO	SOGN OG FJORDANE	NO	6826		https://www.dnb.no		postal		61.73324451714	6.50597135069656						
124266	Spar N&aring;		N&Aring;	HORDALAND	NO	5776		https://www.dnb.no		postal		60.255026957219	6.57268410914503						
124270	B&oslash;mlo Bil	HOVLANDSVEGEN 151	B&Oslash;MLO	HORDALAND	NO	5443		https://www.dnb.no		postal		59.6051396199284	5.23228101387329						
124271	Espev&aelig;r Handel	ESPEV&AElig;RVEGEN 6	ESPEV&AElig;R	HORDALAND	NO	5444		https://www.dnb.no		postal		59.5881572323605	5.15097333993648						
124273	Joker &Oslash;lve	&Oslash;LVESVEGEN 523	&Oslash;LVE	HORDALAND	NO	5637		https://www.dnb.no		postal		60.0098483622471	5.80594010206829						
124274	Fe&oslash;y Dagligvare	VAHOLMVEGEN 13	FE&Oslash;Y	ROGALAND	NO	5548		https://www.dnb.no		postal		59.3802791520263	5.16149012434865						
124278	Coop Marked R&oslash;ldal	KYRKJEVEGEN 27	R&Oslash;LDAL	HORDALAND	NO	5760		https://www.dnb.no		postal		59.8323270687798	6.81937054531384						
124282	Joker Erfjord	H&Aring;LANDSOSEN 8	ERFJORD	ROGALAND	NO	4233		https://www.dnb.no		postal		59.3475282092923	6.23799338382745						
124317	F&oslash;rde Dagligvare	TINGVEGEN 31	F&Oslash;RDE I HORDALAND	HORDALAND	NO	5555		https://www.dnb.no		postal		59.6117928270527	5.47505405397671						
124318	Joker Loen	LOEN	LOEN	SOGN OG FJORDANE	NO	6789		https://www.dnb.no		postal		61.871873056544	6.84815764205192						
124320	Spar Haga	HYSTADVEGEN 250	STORD	HORDALAND	NO	5416		https://www.dnb.no		postal		59.8034283840124	5.51866769416754						
124321	Joker Tingvatn	HANDELSENTERET	TINGVATN	VEST-AGDER	NO	4595		https://www.dnb.no		postal		58.3735660105739	7.22156872148525						
124323	Coop Prix Melkeplassen	ARNE ABRAHAMSENS VEI 1	LAKSEV&Aring;G	HORDALAND	NO	5161		https://www.dnb.no		postal		60.3755731078287	5.30436403323323						
124326	Spar Lone	HARDANGERVEGEN 700	HAUKELAND	HORDALAND	NO	5268		https://www.dnb.no		postal		60.3752341480515	5.45655744712533						
124328	Spar Valle	OSVEGEN 142	NESTTUN	HORDALAND	NO	5227		https://www.dnb.no		postal		60.2947247508705	5.38230102547977						
124343	Coop Marked Stanghelle	L&Aring;GASKARVEGEN 6	STANGHELLE	HORDALAND	NO	5724		https://www.dnb.no		postal		60.5516862634964	5.73872275851265						
124344	Coop Prix Dalekvam	KONSUL JEBSENSGATA 3	DALEKVAM	HORDALAND	NO	5722		https://www.dnb.no		postal		60.5898604813964	5.81926291723885						
124356	Joker Flekke		FLEKKE	SOGN OG FJORDANE	NO	6968		https://www.dnb.no		postal		61.315785750975	5.36331271169311						
124360	Joker His&oslash;y	KIRKEVEIEN 57	HIS	AUST-AGDER	NO	4817		https://www.dnb.no		postal		58.446002838554	8.7566093023966						
124361	Joker Gjeving	GJEVINGVEIEN 125	GJEVING	AUST-AGDER	NO	4912		https://www.dnb.no		postal		58.6490972503636	9.12019057345174						
124362	Extra Nyborg	&Aring;SAMYRANE 271	NYBORG	HORDALAND	NO	5131		https://www.dnb.no		postal		60.4736216355662	5.33610921146845						
124363	Coop Mega Nord&aring;s	S&Oslash;R&Aring;SH&Oslash;GDA 9	R&Aring;DAL	HORDALAND	NO	5235		https://www.dnb.no		postal		60.3062657206504	5.32280528546195						
124367	Kiwi Langenes	LANGENESVEIEN 290	S&Oslash;GNE	VEST-AGDER	NO	4643		https://www.dnb.no		postal		58.0749499508439	7.86232036296289						
124372	Extra Tjelta	VIGDELSVEGEN 700	TJELTA	ROGALAND	NO	4054		https://www.dnb.no		postal		58.8421850028869	5.59748282409033						
124387	Coop Marked Svelgen	GRANDEN 5 A	SVELGEN	SOGN OG FJORDANE	NO	6723		https://www.dnb.no		postal		61.7689621402399	5.29011711089523						
124390	Bunnpris B&oslash;v&aring;gen	B&Oslash;V&Aring;GEN 2	B&Oslash;V&Aring;GEN	HORDALAND	NO	5937		https://www.dnb.no		postal		60.6983178320361	4.92676800944175						
124402	Coop Prix Hinna	BOGANESVEIEN 2	STAVANGER	ROGALAND	NO	4020		https://www.dnb.no		postal		58.9221421894541	5.72411268708253						
124409	Coop Mega Dvergsnes	DVERGSNESVEIEN 180	KRISTIANSAND S	VEST-AGDER	NO	4639		https://www.dnb.no		postal		58.1334148661584	8.07387264400289						
124418	Spar R&oslash;ysland	FROLANDSSENTERET 3	FROLAND	AUST-AGDER	NO	4820		https://www.dnb.no		postal		58.5080594612299	8.63038657309019						
124423	Joker Justvik	GROST&Oslash;LVEIEN 4 D	KRISTIANSAND S	VEST-AGDER	NO	4634		https://www.dnb.no		postal		58.1999821470961	8.03301999655257						
124426	Extra Vikev&aring;g	VIKEV&Aring;GVEIEN 125	RENNES&Oslash;Y	ROGALAND	NO	4150		https://www.dnb.no		postal		59.0975754566033	5.69695545307465						
124429	Coop Marked Ulvik	SKEIESVEGEN 15	ULVIK	HORDALAND	NO	5730		https://www.dnb.no		postal		60.5683303587797	6.91507096519585						
124430	Coop Marked Granvin	HARDANGERVEGEN 2566	GRANVIN	HORDALAND	NO	5736		https://www.dnb.no		postal		60.524185084585	6.71971270188289						
124431	Coop Marked Skjolden	SKJOLDEN 2	SKJOLDEN	SOGN OG FJORDANE	NO	6876		https://www.dnb.no		postal		61.4906233604403	7.60023040852503						
124432	Coop Prix L&aelig;rdal	&Oslash;YRAPLASSEN 2	L&AElig;RDAL	SOGN OG FJORDANE	NO	6887		https://www.dnb.no		postal		61.0977028042053	7.48213202420113						
124433	Extra &Oslash;vre &Aring;rdal	FARNESVEGEN 1	&Oslash;VRE &Aring;RDAL	SOGN OG FJORDANE	NO	6884		https://www.dnb.no		postal		61.3108837828624	7.80635208241918						
124434	Joker Utne		UTNE	HORDALAND	NO	5778		https://www.dnb.no		postal		60.423971212565	6.6211908381556						
124436	Extra H&aring;konsgaten	H&Aring;KONSGATEN 36	BERGEN	HORDALAND	NO	5015		https://www.dnb.no		postal		60.3899761080238	5.32188283600823						
124437	Extra Ask&oslash;y	KLEPPEVEGEN 110	KLEPPEST&Oslash;	HORDALAND	NO	5308		https://www.dnb.no		postal		60.4224126715258	5.20332076236541						
124447	Joker Br&oslash;nndalen	BR&Oslash;NNDALS&Aring;SEN 1	LODDEFJORD	HORDALAND	NO	5176		https://www.dnb.no		postal		60.3736704720796	5.2214064804178						
124455	M&oslash;kster Butikk	M&Oslash;KSTER 53	M&Oslash;KSTER	HORDALAND	NO	5387		https://www.dnb.no		postal		60.0596193939097	5.09891036201188						
124456	Extra Mathopen	SKAREVEIEN 1 A	MATHOPEN	HORDALAND	NO	5174		https://www.dnb.no		postal		60.3337212119172	5.21156034878964						
124469	Meny Sletten	VILHELM BJERKNES' VEI 4	BERGEN	HORDALAND	NO	5081		https://www.dnb.no		postal		60.3565890064189	5.35915001513879						
124473	Spar Hylkje	HYLKJEBAKKEN 1	HYLKJE	HORDALAND	NO	5109		https://www.dnb.no		postal		60.509054212999	5.34727167112485						
124474	Spar Ask	NORDRE ASK	ASK	HORDALAND	NO	5307		https://www.dnb.no		postal		60.4783431241926	5.21284148660484						
124475	Spar Eikelandsosen	FJORDEN SENTER	EIKELANDSOSEN	HORDALAND	NO	5640		https://www.dnb.no		postal		60.2401165914669	5.74751474736193						
124477	Rema 1000 Nyg&aring;rd	GRAVDALSVEIEN 4	LAKSEV&Aring;G	HORDALAND	NO	5165		https://www.dnb.no		postal		60.3853511173435	5.27107429288887						
124478	Extra M&aring;seskj&aelig;ret	SANDVIKSVEIEN 94	BERGEN	HORDALAND	NO	5035		https://www.dnb.no		postal		60.4140387214499	5.32030117546215						
124487	Bunnpris Hjellestad	HJELLESTADVEGEN 313	HJELLESTAD	HORDALAND	NO	5259		https://www.dnb.no		postal		60.256462439742	5.24017259400436						
124492	Joker Skei	OSPENE 12	SKEI I J&Oslash;LSTER	SOGN OG FJORDANE	NO	6843		https://www.dnb.no		postal		61.5702384401722	6.48223870157038						
124493	Spar Uskedalen	SANDAVEGEN 13	USKEDALEN	HORDALAND	NO	5463		https://www.dnb.no		postal		59.9320150834759	5.85882477451316						
124495	Spar Hatlestrand	HATLESTRANDSVEGEN 646	HATLESTRAND	HORDALAND	NO	5635		https://www.dnb.no		postal		60.060565816547	5.91505937899442						
124498	Coop Marked Olden		OLDEN	SOGN OG FJORDANE	NO	6788		https://www.dnb.no		postal		61.837194369325	6.80948498208599						
124499	Coop Marked Hornindal		HORNINDAL	SOGN OG FJORDANE	NO	6763		https://www.dnb.no		postal		61.9684327365431	6.52430203995218						
124506	Joker Haugsv&aelig;r	SOGNEVEGEN 2226	HAUGSV&AElig;R	HORDALAND	NO	5983		https://www.dnb.no		postal		60.8970043768729	5.51936257971886						
124507	Meny Ravnanger	RAVNANGER	HAUGLANDSHELLA	HORDALAND	NO	5310		https://www.dnb.no		postal		60.459939860272	5.15125194835811						
124508	Matkroken Hjelteryggen	S&Oslash;RE KNAPPEN 2	KNARREVIK	HORDALAND	NO	5355		https://www.dnb.no		postal		60.3827023762568	5.15289441851029						
124518	Meny Aksdal	AKSDALSENTERET	AKSDAL	ROGALAND	NO	5570		https://www.dnb.no		postal		59.4220044064788	5.44569756993352						
124520	Bunnpris Sentrum	FJORDGATA 1	MOLDE	M&Oslash;RE OG ROMSDAL	NO	6413		https://www.dnb.no		postal		62.7364175552406	7.15753055028485						
124523	Coop Mega &Aring;lg&aring;rd	OLE NIELSENS VEI 25	&Aring;LG&Aring;RD	ROGALAND	NO	4330		https://www.dnb.no		postal		58.7705778381805	5.84582100493072						
124529	Spar Bremanger		BREMANGER	SOGN OG FJORDANE	NO	6727		https://www.dnb.no		postal		61.8416104091657	4.96444691471736						
124534	Matkroken Indre &Aring;rsnes	INDRE &Aring;RSNES	H&Oslash;V&Aring;G	AUST-AGDER	NO	4770		https://www.dnb.no		postal		58.1639389645397	8.21802166812305						
124537	Coop Marked Larsnes		LARSNES	M&Oslash;RE OG ROMSDAL	NO	6084		https://www.dnb.no		postal		62.2061892994362	5.57180158076037						
124538	Extra J&oslash;rpeland	R&Aring;DHUSGATEN 14	J&Oslash;RPELAND	ROGALAND	NO	4100		https://www.dnb.no		postal		59.021735136504	6.04130849793793						
124539	Meny Fosnav&aring;g	TOLL&Aring;SBAKKEN 2	FOSNAV&Aring;G	M&Oslash;RE OG ROMSDAL	NO	6090		https://www.dnb.no		postal		62.3427455167541	5.63037784117843						
124540	Coop Mega Sykkylven	AURE	SYKKYLVEN	M&Oslash;RE OG ROMSDAL	NO	6230		https://www.dnb.no		postal		62.3921247034775	6.58280377874396						
124542	Bunnpris Brattv&aring;g	STRANDGATA 40	BRATTV&Aring;G	M&Oslash;RE OG ROMSDAL	NO	6270		https://www.dnb.no		postal		62.5972092169326	6.44637128571523						
124554	Extra Danmarksplass	SOLHEIMSGATEN 33	BERGEN	HORDALAND	NO	5054		https://www.dnb.no		postal		60.3748468339231	5.33821425384862						
124556	Coop Mega Sola	SOLAKROSSEN 15	SOLA	ROGALAND	NO	4050		https://www.dnb.no		postal		58.8848072175517	5.64660242523349						
124557	Spar Vartdal	VARTDAL	VARTDAL	M&Oslash;RE OG ROMSDAL	NO	6170		https://www.dnb.no		postal		62.3011283686425	6.08320503625571						
124558	Extra Surnadal	SKEIVEGEN 3	SURNADAL	M&Oslash;RE OG ROMSDAL	NO	6650		https://www.dnb.no		postal		62.9741129923981	8.72739980537498						
124559	Matkroken Kilsund	KILSUNDVEIEN 156	STAUB&Oslash;	AUST-AGDER	NO	4920		https://www.dnb.no		postal		58.5508368860163	8.97242355357288						
124562	Joker &Aring;lvundfjord	&Aring;LVUNDFJORDVEGEN 231	&Aring;LVUNDFJORD	M&Oslash;RE OG ROMSDAL	NO	6622		https://www.dnb.no		postal		62.851707899888	8.52063521083782						
124563	Extra Damsg&aring;rd	DAMSG&Aring;RDSVEIEN 205	LAKSEV&Aring;G	HORDALAND	NO	5160		https://www.dnb.no		postal		60.3865489482217	5.29973617584833						
124566	Coop Mega N&aelig;rb&oslash;	TORGGATA 2	N&AElig;RB&Oslash;	ROGALAND	NO	4365		https://www.dnb.no		postal		58.6681524449903	5.64113457657048						
124568	Eurospar &Oslash;rsta	HOLMEGATA 6	&Oslash;RSTA	M&Oslash;RE OG ROMSDAL	NO	6153		https://www.dnb.no		postal		62.1970152572813	6.12785054600227						
124574	Spar Sk&aring;la	KAPTEIN DREYERS VEG 2	SK&Aring;LA	M&Oslash;RE OG ROMSDAL	NO	6456		https://www.dnb.no		postal		62.7019415491238	7.42356268755765						
124578	Coop Prix Marken	MARKEN 3	BERGEN	HORDALAND	NO	5017		https://www.dnb.no		postal		60.3921058498051	5.33020105439686						
124580	Joker Utsira	UTSIRAVEGEN 28	UTSIRA	ROGALAND	NO	5547		https://www.dnb.no		postal		59.2986134226132	4.89197836944172						
124585	Mix Vigrestad	SENTRUMSLUNDEN 1	VIGRESTAD	ROGALAND	NO	4362		https://www.dnb.no		postal		58.5707604436658	5.68923038692547						
124587	Meny Kleppest&oslash;	GAMLE KLEPPEST&Oslash;VEGEN 2	KLEPPEST&Oslash;	HORDALAND	NO	5300		https://www.dnb.no		postal		60.4111484972758	5.22673403442611						
124590	Kiwi Sagv&aring;g	LYNGNESET 5	SAGV&Aring;G	HORDALAND	NO	5410		https://www.dnb.no		postal		59.7753314725449	5.39306486758526						
124595	Coop Prix Helleveien	HELLEVEIEN 263	BERGEN	HORDALAND	NO	5039		https://www.dnb.no		postal		60.4367305677494	5.28650886504942						
124597	Joker Vossestrand	MYRKDALSVEGEN 3	VOSSESTRAND	HORDALAND	NO	5713		https://www.dnb.no		postal		60.7923373762615	6.5092551321287						
124599	N&aelig;rbutikken V&aring;gstranda	REISTAD	V&Aring;GSTRANDA	M&Oslash;RE OG ROMSDAL	NO	6387		https://www.dnb.no		postal		62.6064616283741	7.29458753035613						
124606	Spar Kalv&aring;g		KALV&Aring;G	SOGN OG FJORDANE	NO	6729		https://www.dnb.no		postal		61.7668117023773	4.87950036493186						
124609	Kiwi Flekker&oslash;y	KVITEFJELLVEIEN 7	FLEKKER&Oslash;Y	VEST-AGDER	NO	4625		https://www.dnb.no		postal		58.07600993971	7.99947339085302						
124610	Bunnpris Ullensvang	R&Oslash;YSE	LOFTHUS	HORDALAND	NO	5781		https://www.dnb.no		postal		60.3250488088383	6.65816409424572						
124611	Extra Sveio	SVEIOGATA 66 A	SVEIO	HORDALAND	NO	5550		https://www.dnb.no		postal		59.5434668440677	5.35455661615691						
124612	Eurospar Isdalst&oslash;	ISDALST&Oslash;	ISDALST&Oslash;	HORDALAND	NO	5914		https://www.dnb.no		postal		60.5559994873464	5.27066735049626						
124613	Extra Karmsundgata	KARMSUNDGATA 54	HAUGESUND	ROGALAND	NO	5529		https://www.dnb.no		postal		59.4020380554427	5.29063447835548						
124614	Coop Prix Birkenlund	GAMLE SONGEVEI 51	ARENDAL	AUST-AGDER	NO	4842		https://www.dnb.no		postal		58.4688578890488	8.78762421854667						
124617	Spar Follese	FOLLESEVEGEN 267	FOLLESE	HORDALAND	NO	5303		https://www.dnb.no		postal		60.4093465409392	5.15711224508639						
124618	Meny V&aring;gsbygd	SAGMYRA 7	KRISTIANSAND S	VEST-AGDER	NO	4624		https://www.dnb.no		postal		58.1113402463509	7.95267043842864						
124619	Extra Kaupanger	FURUVEGEN 3	KAUPANGER	SOGN OG FJORDANE	NO	6854		https://www.dnb.no		postal		61.1916467587455	7.22032846430312						
124620	Coop Prix Vaksdal	BOTNAVEGEN 10	VAKSDAL	HORDALAND	NO	5725		https://www.dnb.no		postal		60.4774077235617	5.74328880037118						
124621	Coop Prix &Aring;mli	FOSSEVEGEN 8	&Aring;MLI	AUST-AGDER	NO	4865		https://www.dnb.no		postal		58.7658077020807	8.48298750870839						
124622	Extra &Aring;ndalsnes	STRANDGATA 1	&Aring;NDALSNES	M&Oslash;RE OG ROMSDAL	NO	6300		https://www.dnb.no		postal		62.5685617533993	7.68591013277658						
124624	Extra Trom&oslash;ytunet	ELGVEIEN 9	F&AElig;RVIK	AUST-AGDER	NO	4818		https://www.dnb.no		postal		58.4635861182745	8.82191492306486						
124627	Extra Naustdal	FJORDAVEGEN 1	NAUSTDAL	SOGN OG FJORDANE	NO	6817		https://www.dnb.no		postal		61.508154080529	5.71837787937445						
124629	Extra Farsund	BARBROS GATE 14	FARSUND	VEST-AGDER	NO	4550		https://www.dnb.no		postal		58.0918894288487	6.80811466802754						
124630	Spar S&aelig;b&oslash;vik	S&AElig;B&Oslash;VIKVEGEN 130	S&AElig;B&Oslash;VIK	HORDALAND	NO	5454		https://www.dnb.no		postal		59.7940198257348	5.70830965513978						
124631	Coop Prix Selje		SELJE	SOGN OG FJORDANE	NO	6740		https://www.dnb.no		postal		62.0449183205777	5.34530322894344						
124633	Extra F&oslash;rde	KRONBORGVEGEN 34	F&Oslash;RDE	SOGN OG FJORDANE	NO	6813		https://www.dnb.no		postal		61.4476489203197	5.88618486748574						
124635	Coop Prix Tysnes	V&Aring;GE	TYSNES	HORDALAND	NO	5680		https://www.dnb.no		postal		60.0427001059657	5.52258064877399						
124636	Coop Prix Leikanger	SOGNEFJORDVEGEN 42	LEIKANGER	SOGN OG FJORDANE	NO	6863		https://www.dnb.no		postal		61.1834974155877	6.85064167830381						
124638	Coop Marked Tonstad	TONSTADVEIEN 27	TONSTAD	VEST-AGDER	NO	4440		https://www.dnb.no		postal		58.6646881992751	6.71680379506632						
124641	Coop Marked Fl&aring;m	A-FELTVEGEN 18	FL&Aring;M	SOGN OG FJORDANE	NO	5743		https://www.dnb.no		postal		60.8639965484379	7.11535978523864						
124642	Coop Prix Norheimsund	GROVA 16	NORHEIMSUND	HORDALAND	NO	5600		https://www.dnb.no		postal		60.3724152441764	6.14565511025059						
124643	Coop Prix Sokndal	MYRVEIEN 6	HAUGE I DALANE	ROGALAND	NO	4380		https://www.dnb.no		postal		58.3420504574146	6.29138081467512						
124644	Extra Hana Sanz	HANAVEIEN 17	SANDNES	ROGALAND	NO	4327		https://www.dnb.no		postal		58.8545291271397	5.75221266793011						
124645	Coop Prix Greipstad	SONGDALSVEGEN 104	NODELAND	VEST-AGDER	NO	4645		https://www.dnb.no		postal		58.1556174341239	7.83657916466671						
124647	Coop Prix Tau	FISK&Aring;VEGEN 2	TAU	ROGALAND	NO	4120		https://www.dnb.no		postal		59.0651238391259	5.92176947408395						
124648	Coop Prix Lindesnes	SPANGEREIDVEIEN 5	LINDESNES	VEST-AGDER	NO	4520		https://www.dnb.no		postal		58.0829369761022	7.30367192054555						
124650	Coop Marked Brekke	SOGNEFJORDVEGEN 446	BREKKE	SOGN OG FJORDANE	NO	5961		https://www.dnb.no		postal		61.0186545180055	5.4600802566132						
124651	Coop Prix Eiken	LANGEBAKK 39	EIKEN	VEST-AGDER	NO	4596		https://www.dnb.no		postal		58.4720387457077	7.22615546853215						
124653	Coop Marked Suldalsosen	SULDALSVEGEN 1621	SULDALSOSEN	ROGALAND	NO	4237		https://www.dnb.no		postal		59.4915177912706	6.51537412293801						
124654	Coop Marked S&oslash;vik	S&Oslash;VIK	S&Oslash;VIK	M&Oslash;RE OG ROMSDAL	NO	6280		https://www.dnb.no		postal		62.5484324851846	6.27866046333894						
124655	Coop Marked Vadheim	VADHEIM	VADHEIM	SOGN OG FJORDANE	NO	6996		https://www.dnb.no		postal		61.2089593244725	5.82380688473585						
124656	Coop Mega St&oslash;perig&aring;rden	ST&Oslash;PERIGATA 24	STAVANGER	ROGALAND	NO	4014		https://www.dnb.no		postal		58.9698762731283	5.75394682294654						
124657	Extra Kvinesdal	ELVEVEGEN 2	KVINESDAL	VEST-AGDER	NO	4480		https://www.dnb.no		postal		58.3176968407533	6.9587691830284						
124658	Coop Prix Vennesla	VENNESLAMOEN 6	VENNESLA	VEST-AGDER	NO	4700		https://www.dnb.no		postal		58.2690906648463	7.97302586583283						
124659	Coop Marked Balestrand	HOLMEN 1	BALESTRAND	SOGN OG FJORDANE	NO	6899		https://www.dnb.no		postal		61.209991334499	6.53727267955407						
124660	Coop Prix Gimlevang	INGERTHAS VEI 1	KRISTIANSAND S	VEST-AGDER	NO	4630		https://www.dnb.no		postal		58.1607949344875	7.99868913738049						
124664	Extra Lista	OLAV SELVAAGS VEI 16	VANSE	VEST-AGDER	NO	4560		https://www.dnb.no		postal		58.0977057774747	6.69258533825204						
124665	Coop Prix Vestnes	SJ&Oslash;GATA 10	VESTNES	M&Oslash;RE OG ROMSDAL	NO	6390		https://www.dnb.no		postal		62.6237343835656	7.0914995941812						
124666	Extra Birkeland	STR&Oslash;GET 56	BIRKELAND	AUST-AGDER	NO	4760		https://www.dnb.no		postal		58.3302102856954	8.23259608039367						
124667	Coop Prix Gaupne	SENTRUM	GAUPNE	SOGN OG FJORDANE	NO	6868		https://www.dnb.no		postal		61.4027247316384	7.2963915378766						
124671	Kiwi Spangereid	B&Aring;LYVEIEN	LINDESNES	VEST-AGDER	NO	4521		https://www.dnb.no		postal		58.0448157933947	7.14407802958581						
124672	Spar Eivindvik	EIVINDVIKVEGEN 1100	EIVINDVIK	SOGN OG FJORDANE	NO	5966		https://www.dnb.no		postal		60.9797873109905	5.07798902657912						
124673	Joker Vestnes Mandal	SPEIDERVEIEN 4	MANDAL	VEST-AGDER	NO	4514		https://www.dnb.no		postal		58.0272575837766	7.44204808873958						
124674	Extra Randvik	TYRIVEIEN 25	RIS&Oslash;R	AUST-AGDER	NO	4956		https://www.dnb.no		postal		58.7154666116201	9.22193365814535						
124681	Coop Mega V&aring;gsbygd	V&Aring;GSBYGD RINGVEI 100	KRISTIANSAND S	VEST-AGDER	NO	4621		https://www.dnb.no		postal		58.1292054551538	7.96181728954911						
124683	Bunnpris Randaberg	VISTNESVEIEN 5	RANDABERG	ROGALAND	NO	4070		https://www.dnb.no		postal		58.9985154705603	5.61681995043053						
124684	Matkroken Ris&oslash;r	STRANDGATA 3	RIS&Oslash;R	AUST-AGDER	NO	4950		https://www.dnb.no		postal		58.7205362865408	9.23498804429289						
124686	Rema 1000 M&aring;l&oslash;y Brygge	AMTSKAIA	M&Aring;L&Oslash;Y	SOGN OG FJORDANE	NO	6700		https://www.dnb.no		postal		61.9361754110703	5.11582500690063						
124687	Coop Prix Bergemoen	BERGEMOVEIEN 23	GRIMSTAD	AUST-AGDER	NO	4886		https://www.dnb.no		postal		58.3399075068153	8.55501436115276						
124691	N&aelig;rbutikken Stavang Landhandel	STAVANG	STAVANG	SOGN OG FJORDANE	NO	6944		https://www.dnb.no		postal		61.5355388000589	5.18068228923588						
124696	Extra Minde	MINDE ALL&Eacute; 48	BERGEN	HORDALAND	NO	5068		https://www.dnb.no		postal		60.3606215660853	5.34306648460672						
124698	Joker R&oslash;yneberg	HELLESTUBBEN 4	R&Oslash;YNEBERG	ROGALAND	NO	4052		https://www.dnb.no		postal		58.9118192349562	5.67673030890654						
124699	Spar Hosteland	FENSFJORDVEGEN 617	HOSTELAND	HORDALAND	NO	5986		https://www.dnb.no		postal		60.8340089922173	5.26331512890144						
124702	Joker Bjordal		BJORDAL	SOGN OG FJORDANE	NO	5962		https://www.dnb.no		postal		61.0770507081661	5.83234304273763						
124704	Joker Hinder&aring;v&aring;g	HINDER&Aring;V&Aring;G	NEDSTRAND	ROGALAND	NO	5560		https://www.dnb.no		postal		59.3490721619089	5.80145889410009						
124705	Joker Kvalav&aring;g	KVALAV&Aring;GVEGEN 556	KVALAV&Aring;G	ROGALAND	NO	4264		https://www.dnb.no		postal		59.3212808675491	5.21040411560006						
124710	Extra Fana	FANAVOLLEN 2	FANA	HORDALAND	NO	5244		https://www.dnb.no		postal		60.2572183820072	5.33689443206403						
124712	Meny Midtun	SANDBREKKEVEGEN 96	NESTTUN	HORDALAND	NO	5225		https://www.dnb.no		postal		60.3254695744719	5.36699090310657						
124713	Meny St&oslash;letorget	ST&Oslash;LEGATEN 15 A	BERGEN	HORDALAND	NO	5003		https://www.dnb.no		postal		60.3998835763918	5.32549534863333						
124715	Coop Prix Bekkefaret	HJALMAR JOHANSENS GATE 2	STAVANGER	ROGALAND	NO	4019		https://www.dnb.no		postal		58.9510093991134	5.72754209346164						
124716	Coop Mega Ulstein	VIKEMYRA 1	ULSTEINVIK	M&Oslash;RE OG ROMSDAL	NO	6065		https://www.dnb.no		postal		62.3428920198571	5.84836805757984						
124717	Coop Marked Flor&oslash;	LINDHEIMVEGEN 1	FLOR&Oslash;	SOGN OG FJORDANE	NO	6905		https://www.dnb.no		postal		61.5997686350029	5.02662839202168						
124718	Coop Mega Lund	STADIONVEIEN 1	KRISTIANSAND S	VEST-AGDER	NO	4632		https://www.dnb.no		postal		58.1537712520133	8.02465745238167						
124721	Kiwi 886 Oasen	FOLKE BERNADOTTES VEI 52	FYLLINGSDALEN	HORDALAND	NO	5147		https://www.dnb.no		postal		60.3484878441668	5.29265687837529						
124722	Europris Fyllingsdalen	SPELHAUGEN 6	FYLLINGSDALEN	HORDALAND	NO	5147		https://www.dnb.no		postal		60.3506776616823	5.27794285339591						
124723	Coop Marked Valle	NORDIB&Oslash;VEGEN 131	VALLE	AUST-AGDER	NO	4747		https://www.dnb.no		postal		59.2119680718717	7.53476191372078						
124724	Extra Mandal	KASTELLGATA 14	MANDAL	VEST-AGDER	NO	4514		https://www.dnb.no		postal		58.022488051741	7.45142077810274						
124726	Coop Marked H&oslash;le	FLOEN 15	SANDNES	ROGALAND	NO	4308		https://www.dnb.no		postal		58.8947198495929	6.02447071368468						
124727	Coop Prix Strusshamn	STRUSSHAMNVEGEN 36	STRUSSHAMN	HORDALAND	NO	5302		https://www.dnb.no		postal		60.4063041052885	5.19449328874963						
124729	Coop Obs! Bygg Sartor	STRAUMSFJELLVEGEN 1	STRAUME	HORDALAND	NO	5353		https://www.dnb.no		postal		60.36083896219	5.12696797140172						
124732	Extra Odden	ODDEN 1	GRIMSTAD	AUST-AGDER	NO	4876		https://www.dnb.no		postal		58.3377717615686	8.59269157669046						
124733	Bunnpris Grimstad	STORGATEN 90	GRIMSTAD	AUST-AGDER	NO	4877		https://www.dnb.no		postal		58.3459740446079	8.58134979843706						
124734	Coop Prix Voss	UTTR&Aring;GATA 36	VOSS	HORDALAND	NO	5700		https://www.dnb.no		postal		60.6291603149752	6.42647122470011						
124735	Kiwi Palmafossen	TJUKKEBYGDVEGEN 16	VOSS	HORDALAND	NO	5706		https://www.dnb.no		postal		60.6366651093291	6.46532155883025						
124737	Bunnpris Raglamyr	RAGLAMYRVEGEN 2	HAUGESUND	ROGALAND	NO	5536		https://www.dnb.no		postal		59.3959349418112	5.32321504183017						
124738	Extra Flekkefjord	JERNBANEVEIEN 12	FLEKKEFJORD	VEST-AGDER	NO	4400		https://www.dnb.no		postal		58.2936045068992	6.66514862467605						
124739	Coop Obs! Lagunen	LAGUNEVEIEN 1	R&Aring;DAL	HORDALAND	NO	5239		https://www.dnb.no		postal		60.2968915674737	5.3297762960133						
124740	Joker Tveit	TOPDALSVEIEN 267	TVEIT	VEST-AGDER	NO	4658		https://www.dnb.no		postal		58.2326459327612	8.12266984354669						
124741	Coop Prix Prestestien	MYRDALSKOGEN 2 A	ULSET	HORDALAND	NO	5118		https://www.dnb.no		postal		60.4659422145945	5.31289351761201						
124742	Jafs Gard Kiosken	NYG&Aring;RDSVEGEN 6	HAUGESUND	ROGALAND	NO	5515		https://www.dnb.no		postal		59.4275926067317	5.26377532955693						
124744	Coop Mega S&oslash;gne	SENTRUMSVEIEN 1	S&Oslash;GNE	VEST-AGDER	NO	4640		https://www.dnb.no		postal		58.0974353132116	7.81456754394271						
124745	Coop Mega Egersund	FABRIKKGATEN 2	EGERSUND	ROGALAND	NO	4370		https://www.dnb.no		postal		58.4533220446924	6.00345351923943						
124746	Meny Stoa	&Aring;SBIEVEIEN 2	ARENDAL	AUST-AGDER	NO	4848		https://www.dnb.no		postal		58.4583971628643	8.71221730029054						
124747	Coop Prix Hundv&aring;g	AUSTB&Oslash;SLETTA 6	HUNDV&Aring;G	ROGALAND	NO	4085		https://www.dnb.no		postal		58.9934081396606	5.74392534129453						
124749	Matkroken Innvik	VAGSTADBYGGET	INNVIK	SOGN OG FJORDANE	NO	6793		https://www.dnb.no		postal		61.8518532991414	6.61421945922887						
124750	Extra Nordfjordeid	SJ&Oslash;GATA 21	NORDFJORDEID	SOGN OG FJORDANE	NO	6770		https://www.dnb.no		postal		61.9089316323414	5.98418861096351						
124751	Extra S&aelig;dalen	S&AElig;DALSSVINGENE 3	BERGEN	HORDALAND	NO	5099		https://www.dnb.no		postal		60.3449055726592	5.3941115105487						
124752	Coop Obs! Hypermarked Vestkanten	LODDEFJORDVEIEN 2	LODDEFJORD	HORDALAND	NO	5171		https://www.dnb.no		postal		60.3630816743711	5.23343078276961						
124753	Extra Vadmyra	VADMYRVEIEN 48	LODDEFJORD	HORDALAND	NO	5172		https://www.dnb.no		postal		60.3625340922701	5.22738637343059						
124755	Joker Marnardal	BUE	MARNARDAL	VEST-AGDER	NO	4534		https://www.dnb.no		postal		58.2134408903384	7.51487513517184						
124756	Extra Hovden	SETESDALSVEGEN 4265	HOVDEN I SETESDAL	AUST-AGDER	NO	4755		https://www.dnb.no		postal		59.5596050967945	7.35615045911664						
124757	Coop Prix Os	&Oslash;YRO 59	OS	HORDALAND	NO	5200		https://www.dnb.no		postal		60.1860171950943	5.46846943155369						
124758	Kiwi Sund Senter	SKOGEVEGEN 2	SKOGSV&Aring;G	HORDALAND	NO	5382		https://www.dnb.no		postal		60.2699942588338	5.07285197029712						
124759	Spar Steinsland	FORLAND	STEINSLAND	HORDALAND	NO	5379		https://www.dnb.no		postal		60.1929097958791	5.10522119335367						
124760	Extra Nesttun	&Oslash;STRE NESTTUNVEGEN 16	NESTTUN	HORDALAND	NO	5221		https://www.dnb.no		postal		60.3174308033879	5.35503000896904						
124761	Tilbords Stord	TORGBAKKEN 2	STORD	HORDALAND	NO	5411		https://www.dnb.no		postal		59.7800852098164	5.50031577932495						
124762	Spar Kj&oslash;p Kokstad	KOKSTADFLATEN 30	KOKSTAD	HORDALAND	NO	5257		https://www.dnb.no		postal		60.2914386737401	5.25022222813324						
124764	Extra L&oslash;v&aring;s	L&Oslash;V&Aring;SVEIEN 20	FYLLINGSDALEN	HORDALAND	NO	5145		https://www.dnb.no		postal		60.3558218441688	5.28992653674766						
124766	Fr&oslash;ken Fryd Moster AS	MOSTRAVEGEN 543	MOSTERHAMN	HORDALAND	NO	5440		https://www.dnb.no		postal		59.7023703700348	5.37369611067741						
124770	Joker Kvammen	H&Oslash;GDA	KVAMMEN	SOGN OG FJORDANE	NO	6983		https://www.dnb.no		postal		61.4587030827503	5.4161426898943						
124771	Coop Obs! Bryne	JUPITERVEGEN 2	BRYNE	ROGALAND	NO	4340		https://www.dnb.no		postal		58.7358048898266	5.63965282587392						
124772	Coop Marked Bokn	F&Oslash;RESVIKVEGEN 1	BOKN	ROGALAND	NO	5561		https://www.dnb.no		postal		59.2323621829862	5.43942780998828						
124773	Coop Marked Helleland	SIRDALSVEIEN 38	HELLELAND	ROGALAND	NO	4376		https://www.dnb.no		postal		58.5355060328681	6.1539522180284						
124774	Coop Prix Hommers&aring;k	KAIVEIEN 38	HOMMERS&Aring;K	ROGALAND	NO	4310		https://www.dnb.no		postal		58.9297541782914	5.84780142100058						
124775	Extra Kvernaland	LEIRFENVEGEN 2	KVERNALAND	ROGALAND	NO	4355		https://www.dnb.no		postal		58.7792068962637	5.72205822044619						
124776	Coop Prix Lye	PRESTEGARDSMARKA 2	LYE	ROGALAND	NO	4347		https://www.dnb.no		postal		58.730184300958	5.73039405896219						
124777	Extra Moi	&Oslash;YEVOLLVEIEN 2 A	MOI	ROGALAND	NO	4460		https://www.dnb.no		postal		58.4610840539907	6.54539378903247						
124778	Coop Marked Oltedal	BYGDAVEIEN 61	OLTEDAL	ROGALAND	NO	4333		https://www.dnb.no		postal		58.8302336288893	6.04227705390762						
124779	Coop Marked Sira	PRESTEVEGEN 3	SIRA	VEST-AGDER	NO	4438		https://www.dnb.no		postal		58.4162118953193	6.66066925889347						
124780	Extra Varhaug	UELANDSGATA 4	VARHAUG	ROGALAND	NO	4360		https://www.dnb.no		postal		58.6173843783358	5.64559757597578						
124781	Coop Marked Sand	VERVEN 2	SAND	ROGALAND	NO	4230		https://www.dnb.no		postal		59.4838247885487	6.25060970310804						
124782	Extra Sauda	BRUGATA 2	SAUDA	ROGALAND	NO	4200		https://www.dnb.no		postal		59.6491218999944	6.35727647279617						
124783	Coop Marked Vikedal	VIKEDAL	VIKEDAL	ROGALAND	NO	5583		https://www.dnb.no		postal		59.4979257034619	5.9040487336801						
124784	Extra Madla	RAGBAKKEN 84	HAFRSFJORD	ROGALAND	NO	4042		https://www.dnb.no		postal		58.9520711993789	5.65697649491195						
124786	Extra Skudenes	POSTVEGEN 28	SKUDENESHAVN	ROGALAND	NO	4280		https://www.dnb.no		postal		59.1504297156985	5.25793485335957						
124787	Coop Prix Vedav&aring;gen	AUSTRE VEAVEG 214	VEAV&Aring;GEN	ROGALAND	NO	4276		https://www.dnb.no		postal		59.2929775987656	5.2262157271015						
124789	Extra Avaldsnes	KONG AUGVALDS VEG 10 B	AVALDSNES	ROGALAND	NO	4262		https://www.dnb.no		postal		59.355339624063	5.27850849900697						
124790	Extra Etne	HAUKELIVEGEN 999	ETNE	HORDALAND	NO	5590		https://www.dnb.no		postal		59.6660616911003	5.93416066885028						
124791	Extra Kopervik	AUSTRE KARM&Oslash;YVEG 130	KOPERVIK	ROGALAND	NO	4250		https://www.dnb.no		postal		59.2804072227515	5.30338689038255						
124792	Extra Odda	BUSTETUNGATA 3	ODDA	HORDALAND	NO	5750		https://www.dnb.no		postal		60.0682281409634	6.54538657926673						
124793	Extra &Oslash;len	&Oslash;LEN SENTER	&Oslash;LEN	ROGALAND	NO	5580		https://www.dnb.no		postal		59.6065563996519	5.81223445959036						
124794	Joker Bygland	SENTRUM 20	BYGLAND	AUST-AGDER	NO	4745		https://www.dnb.no		postal		58.8310971867245	7.79798280318029						
124795	Joker Uggdal	TOMYRO 1	UGGDAL	HORDALAND	NO	5685		https://www.dnb.no		postal		59.9987482727293	5.49627618515595						
124796	Joker Byremo	SELANDSDALSVEIEN 1	BYREMO	VEST-AGDER	NO	4529		https://www.dnb.no		postal		58.4210745130485	7.40264776679577						
124797	Spar Eiger&oslash;y	UF&Oslash;RFJELLVEIEN 1	EGERSUND	ROGALAND	NO	4374		https://www.dnb.no		postal		58.4508339107422	5.97521446555306						
124798	Spar Rong	RONG SENTER	RONG	HORDALAND	NO	5337		https://www.dnb.no		postal		60.5134395203276	4.90973542444605						
124799	Coop Prix Eiganes	&Oslash;VRE STOKKAVEI 42	STAVANGER	ROGALAND	NO	4023		https://www.dnb.no		postal		58.9648488335789	5.70374244431372						
124805	Spar Raudeberg	VIKA	RAUDEBERG	SOGN OG FJORDANE	NO	6710		https://www.dnb.no		postal		61.981745833118	5.13598703843765						
124806	Bunnpris Tjensvoll	TJENSVOLLTORGET 25	STAVANGER	ROGALAND	NO	4021		https://www.dnb.no		postal		58.9516000623953	5.70373567678648						
124807	Elkj&oslash;p Megastore Kristiansand	BARST&Oslash;LVEIEN 70	KRISTIANSAND S	VEST-AGDER	NO	4636		https://www.dnb.no		postal		58.1768767208614	8.134139835567						
124808	Extra Evje	NILS HEGLANDS VEG 68	EVJE	AUST-AGDER	NO	4735		https://www.dnb.no		postal		58.5884593368535	7.8100453459876						
124809	Extra Eydehavn	TORVGATA 4	EYDEHAVN	AUST-AGDER	NO	4810		https://www.dnb.no		postal		58.5001081538412	8.86524496548236						
124810	Elkj&oslash;p Kleppe	K.K. KLEPPES VEG 1	KLEPPE	ROGALAND	NO	4352		https://www.dnb.no		postal		58.7765737550137	5.6274575605459						
124812	Extra Fagerholt	MAGNUS BARFOTS VEI 3	KRISTIANSAND S	VEST-AGDER	NO	4633		https://www.dnb.no		postal		58.1772073292721	8.04102787308116						
124813	Plantasjen Forus	STOKKAMYRVEIEN 26	SANDNES	ROGALAND	NO	4313		https://www.dnb.no		postal		58.8831534764631	5.71993059306346						
124815	Extra Blomsterdalen	LILANDSVEGEN 3	BLOMSTERDALEN	HORDALAND	NO	5258		https://www.dnb.no		postal		60.2843432480745	5.25164434709072						
124816	Extra &Oslash;ystese	SJUSETEVEGEN 5	&Oslash;YSTESE	HORDALAND	NO	5610		https://www.dnb.no		postal		60.3870645441557	6.20074843417255						
124818	Extra Flor&oslash;	HJELLEGATA 2	FLOR&Oslash;	SOGN OG FJORDANE	NO	6900		https://www.dnb.no		postal		61.6001396925669	5.0471659109642						
124819	Extra Apeltun	NEDRE N&Oslash;TTVEIT 12	R&Aring;DAL	HORDALAND	NO	5238		https://www.dnb.no		postal		60.2979917106797	5.34550405793459						
124820	Extra Skulestadmo	NEDKVITNESVEGEN 2	SKULESTADMO	HORDALAND	NO	5710		https://www.dnb.no		postal		60.655317087504	6.43715052621177						
124821	Plantasjen Drotningsvik	ALVEHAUGEN 6	GODVIK	HORDALAND	NO	5179		https://www.dnb.no		postal		60.3701895716145	5.18917308597704						
124822	Plantasjen Stord	HATLANDSMYRO 15	STORD	HORDALAND	NO	5412		https://www.dnb.no		postal		59.7609803516701	5.45073070627572						
124823	Plantasjen Birkeland	YTREBYGDSVEGEN 158	S&Oslash;REIDGREND	HORDALAND	NO	5252		https://www.dnb.no		postal		60.2972325258559	5.27106239750519						
124824	Bunnpris Hareid	STRANDGATA 53	HAREID	M&Oslash;RE OG ROMSDAL	NO	6060		https://www.dnb.no		postal		62.3685061922329	6.03200326275411						
124826	Plantasjen Os	GUDRIDFLATEN 2	OS	HORDALAND	NO	5210		https://www.dnb.no		postal		60.2048531690996	5.45201787932383						
124827	Coop Obs! &Aring;sane	MYRDALSVEGEN 2	NYBORG	HORDALAND	NO	5130		https://www.dnb.no		postal		60.4704252746558	5.32308830588413						
124830	Joker Ervik	ERVIKVEIEN 72	&Oslash;VRE ERVIK	HORDALAND	NO	5106		https://www.dnb.no		postal		60.4437423889112	5.3258272367432						
124831	Coop Prix Jondal	JONAVEGEN 5	JONDAL	HORDALAND	NO	5627		https://www.dnb.no		postal		60.2766713452587	6.2524168873415						
124832	Extra Petroleumsveien	PETROLEUMSVEIEN 6	STAVANGER	ROGALAND	NO	4031		https://www.dnb.no		postal		58.8925241288877	5.72179759529765						
124834	Extra Husnes	HEIAMYRO 11	HUSNES	HORDALAND	NO	5460		https://www.dnb.no		postal		59.8634265050394	5.75500054383723						
124836	Coop Prix Sogndal	FJ&Oslash;REVEGEN 20	SOGNDAL	SOGN OG FJORDANE	NO	6856		https://www.dnb.no		postal		61.2316583619156	7.10484802747866						
124837	Meny Knarvik	KVERNHUSMYRANE 7 A	ISDALST&Oslash;	HORDALAND	NO	5914		https://www.dnb.no		postal		60.5466423581627	5.28614106737705						
124838	Extra Sandane	GRANDAVEGEN 14	SANDANE	SOGN OG FJORDANE	NO	6823		https://www.dnb.no		postal		61.776121299352	6.21506272227851						
124839	Spar Fusa	VENJANESVEGEN 136	FUSA	HORDALAND	NO	5641		https://www.dnb.no		postal		60.1968190946687	5.61211277445399						
124840	Joker S&oslash;fteland	LANGEDALEN 3	S&Oslash;FTELAND	HORDALAND	NO	5212		https://www.dnb.no		postal		60.2382342444942	5.44221635545541						
124841	Bunnpris N&oslash;stet	N&Oslash;STEGATEN 52	BERGEN	HORDALAND	NO	5011		https://www.dnb.no		postal		60.393128079961	5.3146687173646						
124842	Extra H&oslash;yanger	STORGATA 19	H&Oslash;YANGER	SOGN OG FJORDANE	NO	6993		https://www.dnb.no		postal		61.219173854493	6.07375960159078						
124843	Spar Kronstadparken	BJ&Oslash;RNSONS GATE 5	BERGEN	HORDALAND	NO	5059		https://www.dnb.no		postal		60.3736630561275	5.34205712096728						
124844	Spar Mongstad	MONGSTADVEGEN 1020	MONGSTAD	HORDALAND	NO	5954		https://www.dnb.no		postal		60.7971108550575	5.01203481642421						
124845	Meny &Aring;sane Storsenter	&Aring;SANE SENTER 21	ULSET	HORDALAND	NO	5116		https://www.dnb.no		postal		60.464712924344	5.32203846780744						
124846	Extra &Aring;kra	RINGVEGEN 8	&Aring;KREHAMN	ROGALAND	NO	4270		https://www.dnb.no		postal		59.2610960893799	5.19368027672688						
124847	Rema 1000 Ostereidet	YTRE EIDE	OSTEREIDET	HORDALAND	NO	5993		https://www.dnb.no		postal		60.6258931795013	5.47315004583168						
124848	YX M&aring;l&oslash;y		DEKNEPOLLEN	SOGN OG FJORDANE	NO	6718		https://www.dnb.no		postal		61.9228997603265	5.15017131963145						
124849	Coop Prix Olsvik	OLSVIKSKJENET 155	OLSVIK	HORDALAND	NO	5184		https://www.dnb.no		postal		60.3851010183773	5.21792831088669						
124850	Coop Marked Fisk&aring;	FISK&Aring;	FISK&Aring;	M&Oslash;RE OG ROMSDAL	NO	6143		https://www.dnb.no		postal		62.098309261056	5.55790394648861						
124851	Coop Marked Dale		DALE I SUNNFJORD	SOGN OG FJORDANE	NO	6963		https://www.dnb.no		postal		61.3633628885204	5.39939696220326						
124852	Bunnpris Sletten	HAGERUPS VEI 52	BERGEN	HORDALAND	NO	5093		https://www.dnb.no		postal		60.3575853516651	5.35879830878195						
124853	Larsen Multihandel Fitjar	FITJARSJ&Oslash;EN 18	FITJAR	HORDALAND	NO	5419		https://www.dnb.no		postal		59.9180675889811	5.31625721559438						
124854	Bunnpris Lindvik	BEKKEVEIEN 14	BERGEN	HORDALAND	NO	5096		https://www.dnb.no		postal		60.3675094440325	5.36674267652309						
124856	Tilbords Laksev&aring;g	KRINGSJ&Aring;VEIEN 83	LAKSEV&Aring;G	HORDALAND	NO	5163		https://www.dnb.no		postal		60.3895413756116	5.28717644092671						
124857	Coop Byggmix Vik	SENTRUM	VIK I SOGN	SOGN OG FJORDANE	NO	6893		https://www.dnb.no		postal		61.0870951021854	6.58009825860049						
124858	Bunnpris Nyg&aring;rdsgaten	NYG&Aring;RDSGATEN 89	BERGEN	HORDALAND	NO	5008		https://www.dnb.no		postal		60.3851964013034	5.33157450974743						
124859	N&aelig;rbutikken Sandnes	AUSTFJORDVEGEN 2750	MASFJORDNES	HORDALAND	NO	5981		https://www.dnb.no		postal		60.8006668200266	5.30031023768615						
124861	Spar &Oslash;yrane Torg	&Aring;DNAVEGEN 63	INDRE ARNA	HORDALAND	NO	5260		https://www.dnb.no		postal		60.4212834069134	5.46505658346847						
124862	Coop Mega F&oslash;rde	LANGEBRUVEGEN 22	F&Oslash;RDE	SOGN OG FJORDANE	NO	6800		https://www.dnb.no		postal		61.4526964038416	5.85759452642888						
124863	Bunnpris Nordnes	C. SUNDTS GATE 57	BERGEN	HORDALAND	NO	5004		https://www.dnb.no		postal		60.3985247798977	5.31129505686248						
124864	Extra Storeb&oslash;	STOREB&Oslash;VEGEN 215	STOREB&Oslash;	HORDALAND	NO	5392		https://www.dnb.no		postal		60.0871178867489	5.2434227553725						
124865	Matkroken Fedje	MUREN 1	FEDJE	HORDALAND	NO	5947		https://www.dnb.no		postal		60.7819565126337	4.7132173552503						
124866	Bunnpris M&oslash;llendalsbakken	M&Oslash;LLENDALSVEIEN 61 B	BERGEN	HORDALAND	NO	5009		https://www.dnb.no		postal		60.378594742858	5.35370128770751						
124867	Bunnpris Ulvedalen Torg	ULVEDALEN 5	FLAKTVEIT	HORDALAND	NO	5134		https://www.dnb.no		postal		60.464803661605	5.36262476967866						
124868	Bunnpris Straume	SARTORVEGEN 12	STRAUME	HORDALAND	NO	5353		https://www.dnb.no		postal		60.3584578721886	5.12513798210907						
124869	Spar Aurland	VANGEN 6 A	AURLAND	SOGN OG FJORDANE	NO	5745		https://www.dnb.no		postal		60.905886605549	7.18632338219878						
124870	Extra Mastrevik	S&AElig;TREMARKA 1	AUSTRHEIM	HORDALAND	NO	5943		https://www.dnb.no		postal		60.7836836639371	4.9306459383733						
124871	Bunnpris &Aring;gotnes	BLEIVASSVEGEN 2	&Aring;GOTNES	HORDALAND	NO	5347		https://www.dnb.no		postal		60.4048251639355	5.00150478019683						
124872	Rema 1000 Bremnes	STAVLANDSVEGEN 9	BREMNES	HORDALAND	NO	5430		https://www.dnb.no		postal		59.7933179139453	5.17200498594174						
124873	Spar Bj&oslash;rkheim	BJ&Oslash;RKHEIM 26	&Aring;RLAND	HORDALAND	NO	5652		https://www.dnb.no		postal		60.4012084343406	5.73139380208563						
124874	Spar Bygstad	EIDEVIK	BYGSTAD	SOGN OG FJORDANE	NO	6977		https://www.dnb.no		postal		61.3761553770941	5.6531957192293						
124875	Rema 1000 &Aring;rdalstangen	TANGEVEGEN 5	&Aring;RDALSTANGEN	SOGN OG FJORDANE	NO	6885		https://www.dnb.no		postal		61.2370620824615	7.7057971526621						
124877	Bunnpris S&oslash;rb&oslash;v&aring;g	S&Oslash;RB&Oslash;V&Aring;G SENTRUM	S&Oslash;RB&Oslash;V&Aring;G	SOGN OG FJORDANE	NO	6958		https://www.dnb.no		postal		61.2260325484829	5.17456309909998						
124878	Bunnpris Odda	HJ&Oslash;LLO 1	ODDA	HORDALAND	NO	5750		https://www.dnb.no		postal		60.062756829904	6.55086034228686						
124879	Bunnpris Florv&aring;g	FLORV&Aring;GVEGEN 135	FLORV&Aring;G	HORDALAND	NO	5305		https://www.dnb.no		postal		60.428758314484	5.2374297730979						
124880	Bunnpris Lavik	LAVIK SENTRUM	LAVIK	SOGN OG FJORDANE	NO	6947		https://www.dnb.no		postal		61.1034194119343	5.51144830228021						
124881	Bunnpris B&oslash;nes	TJ&Oslash;RNHAUGEN 1	B&Oslash;NES	HORDALAND	NO	5154		https://www.dnb.no		postal		60.3332200760984	5.30188742498132						
125124	Spar Blindheim	BLINDHEIMSHAUGEN 7	&Aring;LESUND	M&Oslash;RE OG ROMSDAL	NO	6012		https://www.dnb.no		postal		62.4413653848166	6.37260346866333						
125128	Br&oslash;dr.Maraak	MAR&Aring;KVEGEN 49	GEIRANGER	M&Oslash;RE OG ROMSDAL	NO	6216		https://www.dnb.no		postal		62.1010265159792	7.20551129352082						
125140	Coop Prix Aure	AURDALSVEGEN 9	AURE	M&Oslash;RE OG ROMSDAL	NO	6690		https://www.dnb.no		postal		63.267913002404	8.53116974803269						
125144	Eurospar Skjevik	BAKLIVEGEN 1	HJELSET	M&Oslash;RE OG ROMSDAL	NO	6450		https://www.dnb.no		postal		62.7880313297387	7.53625692631719						
125151	Matkroken Todalen	TODALSVEGEN 1354	TODALEN	M&Oslash;RE OG ROMSDAL	NO	6645		https://www.dnb.no		postal		62.8199302609609	8.70349402898218						
125153	Bunnpris Angelltr&oslash;a	GRAN&Aring;SVEGEN 33	TRONDHEIM	S&Oslash;R-TR&Oslash;NDELAG	NO	7048		https://www.dnb.no		postal		63.4167407846398	10.4608024849185						
125154	Coop Prix Jakobsli	JAKOBSLIVEGEN 53	JAKOBSLI	S&Oslash;R-TR&Oslash;NDELAG	NO	7058		https://www.dnb.no		postal		63.4215500021176	10.4942384270239						
125155	Bunnpris Vik&aring;sen	VIK&Aring;SEN 8	RANHEIM	S&Oslash;R-TR&Oslash;NDELAG	NO	7054		https://www.dnb.no		postal		63.4124705481289	10.5374959618167						
125156	Extra Ranheim	SKONNERTVEGEN 8	RANHEIM	S&Oslash;R-TR&Oslash;NDELAG	NO	7053		https://www.dnb.no		postal		63.433898872219	10.5034782064167						
125160	Spar Langseth	UGLMOENE 4	SELBU	S&Oslash;R-TR&Oslash;NDELAG	NO	7580		https://www.dnb.no		postal		63.2505077517555	11.0951803338427						
125164	Bunnpris Nyborg	GAMLE OSLOVEI 28 A	TRONDHEIM	S&Oslash;R-TR&Oslash;NDELAG	NO	7020		https://www.dnb.no		postal		63.4138139109083	10.3517511175502						
125166	Bunnpris Havstad	BY&Aring;SVEIEN 158	TRONDHEIM	S&Oslash;R-TR&Oslash;NDELAG	NO	7021		https://www.dnb.no		postal		63.4076078065909	10.3586157448611						
125168	Coop Marked Korsveien	H&Oslash;LONDVEGEN 2051	KORSVEGEN	S&Oslash;R-TR&Oslash;NDELAG	NO	7212		https://www.dnb.no		postal		63.160625960864	10.0994520828192						
125171	Bunnpris Buran	ULSTADL&Oslash;KKVEIEN 5	TRONDHEIM	S&Oslash;R-TR&Oslash;NDELAG	NO	7067		https://www.dnb.no		postal		63.4364906293882	10.4240362502651						
125174	Coop Marked Krokstad&oslash;ra	KROKSTAD&Oslash;RA	SNILLFJORD	S&Oslash;R-TR&Oslash;NDELAG	NO	7257		https://www.dnb.no		postal		63.4000183737411	9.50170877274077						
125176	Extra B&oslash;rsa		B&Oslash;RSA	S&Oslash;R-TR&Oslash;NDELAG	NO	7353		https://www.dnb.no		postal		63.3234980009516	10.0653128452504						
125177	Coop Prix L&oslash;kken Verk	L&Oslash;KKENVEIEN 223	L&Oslash;KKEN VERK	S&Oslash;R-TR&Oslash;NDELAG	NO	7332		https://www.dnb.no		postal		63.1266234825568	9.70523670959818						
125184	Extra Tempe	TEMPEVEGEN 22	TRONDHEIM	S&Oslash;R-TR&Oslash;NDELAG	NO	7031		https://www.dnb.no		postal		63.4073364723708	10.3974175323165						
125189	Coop Marked Tydal	TYDALSVEGEN 80	TYDAL	S&Oslash;R-TR&Oslash;NDELAG	NO	7590		https://www.dnb.no		postal		63.0447150635647	11.6596902797966						
125192	Bunnpris Kl&aelig;bu	VIKINGVEGEN 7 A	KL&AElig;BU	S&Oslash;R-TR&Oslash;NDELAG	NO	7540		https://www.dnb.no		postal		63.2993421364535	10.483314374356						
125194	Bunnpris Flat&aring;sen	&Oslash;VRE FLAT&Aring;SVEG 4 D	FLAT&Aring;SEN	S&Oslash;R-TR&Oslash;NDELAG	NO	7079		https://www.dnb.no		postal		63.3723212457176	10.3429032942768						
125195	Extra Kolstad	REIER S&Oslash;BSTADS VEG 14	SAUPSTAD	S&Oslash;R-TR&Oslash;NDELAG	NO	7078		https://www.dnb.no		postal		63.3663999406957	10.3488320160576						
125200	Bunnpris Elgeseter	ELGESETER GATE 18	TRONDHEIM	S&Oslash;R-TR&Oslash;NDELAG	NO	7030		https://www.dnb.no		postal		63.4196821662986	10.39489202033						
125205	Coop Marked &Aring;	STENSVEIEN 1	JERPSTAD	S&Oslash;R-TR&Oslash;NDELAG	NO	7335		https://www.dnb.no		postal		62.9847586247808	9.74095297895589						
125213	Spar Larsg&aring;rden	LARSG&Aring;RDSVEGEN 19	&Aring;LESUND	M&Oslash;RE OG ROMSDAL	NO	6009		https://www.dnb.no		postal		62.4724413627238	6.24036151905886						
125220	Spar &Aring;heim		&Aring;HEIM	M&Oslash;RE OG ROMSDAL	NO	6146		https://www.dnb.no		postal		62.0364279599353	5.52991655683443						
125221	A.O. Kragset Eftf.	KRAGSET	&Aring;RAM	M&Oslash;RE OG ROMSDAL	NO	6149		https://www.dnb.no		postal		62.1738805387143	5.44125804811076						
125223	Joker Tomrefjord	FJORDVEGEN 445	TOMREFJORD	M&Oslash;RE OG ROMSDAL	NO	6393		https://www.dnb.no		postal		62.5823687571511	6.93104824290108						
125224	Bygdabua	NAKKEN	FIKSDAL	M&Oslash;RE OG ROMSDAL	NO	6394		https://www.dnb.no		postal		62.6189366361887	6.85273891498001						
125228	Joker Straumen	HOPEN	SM&Oslash;LA	M&Oslash;RE OG ROMSDAL	NO	6570		https://www.dnb.no		postal		63.3304444270404	8.0792519399809						
125234	Bunnpris Angvik	S&Oslash;RLANDSVEGEN 2269	ANGVIK	M&Oslash;RE OG ROMSDAL	NO	6636		https://www.dnb.no		postal		62.8901201435423	8.08014388148151						
125239	Compact Data Nilsen	SJ&Oslash;VEGEN 11	ORTEN	M&Oslash;RE OG ROMSDAL	NO	6486		https://www.dnb.no		postal		62.7851527834769	6.6554403460829						
125244	Spar Tresfjord	SYLTE	TRESFJORD	M&Oslash;RE OG ROMSDAL	NO	6391		https://www.dnb.no		postal		62.5224575641041	7.12850517021754						
125246	Verma N&aelig;rbutikk		VERMA	M&Oslash;RE OG ROMSDAL	NO	6330		https://www.dnb.no		postal		62.340431860946	8.06220446301502						
125250	Joker Gursken	V&Aring;GEN	GURSKEN	M&Oslash;RE OG ROMSDAL	NO	6082		https://www.dnb.no		postal		62.216237930673	5.64992596832878						
125252	Urke Landhandel	URKE	NORANGSFJORDEN	M&Oslash;RE OG ROMSDAL	NO	6196		https://www.dnb.no		postal		62.2126103874246	6.56603283111901						
125261	Joker Leps&oslash;y	FARSTAD	KJERSTAD	M&Oslash;RE OG ROMSDAL	NO	6292		https://www.dnb.no		postal		62.6103448840232	6.20500286483183						
125262	Fj&oslash;rtoft Handelslag A/L	HANDELSLAGET	FJ&Oslash;RTOFT	M&Oslash;RE OG ROMSDAL	NO	6294		https://www.dnb.no		postal		62.7063644831535	6.37693413848312						
125263	Sand&oslash;y Handelslag	HAMNEV&Aring;GEN 41	SAND&Oslash;Y	M&Oslash;RE OG ROMSDAL	NO	6484		https://www.dnb.no		postal		62.8201966407672	6.57744083185953						
125268	Bunnpris Kvenv&aelig;r	VESTHITTERVEIEN 662	KVENV&AElig;R	S&Oslash;R-TR&Oslash;NDELAG	NO	7243		https://www.dnb.no		postal		63.5334582795988	8.38983652815994						
125269	Joker Knarrlagsund	BERGET	KNARRLAGSUND	S&Oslash;R-TR&Oslash;NDELAG	NO	7242		https://www.dnb.no		postal		63.663632717722	9.07745086089623						
125270	Joker Hasselvika	HASSELVIKVEIEN 964	HASSELVIKA	S&Oslash;R-TR&Oslash;NDELAG	NO	7112		https://www.dnb.no		postal		63.6327290426459	9.82886855003303						
125275	E. Hopstads Enke	BESSAKERSJ&Oslash;VEIEN 37	BESSAKER	S&Oslash;R-TR&Oslash;NDELAG	NO	7190		https://www.dnb.no		postal		64.247500148658	10.3196052268654						
125279	Coop Marked Rye	SPONGDALSVEGEN 28	BOSBERG	S&Oslash;R-TR&Oslash;NDELAG	NO	7070		https://www.dnb.no		postal		63.4225853234023	10.1492472501744						
125281	Coop Marked Hamarvik	SAMVIRKEVEIEN 38	HAMARVIK	S&Oslash;R-TR&Oslash;NDELAG	NO	7263		https://www.dnb.no		postal		63.698482026193	8.80580800821741						
125282	Coop Marked Nordskag	NORDSKAG	KVERVA	S&Oslash;R-TR&Oslash;NDELAG	NO	7266		https://www.dnb.no		postal		63.7056075815729	8.56291164381126						
125284	Coop Marked Dyr&oslash;y	SETRA	NORDDYR&Oslash;Y	S&Oslash;R-TR&Oslash;NDELAG	NO	7273		https://www.dnb.no		postal		63.7977875133314	8.68236556256831						
125285	Coop Marked Stor&aring;s	ELVADALEN 1	STOR&Aring;S	S&Oslash;R-TR&Oslash;NDELAG	NO	7334		https://www.dnb.no		postal		63.0962071416579	9.5995169006974						
125289	Coop Marked Skaun	SKAUNAVEGEN 920	SKAUN	S&Oslash;R-TR&Oslash;NDELAG	NO	7357		https://www.dnb.no		postal		63.2511032648999	10.0538120099979						
125293	Stoksund Handelskompagni	STOKKSUNDVEIEN 1324	REVSNES	S&Oslash;R-TR&Oslash;NDELAG	NO	7177		https://www.dnb.no		postal		64.0383528428491	10.0555750265225						
125296	Rennebu Nedre Handel	VOLL	RENNEBU	S&Oslash;R-TR&Oslash;NDELAG	NO	7393		https://www.dnb.no		postal		62.8732124061658	9.8431441801822						
125298	Coop Marked Vallersund	J&Oslash;SSUNDVEIEN 34	VALLERSUND	S&Oslash;R-TR&Oslash;NDELAG	NO	7167		https://www.dnb.no		postal		63.8511213207314	9.75603847757774						
125301	Coop Marked Storfosna	VEDBERGSODDEN 4	STORFOSNA	S&Oslash;R-TR&Oslash;NDELAG	NO	7150		https://www.dnb.no		postal		63.6591771520781	9.41032373857671						
125329	Coop Marked Mausund	MAUSUNDV&AElig;R	MAUSUND	S&Oslash;R-TR&Oslash;NDELAG	NO	7284		https://www.dnb.no		postal		63.8680411604628	8.66414662424645						
125332	Ole P. Fj&aelig;r	ALEXANDRA SVERDRUPS VEG 2	OTTERS&Oslash;Y	NORD-TR&Oslash;NDELAG	NO	7940		https://www.dnb.no		postal		64.8599238481156	11.2878932950112						
125333	Joker Austafjord	AUSTAFJORD	R&Oslash;RVIK	NORD-TR&Oslash;NDELAG	NO	7900		https://www.dnb.no		postal		64.9166168145566	10.9395690706707						
125337	Coop Marked R&aring;kv&aring;g	PRANGVEIEN 9	R&Aring;KV&Aring;G	S&Oslash;R-TR&Oslash;NDELAG	NO	7114		https://www.dnb.no		postal		63.7615900576647	10.0688118332222						
125339	Joker Dolm&oslash;y	KJERRINGV&Aring;GVEIEN 33	DOLM&Oslash;Y	S&Oslash;R-TR&Oslash;NDELAG	NO	7252		https://www.dnb.no		postal		63.6540122260714	8.77658822896606						
125346	Spar Valder&oslash;y	S&Oslash;RE SKARET	VALDER&Oslash;YA	M&Oslash;RE OG ROMSDAL	NO	6050		https://www.dnb.no		postal		62.5089750662093	6.12848285145423						
125349	Coop Prix &Aring;fjord	&Aring;VEGEN 9 A	&Aring;FJORD	S&Oslash;R-TR&Oslash;NDELAG	NO	7170		https://www.dnb.no		postal		63.9654886425743	10.2159369623882						
125360	Coop Marked Gl&aring;mos	GL&Aring;MOS	GL&Aring;MOS	S&Oslash;R-TR&Oslash;NDELAG	NO	7372		https://www.dnb.no		postal		62.6737081921499	11.4189847660062						
125363	Joker Ilamat	OSLOVEIEN 12	TRONDHEIM	S&Oslash;R-TR&Oslash;NDELAG	NO	7017		https://www.dnb.no		postal		63.4269072259166	10.3694598517994						
125370	Spar &Aring;se	&Oslash;VRE GEILEGREND 1	&Aring;LESUND	M&Oslash;RE OG ROMSDAL	NO	6017		https://www.dnb.no		postal		62.4643850347405	6.31720153237259						
125377	Coop Marked Tustna	LEIRA	TUSTNA	M&Oslash;RE OG ROMSDAL	NO	6590		https://www.dnb.no		postal		63.2066248679616	8.04248864385926						
125379	Coop Marked Harran	NAMSENVEGEN 1517	HARRAN	NORD-TR&Oslash;NDELAG	NO	7873		https://www.dnb.no		postal		64.5611797716186	12.4931756608429						
125381	Matkroken Meisingset		MEISINGSET	M&Oslash;RE OG ROMSDAL	NO	6628		https://www.dnb.no		postal		62.8517745584423	8.28992415556465						
125383	Bunnpris Straumgjerde	SYKKYLVSVEGEN 1038	STRAUMGJERDE	M&Oslash;RE OG ROMSDAL	NO	6220		https://www.dnb.no		postal		62.3331884515129	6.59432963504755						
125386	Coop Prix Kattem	UST&Aring;SEN 2	KATTEM	S&Oslash;R-TR&Oslash;NDELAG	NO	7082		https://www.dnb.no		postal		63.34598595956	10.3350606509271						
125387	Coop Prix Rindal	RINDALSVEGEN 15 A	RINDAL	M&Oslash;RE OG ROMSDAL	NO	6657		https://www.dnb.no		postal		63.054616615351	9.21268283849855						
125388	Coop Marked Rindalsskogen	NYB&Oslash;	RINDALSSKOGEN	M&Oslash;RE OG ROMSDAL	NO	6658		https://www.dnb.no		postal		63.0993359860663	9.32333269485381						
125390	Bunnpris Lerkendal	DYBDAHLS VEG 5	TRONDHEIM	S&Oslash;R-TR&Oslash;NDELAG	NO	7051		https://www.dnb.no		postal		63.4133975295395	10.4141811790689						
125392	Bunnpris &Aring;r&oslash;	EIKREMSVINGEN 2 A	MOLDE	M&Oslash;RE OG ROMSDAL	NO	6422		https://www.dnb.no		postal		62.7471765893469	7.25215047099452						
125393	Mix Molosenteret		&Aring;FARNES	M&Oslash;RE OG ROMSDAL	NO	6360		https://www.dnb.no		postal		62.6638729857477	7.50406396229022						
125395	Coop Prix Hopen	HOPEN	SM&Oslash;LA	M&Oslash;RE OG ROMSDAL	NO	6570		https://www.dnb.no		postal		63.4596450578458	8.01605786501611						
125396	Bunnpris Brunsvika	STORSKARVEN 2	KRISTIANSUND N	M&Oslash;RE OG ROMSDAL	NO	6514		https://www.dnb.no		postal		63.1223527999399	7.7141208027418						
125397	Coop Prix Vanvikan	HAVNEGATA 1	VANVIKAN	NORD-TR&Oslash;NDELAG	NO	7125		https://www.dnb.no		postal		63.5535193107742	10.2222021162829						
125400	Bunnpris Asp&oslash;ya	FJORDSENTERET	&Oslash;YDEGARD	M&Oslash;RE OG ROMSDAL	NO	6670		https://www.dnb.no		postal		63.0110780759362	7.97652900424938						
125401	Mix Hitra Torget	OLDERVIKVEIEN 2	HITRA	S&Oslash;R-TR&Oslash;NDELAG	NO	7240		https://www.dnb.no		postal		63.6003914682466	8.97604419862003						
125403	Coop Prix Ilsvika	MELLOMILA 71	TRONDHEIM	S&Oslash;R-TR&Oslash;NDELAG	NO	7018		https://www.dnb.no		postal		63.431001294884	10.3601240584946						
125407	Bunnpris Tonstad	TORVMYRA 2	TILLER	S&Oslash;R-TR&Oslash;NDELAG	NO	7091		https://www.dnb.no		postal		63.3618507344584	10.3898078424713						
125412	Bunnpris Kvam	MEKVEGEN 5	MOLDE	M&Oslash;RE OG ROMSDAL	NO	6411		https://www.dnb.no		postal		62.7358841662917	7.09445981109867						
125413	Mix Hallset	SELSBAKKVEGEN 37	TRONDHEIM	S&Oslash;R-TR&Oslash;NDELAG	NO	7027		https://www.dnb.no		postal		63.393518119936	10.371664088738						
125415	Joker Torvikbukt	TORVIKVEGEN 5	TORVIKBUKT	M&Oslash;RE OG ROMSDAL	NO	6639		https://www.dnb.no		postal		62.9431911480398	7.85665109800623						
125416	Coop Prix &Aring;sen	HAMMER&Oslash;YVEGEN 1	&Aring;SEN	NORD-TR&Oslash;NDELAG	NO	7630		https://www.dnb.no		postal		63.6106774270314	11.0510258024306						
125419	Extra Buvika		BUVIKA	S&Oslash;R-TR&Oslash;NDELAG	NO	7350		https://www.dnb.no		postal		63.307971407176	10.1753749706158						
125422	Coop Marked Sula	BUTIKKVEIEN 3	SULA	S&Oslash;R-TR&Oslash;NDELAG	NO	7280		https://www.dnb.no		postal		63.8456763965554	8.45885452065074						
125425	Meny Lerstad	LERSTADVEGEN 291	&Aring;LESUND	M&Oslash;RE OG ROMSDAL	NO	6014		https://www.dnb.no		postal		62.4684677523542	6.29213388810752						
125433	Coop Prix Ler	LERSVEGEN 195	LER	S&Oslash;R-TR&Oslash;NDELAG	NO	7234		https://www.dnb.no		postal		63.1977710070179	10.3005492074935						
125434	Coop Prix Bud	STRANDAVEGEN 1	BUD	M&Oslash;RE OG ROMSDAL	NO	6430		https://www.dnb.no		postal		62.9062349685278	6.91663457177174						
125435	Coop Prix Tingvoll	V&Aring;GAVEGEN 175	TINGVOLL	M&Oslash;RE OG ROMSDAL	NO	6630		https://www.dnb.no		postal		62.9097649877898	8.20686640219816						
125439	Bunnpris Lang&oslash;yneset	REKSUNDVEIEN 103	AVER&Oslash;Y	M&Oslash;RE OG ROMSDAL	NO	6533		https://www.dnb.no		postal		63.0635841561284	7.49884213873294						
125440	Coop Marked Haltdalen	HEKSEMSVEGEN 77	HALTDALEN	S&Oslash;R-TR&Oslash;NDELAG	NO	7383		https://www.dnb.no		postal		62.9246816578252	11.1536161124883						
125441	Coop Marked &Aring;len	&Aring;LEN SENTER	&Aring;LEN	S&Oslash;R-TR&Oslash;NDELAG	NO	7380		https://www.dnb.no		postal		62.8418599576719	11.3022828910968						
125444	Coop Marked Brekken	MELLOMRIKSVEIEN 2	BREKKEBYGD	S&Oslash;R-TR&Oslash;NDELAG	NO	7370		https://www.dnb.no		postal		62.646136159228	11.8658878464388						
125445	Joker God&oslash;y	TEPPEMYRA 3	GOD&Oslash;YA	M&Oslash;RE OG ROMSDAL	NO	6055		https://www.dnb.no		postal		62.4757354886965	6.03856089984968						
125448	Spar Kyvannet	KYVANNSVEGEN 16 B	TRONDHEIM	S&Oslash;R-TR&Oslash;NDELAG	NO	7025		https://www.dnb.no		postal		63.404124851328	10.3356502382331						
125451	Coop Marked Stokk&oslash;y	STOKK&Oslash;YVEIEN 149	STOKK&Oslash;Y	S&Oslash;R-TR&Oslash;NDELAG	NO	7178		https://www.dnb.no		postal		64.0474506126294	10.0183659812013						
125453	Coop Prix K&aring;rv&aring;g	K&Aring;RV&Aring;GVEIEN 108	AVER&Oslash;Y	M&Oslash;RE OG ROMSDAL	NO	6532		https://www.dnb.no		postal		63.0148465852247	7.44813756512505						
125454	Coop Marked &Aring;lvundeid	EIDAVEGEN 33	&Aring;LVUNDEID	M&Oslash;RE OG ROMSDAL	NO	6620		https://www.dnb.no		postal		62.7596243921179	8.53933659061717						
125455	Bunnpris Rosenborg	WEIDEMANNS VEI 4 A	TRONDHEIM	S&Oslash;R-TR&Oslash;NDELAG	NO	7043		https://www.dnb.no		postal		63.4323530441261	10.4175499102064						
125456	Bunnpris Isfjorden	HEN	ISFJORDEN	M&Oslash;RE OG ROMSDAL	NO	6320		https://www.dnb.no		postal		62.5781229388721	7.79122600271531						
125457	Spar Aukra	NYJORDVEGEN 1	AUKRA	M&Oslash;RE OG ROMSDAL	NO	6480		https://www.dnb.no		postal		62.8137625964098	6.88365170505424						
125458	Coop Prix Farstad	FARSTADVEGEN 1756	FARSTAD	M&Oslash;RE OG ROMSDAL	NO	6444		https://www.dnb.no		postal		62.9738233587737	7.16256528286205						
125460	Bunnpris Rensvik	KVALV&Aring;GVEIEN 3	FREI	M&Oslash;RE OG ROMSDAL	NO	6521		https://www.dnb.no		postal		63.0976236724623	7.82120997524704						
125462	Coop Marked Batnfjords&oslash;ra	EKSERVEGEN 1	BATNFJORDS&Oslash;RA	M&Oslash;RE OG ROMSDAL	NO	6631		https://www.dnb.no		postal		62.8937274307632	7.67961390375826						
125463	Coop Marked Bj&oslash;rgen	BJ&Oslash;RGEN	SINGS&Aring;S	S&Oslash;R-TR&Oslash;NDELAG	NO	7387		https://www.dnb.no		postal		62.942324005637	10.6545161137543						
125466	Bunnpris Frei	SENTERVEIEN 3	FREI	M&Oslash;RE OG ROMSDAL	NO	6522		https://www.dnb.no		postal		63.0930030018986	7.84135753420804						
125469	N&aelig;rbutikken S&aelig;b&oslash;	&Oslash;YRAGATA 40	S&AElig;B&Oslash;	M&Oslash;RE OG ROMSDAL	NO	6165		https://www.dnb.no		postal		62.2094368207824	6.47606162687718						
125477	Coop Marked Eidsdal	YTTERDALSGATA 30	EIDSDAL	M&Oslash;RE OG ROMSDAL	NO	6215		https://www.dnb.no		postal		62.262357519018	7.17195005363211						
125478	Coop Marked Folkestad	DALSFJORDVEGEN 4235	FOLKESTAD	M&Oslash;RE OG ROMSDAL	NO	6120		https://www.dnb.no		postal		62.1186545178768	6.02837616913971						
125479	Coop Marked Gjerdsvik		GJERDSVIKA	M&Oslash;RE OG ROMSDAL	NO	6083		https://www.dnb.no		postal		62.2546677200017	5.56942652580443						
125480	Coop Marked Leikong	LEIKONG 4	GURSK&Oslash;Y	M&Oslash;RE OG ROMSDAL	NO	6080		https://www.dnb.no		postal		62.2472224203691	5.78205378159484						
125482	Coop Marked Kvams&oslash;y		KVAMS&Oslash;Y	M&Oslash;RE OG ROMSDAL	NO	6087		https://www.dnb.no		postal		62.217063170611	5.37740881702121						
125483	Coop Marked Lauvstad	VELSVIKVEGEN 5	LAUVSTAD	M&Oslash;RE OG ROMSDAL	NO	6133		https://www.dnb.no		postal		62.1641198488262	5.94331642658811						
125484	Coop Marked Moltu	NYGJERDEVEGEN 1	MOLTUSTRANDA	M&Oslash;RE OG ROMSDAL	NO	6076		https://www.dnb.no		postal		62.2940530032042	5.63369156741255						
125485	Coop Marked Rovde	H&Oslash;GVANG	ROVDE	M&Oslash;RE OG ROMSDAL	NO	6141		https://www.dnb.no		postal		62.1788837529356	5.75512163213788						
125486	Coop Marked Sands&oslash;y		SANDSHAMN	M&Oslash;RE OG ROMSDAL	NO	6089		https://www.dnb.no		postal		62.2534279253062	5.48453755463864						
125487	Coop Marked Syvde		SYVDE	M&Oslash;RE OG ROMSDAL	NO	6140		https://www.dnb.no		postal		62.0891951047071	5.73880411470254						
125488	Coop Marked Tj&oslash;rv&aring;g	TJ&Oslash;RV&Aring;GVEGEN 269	TJ&Oslash;RV&Aring;G	M&Oslash;RE OG ROMSDAL	NO	6070		https://www.dnb.no		postal		62.2889734307247	5.73431665659531						
125491	Coop Prix Vikebukt		VIKEBUKT	M&Oslash;RE OG ROMSDAL	NO	6392		https://www.dnb.no		postal		62.6143631855455	7.14693029413811						
125492	Coop Marked M&aring;ndalen		M&Aring;NDALEN	M&Oslash;RE OG ROMSDAL	NO	6386		https://www.dnb.no		postal		62.5339082366188	7.44297433014172						
125493	Coop Marked Harams&oslash;y	AUSTNES	HARAMS&Oslash;Y	M&Oslash;RE OG ROMSDAL	NO	6290		https://www.dnb.no		postal		62.6407290593669	6.26882350191026						
125494	Coop Prix V&aring;gland	GL&Aring;MSMYRVEGEN 11	V&Aring;GLAND	M&Oslash;RE OG ROMSDAL	NO	6683		https://www.dnb.no		postal		63.1196730365004	8.31743343103955						
125498	Coop Marked Hovin	KROGSTADVEGEN 6	HOVIN I GAULDAL	S&Oslash;R-TR&Oslash;NDELAG	NO	7236		https://www.dnb.no		postal		63.1052283733034	10.2251988215288						
125501	Bunnpris Sandstad		SANDSTAD	S&Oslash;R-TR&Oslash;NDELAG	NO	7246		https://www.dnb.no		postal		63.5369385081384	9.13873897507905						
125502	Spar Grong	MEDJ&Aring;VEGEN 29	GRONG	NORD-TR&Oslash;NDELAG	NO	7870		https://www.dnb.no		postal		64.4652379153567	12.3125349577431						
125504	Extra St&oslash;ren	STASJONSVEIEN 7	ST&Oslash;REN	S&Oslash;R-TR&Oslash;NDELAG	NO	7290		https://www.dnb.no		postal		63.0479816748213	10.2832378529117						
125505	Coop Marked H&oslash;ylandet	GAMMEL&Aring;VEGEN 1	H&Oslash;YLANDET	NORD-TR&Oslash;NDELAG	NO	7977		https://www.dnb.no		postal		64.6253770289254	12.2971351116306						
125507	Coop Marked Lys&oslash;ysundet	ROELBAKKEN 2 C	LYS&Oslash;YSUNDET	S&Oslash;R-TR&Oslash;NDELAG	NO	7168		https://www.dnb.no		postal		63.884732517468	9.87041227653631						
125509	Bunnpris Klett	KLETTVEGEN 9	LEINSTRAND	S&Oslash;R-TR&Oslash;NDELAG	NO	7083		https://www.dnb.no		postal		63.3251662705917	10.3071107246785						
125512	Coop Marked Terr&aring;k	S&AElig;TERSTUVEIEN 2	TERR&Aring;K	NORDLAND	NO	7980		https://www.dnb.no		postal		65.0890221447256	12.37564471155						
125514	Coop Marked Lundamo	LUNDAMOVEGEN 461	LUNDAMO	S&Oslash;R-TR&Oslash;NDELAG	NO	7232		https://www.dnb.no		postal		63.1521864437663	10.2824503723379						
125516	Extra Leuthenhaven	KONGENS GATE 27	TRONDHEIM	S&Oslash;R-TR&Oslash;NDELAG	NO	7012		https://www.dnb.no		postal		63.43007630367	10.3904095145701						
125517	Mebygda Snarkj&oslash;p	MEBYGDAVEIEN 205	S&Oslash;RLI	NORD-TR&Oslash;NDELAG	NO	7884		https://www.dnb.no		postal		64.224023807409	13.8334663991826						
125519	Extra Vikhammer	STASJONSVEGEN 1	VIKHAMMER	S&Oslash;R-TR&Oslash;NDELAG	NO	7560		https://www.dnb.no		postal		63.4378447192945	10.6255628305962						
125520	Coop Mega Nardo	HANS BAUCKS VEG 1	TRONDHEIM	S&Oslash;R-TR&Oslash;NDELAG	NO	7033		https://www.dnb.no		postal		63.4029143163099	10.4273912078939						
125521	Bilhjelp 1 Rissa	BADSTUVEIEN 2	RISSA	S&Oslash;R-TR&Oslash;NDELAG	NO	7100		https://www.dnb.no		postal		63.5844246418497	9.95854386331095						
125522	S&aelig;tervik Handel	HUSVIKVEIEN 10	S&AElig;TERVIK	S&Oslash;R-TR&Oslash;NDELAG	NO	7748		https://www.dnb.no		postal		64.3959356331871	10.4883870281752						
125526	Extra Melhus	JERNBANEVEGEN 11	MELHUS	S&Oslash;R-TR&Oslash;NDELAG	NO	7224		https://www.dnb.no		postal		63.2858365273551	10.2755008448429						
125528	Coop Marked Roan	STORFLOTTA	ROAN	S&Oslash;R-TR&Oslash;NDELAG	NO	7180		https://www.dnb.no		postal		64.1726853900801	10.2304497010886						
125531	Coop Marked Har&oslash;y	STEINSHAMN	HAR&Oslash;Y	M&Oslash;RE OG ROMSDAL	NO	6487		https://www.dnb.no		postal		62.781364025583	6.46997797512272						
125533	Extra Hals&oslash;y	ENDRE DALENGS VEG 4	MOSJ&Oslash;EN	NORDLAND	NO	8665		https://www.dnb.no		postal		65.8622074403819	13.1968078228241						
125534	Coop Prix Sj&oslash;holt	SJ&Oslash;HOLT SENTRUM	&Oslash;RSKOG	M&Oslash;RE OG ROMSDAL	NO	6240		https://www.dnb.no		postal		62.4828059065859	6.81262853009164						
125535	Best Fannrem	ORKDALSVEIEN 630	FANNREM	S&Oslash;R-TR&Oslash;NDELAG	NO	7320		https://www.dnb.no		postal		63.2659693789164	9.80402660409137						
125536	Joker Selva	SELVA	AGDENES	S&Oslash;R-TR&Oslash;NDELAG	NO	7318		https://www.dnb.no		postal		63.6152286088794	9.71242158135268						
125537	Joker Svorkmo	KLINGLIVEGEN 8	SVORKMO	S&Oslash;R-TR&Oslash;NDELAG	NO	7327		https://www.dnb.no		postal		63.1710750360634	9.73837543745826						
125538	Coop Marked Hellesylt	HELLESYLTVEGEN 47	HELLESYLT	M&Oslash;RE OG ROMSDAL	NO	6218		https://www.dnb.no		postal		62.0846820357268	6.86920818112637						
125541	Extra Frosta		FROSTA	NORD-TR&Oslash;NDELAG	NO	7633		https://www.dnb.no		postal		63.5880744508347	10.7404851668126						
125542	Coop Prix Berk&aring;k	BERK&Aring;K	RENNEBU	S&Oslash;R-TR&Oslash;NDELAG	NO	7391		https://www.dnb.no		postal		62.8288828738241	10.0114762074645						
125543	Coop Prix Leksvik	VINNASAND 15	LEKSVIK	NORD-TR&Oslash;NDELAG	NO	7120		https://www.dnb.no		postal		63.6732483364857	10.6258177236199						
125544	Coop Prix Opphaug	R&Oslash;STADVEIEN 1	OPPHAUG	S&Oslash;R-TR&Oslash;NDELAG	NO	7140		https://www.dnb.no		postal		63.7269795194218	9.68726517830012						
125545	Coop Marked Soknedal		SOKNEDAL	S&Oslash;R-TR&Oslash;NDELAG	NO	7288		https://www.dnb.no		postal		62.9510156916101	10.1895399400054						
125551	Extra Vatneeidet	VATNE-EIDET	VATNE	M&Oslash;RE OG ROMSDAL	NO	6265		https://www.dnb.no		postal		62.5451122024278	6.58967836087609						
125552	Coop Marked Stj&oslash;rna	R&Aring;KV&Aring;GVEIEN 2	HUSBYSJ&Oslash;EN	S&Oslash;R-TR&Oslash;NDELAG	NO	7113		https://www.dnb.no		postal		63.7522109280336	10.1314848317801						
125553	Coop Marked Meldal	KVAMSVEIEN 10	MELDAL	S&Oslash;R-TR&Oslash;NDELAG	NO	7336		https://www.dnb.no		postal		63.0465360853998	9.70891464630914						
125554	Coop Marked Sings&aring;s		SINGS&Aring;S	S&Oslash;R-TR&Oslash;NDELAG	NO	7387		https://www.dnb.no		postal		62.9575749911412	10.7237317248048						
125555	Coop Marked Stordal	SANDVIKGATA 3	STORDAL	M&Oslash;RE OG ROMSDAL	NO	6250		https://www.dnb.no		postal		62.3818808534599	6.98612042660205						
125556	Extra Skodje	&Aring;DALSBAKKEN 1	SKODJE	M&Oslash;RE OG ROMSDAL	NO	6260		https://www.dnb.no		postal		62.5059597152065	6.68091978588902						
125557	Coop Prix Eidsv&aring;g	EIDSV&Aring;GVEGEN 27	EIDSV&Aring;G I ROMSDAL	M&Oslash;RE OG ROMSDAL	NO	6460		https://www.dnb.no		postal		62.7768818357999	8.06602493213262						
125559	Coop Prix Stadsbygd	VALS&Aring;MYRA 4	STADSBYGD	S&Oslash;R-TR&Oslash;NDELAG	NO	7105		https://www.dnb.no		postal		63.5085877333636	10.0189984551273						
125560	Extra Nidarvoll	LEIRFOSSVEGEN 2	TRONDHEIM	S&Oslash;R-TR&Oslash;NDELAG	NO	7037		https://www.dnb.no		postal		63.3968878202534	10.4055119056255						
125561	Extra Bjugn	ALF NEBBS GATE 3	BJUGN	S&Oslash;R-TR&Oslash;NDELAG	NO	7160		https://www.dnb.no		postal		63.7646326490757	9.81070841204454						
125562	Extra Kyrks&aelig;ter&oslash;ra	INDUSTRIVEIEN 1	KYRKS&AElig;TER&Oslash;RA	S&Oslash;R-TR&Oslash;NDELAG	NO	7200		https://www.dnb.no		postal		63.2932578582638	9.0847990067215						
125570	Joker Sunndalsporten	FJELLGARDSVEGEN 2	GJ&Oslash;RA	M&Oslash;RE OG ROMSDAL	NO	6613		https://www.dnb.no		postal		62.5491918006184	9.11535382623357						
125571	Bunnpris Vals&oslash;yfjord	VALS&Oslash;YFJORDVEGEN 1418	VALS&Oslash;YFJORD	M&Oslash;RE OG ROMSDAL	NO	6687		https://www.dnb.no		postal		63.1238045015022	8.56061954590877						
125572	Coop Prix Lensvik	SELBEKKEN	LENSVIK	S&Oslash;R-TR&Oslash;NDELAG	NO	7316		https://www.dnb.no		postal		63.503910336235	9.82752627662382						
125574	Matkroken Lierne	SANDVIKAVEIEN 6	NORDLI	NORD-TR&Oslash;NDELAG	NO	7882		https://www.dnb.no		postal		64.4656196703444	13.5881893893133						
125577	Rema 1000 Bakklandet	NEDRE BAKKLANDET 56	TRONDHEIM	S&Oslash;R-TR&Oslash;NDELAG	NO	7014		https://www.dnb.no		postal		63.4313788306537	10.4068239640888						
125578	Coop Prix Mer&aring;ker	FOSSESTUPET	MER&Aring;KER	NORD-TR&Oslash;NDELAG	NO	7530		https://www.dnb.no		postal		63.4129395106182	11.7387348735828						
125580	Rema 1000 Stranda	FAGERVOLLVEGEN 17	STRANDA	M&Oslash;RE OG ROMSDAL	NO	6200		https://www.dnb.no		postal		62.3092304336399	6.94338262022344						
125581	Extra Moholt	VEGAMOT 4 A	TRONDHEIM	S&Oslash;R-TR&Oslash;NDELAG	NO	7049		https://www.dnb.no		postal		63.409354577776	10.4451611892031						
125582	Rema 1000 Tiller	IVAR LYKKES VEG 1	TILLER	S&Oslash;R-TR&Oslash;NDELAG	NO	7075		https://www.dnb.no		postal		63.359461164438	10.3757316203317						
125583	Spar Eidsnes	EIDSNES	EIDSNES	M&Oslash;RE OG ROMSDAL	NO	6037		https://www.dnb.no		postal		62.4275382479131	6.31620973013306						
125584	Bunnpris Moholt	BREGNEVEGEN 67	TRONDHEIM	S&Oslash;R-TR&Oslash;NDELAG	NO	7050		https://www.dnb.no		postal		63.4127929962885	10.4312119998506						
125585	Rema 1000 Stavset	ENROMVEGEN 2	TRONDHEIM	S&Oslash;R-TR&Oslash;NDELAG	NO	7026		https://www.dnb.no		postal		63.387261735587	10.3303736166877						
125586	Extra Risvollan	INGEBORG AAS' VEG 4	TRONDHEIM	S&Oslash;R-TR&Oslash;NDELAG	NO	7036		https://www.dnb.no		postal		63.3914785174184	10.4305378079357						
125588	Bunnpris Futura	INDUSTRIVEIEN 17	KRISTIANSUND N	M&Oslash;RE OG ROMSDAL	NO	6517		https://www.dnb.no		postal		63.1105313632638	7.78099472117119						
125590	Bunnpris Heimdal	S&Oslash;BSTADVEGEN 7	HEIMDAL	S&Oslash;R-TR&Oslash;NDELAG	NO	7088		https://www.dnb.no		postal		63.3534023846742	10.3567235197146						
125591	AS &Oslash;ivind Johansen Namsos	HAVNEGATA 5	NAMSOS	NORD-TR&Oslash;NDELAG	NO	7800		https://www.dnb.no		postal		64.4656206755871	11.492763508642						
125593	Matkroken Nordlandet	DALEGATA 50	KRISTIANSUND N	M&Oslash;RE OG ROMSDAL	NO	6516		https://www.dnb.no		postal		63.112567449071	7.75491870810392						
125595	Joker Kleive		KLEIVE	M&Oslash;RE OG ROMSDAL	NO	6453		https://www.dnb.no		postal		62.7947994632491	7.63367163656805						
125596	Matkroken Kj&oslash;rsvikbugen		KJ&Oslash;RSVIKBUGEN	M&Oslash;RE OG ROMSDAL	NO	6699		https://www.dnb.no		postal		63.4115205651898	8.72805978880993						
125598	Coop Mega Orkanger	ORKDALSVEIEN 113	ORKANGER	S&Oslash;R-TR&Oslash;NDELAG	NO	7300		https://www.dnb.no		postal		63.2974917811313	9.84446326587448						
125599	Bunnpris Gourmet Tyholt	LILLEBERGVEGEN 8	TRONDHEIM	S&Oslash;R-TR&Oslash;NDELAG	NO	7052		https://www.dnb.no		postal		63.4189167007296	10.4309377254715						
125601	Bunnpris Stortua	TROLLSVINGEN 32	KRISTIANSUND N	M&Oslash;RE OG ROMSDAL	NO	6511		https://www.dnb.no		postal		63.1209378986432	7.7402134232407						
125605	Rema 1000 S&oslash;rsia	FJORDGATA 2	STEINKJER	NORD-TR&Oslash;NDELAG	NO	7714		https://www.dnb.no		postal		64.0097458441299	11.4935787900853						
125606	Spar Midsund	LYNGJAVEGEN 6	MIDSUND	M&Oslash;RE OG ROMSDAL	NO	6475		https://www.dnb.no		postal		62.6738150687438	6.67617131446806						
125608	Rema 1000 Moa	LANGELANDSVEGEN 51	&Aring;LESUND	M&Oslash;RE OG ROMSDAL	NO	6010		https://www.dnb.no		postal		62.4659353800911	6.35701283678456						
125609	Coop Prix Selbu	GJELBAKKEN 9 A	SELBU	S&Oslash;R-TR&Oslash;NDELAG	NO	7580		https://www.dnb.no		postal		63.2189662871428	11.038865989465						
125610	Extra Hommelvik	MALVIKVEGEN 1335	HOMMELVIK	S&Oslash;R-TR&Oslash;NDELAG	NO	7550		https://www.dnb.no		postal		63.4111482394962	10.7955993870219						
125612	Bunnpris Verdal	JERNBANEGATA 9 B	VERDAL	NORD-TR&Oslash;NDELAG	NO	7650		https://www.dnb.no		postal		63.7910807859867	11.4861480207467						
125614	Kiwi Kremmergaarden	RASMUS R&Oslash;NNEBERGS GATE 6	&Aring;LESUND	M&Oslash;RE OG ROMSDAL	NO	6002		https://www.dnb.no		postal		62.4713738058639	6.15417908070069						
125615	Rema 1000 R&oslash;ros	FALUNVEIEN 9	R&Oslash;ROS	S&Oslash;R-TR&Oslash;NDELAG	NO	7374		https://www.dnb.no		postal		62.5745113584918	11.3969019286454						
125616	Bunnpris Hundhamaren	SJ&Oslash;LYSTVEGEN 12	SAKSVIK	S&Oslash;R-TR&Oslash;NDELAG	NO	7562		https://www.dnb.no		postal		63.4367133682021	10.5876280560468						
125617	Rema 1000 Aver&oslash;y	R&Oslash;SAND	AVER&Oslash;Y	M&Oslash;RE OG ROMSDAL	NO	6530		https://www.dnb.no		postal		63.0679918763476	7.64713501491974						
125621	Plantasjen Moum	KONG &Oslash;YSTEINS VEG 1	TRONDHEIM	S&Oslash;R-TR&Oslash;NDELAG	NO	7045		https://www.dnb.no		postal		63.4314179836695	10.4518504074584						
125623	Kiwi 137 Valentinlyst	ANDERS ESTENSTADS VEG 4	TRONDHEIM	S&Oslash;R-TR&Oslash;NDELAG	NO	7046		https://www.dnb.no		postal		63.4241257203358	10.4425512025218						
125626	Rema 1000 Langveien	LANGVEIEN 1	KRISTIANSUND N	M&Oslash;RE OG ROMSDAL	NO	6509		https://www.dnb.no		postal		63.1084142575931	7.72887992944432						
125627	Rema 1000 Sunndals&oslash;ra	SUNNDALSVEGEN 17	SUNNDALS&Oslash;RA	M&Oslash;RE OG ROMSDAL	NO	6600		https://www.dnb.no		postal		62.6725395213156	8.56755192453201						
125628	Rema 1000 Moan	MOAFJ&AElig;RA 16	LEVANGER	NORD-TR&Oslash;NDELAG	NO	7606		https://www.dnb.no		postal		63.733199742858	11.2835011442882						
125629	Valldal Bilsenter As	SYLTE	VALLDAL	M&Oslash;RE OG ROMSDAL	NO	6210		https://www.dnb.no		postal		62.2983269745432	7.2645218593871						
125630	Coop Mega Oppdal	AUNEVEGEN 3	OPPDAL	S&Oslash;R-TR&Oslash;NDELAG	NO	7340		https://www.dnb.no		postal		62.5947723753523	9.691000438184						
125631	Coop Mega Volda	HAMNEGATA 12	VOLDA	M&Oslash;RE OG ROMSDAL	NO	6100		https://www.dnb.no		postal		62.1432591123127	6.07068049294507						
125632	Bunnpris Broa	BROGATA 1	&Aring;LESUND	M&Oslash;RE OG ROMSDAL	NO	6005		https://www.dnb.no		postal		62.4696584487265	6.12567480607134						
125633	Coop Marked Fev&aring;g	FEV&Aring;GVEIEN 322	FEV&Aring;G	S&Oslash;R-TR&Oslash;NDELAG	NO	7110		https://www.dnb.no		postal		63.6780826237017	9.86072442849503						
125634	Coop Prix Sn&aring;sa	SENTRUM	SN&Aring;SA	NORD-TR&Oslash;NDELAG	NO	7760		https://www.dnb.no		postal		64.2464501617006	12.3840129834002						
125635	Extra Inder&oslash;y	SUNDF&AElig;RVEGEN 2	INDER&Oslash;Y	NORD-TR&Oslash;NDELAG	NO	7670		https://www.dnb.no		postal		63.8738281005402	11.2901620611018						
125636	Coop Marked Mosvik	NERVIKVEGEN 66	MOSVIK	NORD-TR&Oslash;NDELAG	NO	7690		https://www.dnb.no		postal		63.816152592807	11.0042397357518						
125637	Extra Skogn	&Aring;SVEGEN 10	SKOGN	NORD-TR&Oslash;NDELAG	NO	7620		https://www.dnb.no		postal		63.7052681964119	11.1926424472004						
125638	Coop Marked Vuku	BREDINGSBERG 4	VUKU	NORD-TR&Oslash;NDELAG	NO	7660		https://www.dnb.no		postal		63.7765175739083	11.7302161848581						
125639	Coop Prix &Oslash;rmelen	GAMLEVEGEN 1	VERDAL	NORD-TR&Oslash;NDELAG	NO	7653		https://www.dnb.no		postal		63.789656560245	11.469402354183						
125640	Coop Mega Levanger	H&Aring;KON DEN GODES GATE 10	LEVANGER	NORD-TR&Oslash;NDELAG	NO	7600		https://www.dnb.no		postal		63.7447340892545	11.297320572058						
125641	Bunnpris Langev&aring;g	FYLLINGVEGEN 9	LANGEV&Aring;G	M&Oslash;RE OG ROMSDAL	NO	6030		https://www.dnb.no		postal		62.4420950388856	6.19052075456093						
125642	Bunnpris Torghallen	NEDRE STRANDGATE 9	&Aring;LESUND	M&Oslash;RE OG ROMSDAL	NO	6004		https://www.dnb.no		postal		62.4703154083685	6.15006221980079						
125643	Bunnpris Fuglset	FR&AElig;NAVEGEN 107	MOLDE	M&Oslash;RE OG ROMSDAL	NO	6416		https://www.dnb.no		postal		62.7446763393636	7.19863825912971						
125644	Bunnpris Ikornnes	IKORNNES	IKORNNES	M&Oslash;RE OG ROMSDAL	NO	6222		https://www.dnb.no		postal		62.3862373301216	6.55586305567014						
125645	YX Bangsund	KLINGAVEGEN 1349	BANGSUND	NORD-TR&Oslash;NDELAG	NO	7822		https://www.dnb.no		postal		64.3885454154906	11.4004164398523						
125647	Extra Elnesv&aring;gen	DALELIA 23	ELNESV&Aring;GEN	M&Oslash;RE OG ROMSDAL	NO	6440		https://www.dnb.no		postal		62.8547745943734	7.17274961068998						
125648	Rema 1000 Brekstad	IDRETTSVEIEN 2	BREKSTAD	S&Oslash;R-TR&Oslash;NDELAG	NO	7130		https://www.dnb.no		postal		63.691968197367	9.66008357603964						
125649	Spar Stokke	R&Oslash;YSETHAUGEN 10	ELLINGS&Oslash;Y	M&Oslash;RE OG ROMSDAL	NO	6057		https://www.dnb.no		postal		62.5043108584208	6.39598716376407						
125650	Shell/7-Eleven S&oslash;rsida	KONGENS GATE 44	STEINKJER	NORD-TR&Oslash;NDELAG	NO	7713		https://www.dnb.no		postal		64.0123057768694	11.4991344382581						
125651	Coop Marked Frei	KONGSVEIEN 128	FREI	M&Oslash;RE OG ROMSDAL	NO	6524		https://www.dnb.no		postal		63.0379149576209	7.785790021141						
125652	Coop Marked Eresfjord	SIRAMOEN 29	ERESFJORD	M&Oslash;RE OG ROMSDAL	NO	6470		https://www.dnb.no		postal		62.6798755629303	8.1198451235849						
125654	Spar Hovdebygda	TORVMYRANE 5	HOVDEBYGDA	M&Oslash;RE OG ROMSDAL	NO	6160		https://www.dnb.no		postal		62.1827182871295	6.08413102841454						
125656	Joker R&oslash;yrvik	R&Oslash;YRVIKVEIEN 2	LIMINGEN	NORD-TR&Oslash;NDELAG	NO	7898		https://www.dnb.no		postal		64.8833967897136	13.5623200766737						
125657	Coop Mega R&oslash;rvik	STRANDGATA 13	R&Oslash;RVIK	NORD-TR&Oslash;NDELAG	NO	7900		https://www.dnb.no		postal		64.8609734767417	11.2381678223913						
125658	Bunnpris R&oslash;ra	HYLLAVEGEN 4 B	INDER&Oslash;Y	NORD-TR&Oslash;NDELAG	NO	7670		https://www.dnb.no		postal		63.8485883960358	11.4010131058235						
125659	Kiwi Hatlane	SMEDGARDEN 1	&Aring;LESUND	M&Oslash;RE OG ROMSDAL	NO	6016		https://www.dnb.no		postal		62.46036204236	6.26859470014646						
125660	Extra Stryn	SETREVEGEN 2	STRYN	SOGN OG FJORDANE	NO	6783		https://www.dnb.no		postal		61.9024992184044	6.71570441602802						
125661	Rema 1000 Fr&oslash;ya	S&Oslash;RVEIEN 17 B	SISTRANDA	S&Oslash;R-TR&Oslash;NDELAG	NO	7260		https://www.dnb.no		postal		63.7288912625143	8.82764184928265						
125662	Coop Marked Follafoss	FOLLAFOSSVEGEN 1120	FOLLAFOSS	NORD-TR&Oslash;NDELAG	NO	7796		https://www.dnb.no		postal		63.986268625205	11.1092774522218						
125663	Coop Prix Malm	MALMVEGEN 12	MALM	NORD-TR&Oslash;NDELAG	NO	7790		https://www.dnb.no		postal		64.0752122369821	11.2227551176951						
125664	Coop Marked Namdalseid	SENTRUM	NAMDALSEID	NORD-TR&Oslash;NDELAG	NO	7750		https://www.dnb.no		postal		64.2232636931028	11.2227157573123						
125665	Extra M&aelig;re	TUVBAKKEN 2	SPARBU	NORD-TR&Oslash;NDELAG	NO	7710		https://www.dnb.no		postal		63.937515526155	11.4224991045578						
125666	Coop Marked Osen	STEINSDALSVEIEN 29	STEINSDALEN	S&Oslash;R-TR&Oslash;NDELAG	NO	7740		https://www.dnb.no		postal		64.2962182955001	10.512110567473						
125667	Coop Marked Kvam	KVAMSKJERKVEGEN 20	STEINKJER	NORD-TR&Oslash;NDELAG	NO	7732		https://www.dnb.no		postal		64.1398372489448	11.7402113547923						
125668	Coop Prix Beitstad	NAMSOSVEGEN 946	BEITSTAD	NORD-TR&Oslash;NDELAG	NO	7730		https://www.dnb.no		postal		64.1080176990934	11.3918487543125						
125669	Extra Nordsileiret	INDUSTRIVEGEN 5	STEINKJER	NORD-TR&Oslash;NDELAG	NO	7725		https://www.dnb.no		postal		64.0214091507095	11.4891848387165						
125670	Extra Spillum	N&Oslash;STHAUGVEGEN 1	SPILLUM	NORD-TR&Oslash;NDELAG	NO	7820		https://www.dnb.no		postal		64.4570098885831	11.5319472754596						
125671	Coop Prix Namsos	NAMDALSVEGEN 13	NAMSOS	NORD-TR&Oslash;NDELAG	NO	7804		https://www.dnb.no		postal		64.4701168167872	11.5201475140633						
125672	Bunnpris Halsa	LANDVEGEN 4	HALSANAUSTAN	M&Oslash;RE OG ROMSDAL	NO	6680		https://www.dnb.no		postal		63.0688523968879	8.22758575161178						
125673	Extra Kolvereid	SENTRUMSGATA 2	KOLVEREID	NORD-TR&Oslash;NDELAG	NO	7970		https://www.dnb.no		postal		64.8644885939624	11.6050476143399						
125674	Rema 1000 Eide	EIDETORGET 21	EIDE	M&Oslash;RE OG ROMSDAL	NO	6490		https://www.dnb.no		postal		62.9164992796518	7.44689745438975						
125675	Coop Marked Vistdal	SJ&Oslash;VEGEN 3	VISTDAL	M&Oslash;RE OG ROMSDAL	NO	6364		https://www.dnb.no		postal		62.7202403712901	7.9345175229537						
125676	Joker Vikane	VIKEVEGEN 22	VIGRA	M&Oslash;RE OG ROMSDAL	NO	6040		https://www.dnb.no		postal		62.5582166096082	6.06985229539985						
125677	Rema 1000 Lade	&Oslash;STMARKVEIEN 2	TRONDHEIM	S&Oslash;R-TR&Oslash;NDELAG	NO	7040		https://www.dnb.no		postal		63.4474005471552	10.4449307095892						
126101	Joker Henningsv&aelig;r	DREYERS GATE 59	HENNINGSV&AElig;R	NORDLAND	NO	8312		https://www.dnb.no		postal		68.1533773006693	14.2017473978032						
126109	Joker Ris&oslash;yhamn		RIS&Oslash;YHAMN	NORDLAND	NO	8484		https://www.dnb.no		postal		68.9747586660642	15.6442644898141						
126110	Spar Skage	KJERKVEGEN 1	SKAGE I NAMDALEN	NORD-TR&Oslash;NDELAG	NO	7860		https://www.dnb.no		postal		64.4635388417804	11.7613460960878						
126111	Lur&oslash;y Handel	LUR&Oslash;YVEIEN 113	LUR&Oslash;Y	NORDLAND	NO	8766		https://www.dnb.no		postal		66.4186006404594	12.8422838623256						
126117	Tr&aelig;na Handel	JANESV&Aring;GEN 6	TR&AElig;NA	NORDLAND	NO	8770		https://www.dnb.no		postal		66.5011946687184	12.1014909840623						
126119	Bunnpris Ramsund	STRANDVEIEN 50 A	RAMSUND	NORDLAND	NO	9442		https://www.dnb.no		postal		68.4912340944875	16.5173486291309						
126122	Coop Marked Vik	SENTRUMSVEIEN 6	S&Oslash;MNA	NORDLAND	NO	8920		https://www.dnb.no		postal		65.312075309278	12.1667036214917						
126123	Coop Marked Berg	KLAKKJEVEIEN 5	S&Oslash;MNA	NORDLAND	NO	8920		https://www.dnb.no		postal		65.3698587277125	12.1974904483307						
126125	Coop Prix R&oslash;kland	R&Oslash;KLANDSENTERET	R&Oslash;KLAND	NORDLAND	NO	8255		https://www.dnb.no		postal		66.981046838599	15.3148301919294						
126126	Bunnpris V&aring;gaholmen	V&Aring;GA	V&Aring;GAHOLMEN	NORDLAND	NO	8185		https://www.dnb.no		postal		66.7104161258997	13.279125499449						
126129	Mix Kiosken	B&Oslash;VEIEN 508	B&Oslash; I VESTER&Aring;LEN	NORDLAND	NO	8470		https://www.dnb.no		postal		68.6188726900753	14.4546928333996						
126132	Coop Marked Storjord	STORJORD	MOLDJORD	NORDLAND	NO	8110		https://www.dnb.no		postal		66.9887553536147	14.7586106988376						
126135	Coop Prix V&aelig;r&oslash;y	S&Oslash;RLAND 54	V&AElig;R&Oslash;Y	NORDLAND	NO	8063		https://www.dnb.no		postal		67.6633279304028	12.6918085383756						
126137	Coop Prix L&oslash;dingen	R&Aring;DHUSVEGEN 23	L&Oslash;DINGEN	NORDLAND	NO	8410		https://www.dnb.no		postal		68.4108014913891	15.9919375292172						
126141	Coop Marked Bindalseidet	KALVIKVEIEN 25	BINDALSEIDET	NORDLAND	NO	7982		https://www.dnb.no		postal		65.1260916930699	12.2302595777593						
126146	Coop Marked Steigen	MYKLEBOSTAD 2	LEINESFJORD	NORDLAND	NO	8283		https://www.dnb.no		postal		67.7751413889447	15.0163230839639						
126147	Joker V&aring;g	SOLHEIM	ENGEL&Oslash;YA	NORDLAND	NO	8289		https://www.dnb.no		postal		67.9263674086678	15.0114694176747						
126151	Coop Prix Storforshei	MALMGATA 9 A	STORFORSHEI	NORDLAND	NO	8630		https://www.dnb.no		postal		66.4044605459788	14.5283913637002						
126153	Spar Drag		DRAG	NORDLAND	NO	8270		https://www.dnb.no		postal		68.0439462698417	16.0802248652176						
126156	Joker Tj&oslash;tta	NORDSJ&Oslash;VEIEN 2	TJ&Oslash;TTA	NORDLAND	NO	8860		https://www.dnb.no		postal		65.8224728652505	12.4277136119125						
126158	Coop Marked Grane	TROFORSVEGEN 16	TROFORS	NORDLAND	NO	8680		https://www.dnb.no		postal		65.5372465137108	13.3867872175943						
126159	Coop Marked Velfjord		VELFJORD	NORDLAND	NO	8960		https://www.dnb.no		postal		65.4075014922271	12.553257409876						
126160	Coop Marked Vevelstad	FORVIKVEIEN 130	VEVELSTAD	NORDLAND	NO	8976		https://www.dnb.no		postal		65.7017127752398	12.4422064324037						
126162	Joker S&oslash;rv&aring;gen		S&Oslash;RV&Aring;GEN	NORDLAND	NO	8392		https://www.dnb.no		postal		67.894140962967	13.0298066243851						
126164	Hemnes Bilservice	SJ&Oslash;GATA 2 A	HEMNESBERGET	NORDLAND	NO	8640		https://www.dnb.no		postal		66.223859271591	13.6025676846431						
126168	Spar Flatanger		FLATANGER	NORD-TR&Oslash;NDELAG	NO	7770		https://www.dnb.no		postal		64.4998405967863	10.8942876440029						
126170	YX Hell	SELBUVEGEN	HELL	NORD-TR&Oslash;NDELAG	NO	7517		https://www.dnb.no		postal		63.4450660888245	10.9111368471749						
126173	N&aelig;rbutikken J&oslash;a	SJ&Oslash;BAKKEN	J&Oslash;A	NORD-TR&Oslash;NDELAG	NO	7856		https://www.dnb.no		postal		64.6370351194242	11.3446179345571						
126177	Coop Prix Bjerka	NERG&Aring;RDSGATA 11	BJERKA	NORDLAND	NO	8643		https://www.dnb.no		postal		66.1495621839367	13.8333391363522						
126178	Joker Foldereid		FOLDEREID	NORD-TR&Oslash;NDELAG	NO	7985		https://www.dnb.no		postal		64.9625097390273	12.1774489460312						
126179	Joker Husby	HUSBY	LEKA	NORD-TR&Oslash;NDELAG	NO	7994		https://www.dnb.no		postal		65.0876412315965	11.7127706860523						
126184	Spar Overhalla	NAMSENGATA 1	OVERHALLA	NORD-TR&Oslash;NDELAG	NO	7863		https://www.dnb.no		postal		64.4941388665694	11.9489889226096						
126189	Coop Marked Namsskogan	R.C. HANSENS VEI 1	NAMSSKOGAN	NORD-TR&Oslash;NDELAG	NO	7890		https://www.dnb.no		postal		64.9292662817673	13.1591335622772						
126195	Skatval Landbrukslag	SKATVALSVEGEN 123	SKATVAL	NORD-TR&Oslash;NDELAG	NO	7510		https://www.dnb.no		postal		63.5088387354035	10.8289125014115						
126196	Spar Hegra	HEGRAMO	HEGRA	NORD-TR&Oslash;NDELAG	NO	7520		https://www.dnb.no		postal		63.4635000564923	11.1133832104193						
126197	Trones Handel	FURUVEIEN 4	TRONES	NORD-TR&Oslash;NDELAG	NO	7892		https://www.dnb.no		postal		64.7418288695008	12.8440748708336						
126202	Coop Marked Opl&oslash;fjorden	OPPL&Oslash;YG	SALSBRUKET	NORD-TR&Oslash;NDELAG	NO	7960		https://www.dnb.no		postal		64.799055160854	11.8459624923743						
126210	Extra Selfors	SELFORSVEIEN 50	MO I RANA	NORDLAND	NO	8613		https://www.dnb.no		postal		66.3261252695027	14.1773720773612						
126214	Bras&oslash;y Handelssamvirke	BRAS&Oslash;YVEIEN 90	BRAS&Oslash;Y	NORDLAND	NO	8842		https://www.dnb.no		postal		65.9112912833323	12.168682436839						
126221	Coop Prix &Aring;ga	NYGATA 41	MO I RANA	NORDLAND	NO	8618		https://www.dnb.no		postal		66.2884452131316	14.0740112982833						
126222	Bunnpris B&aring;smoen	NORD&Aring;SVEIEN 19	MO I RANA	NORDLAND	NO	8616		https://www.dnb.no		postal		66.3392778733443	14.116757663253						
127101	Skibotn Varesenter		SKIBOTN	TROMS	NO	9143		https://www.dnb.no		postal		69.3886803412034	20.273717143757						
127104	N&aelig;rbutikken Maze		MAZE	FINNMARK	NO	9525		https://www.dnb.no		postal		69.4436151337844	23.6676014261155						
127105	Extra Bossekop	BOSSEKOPVEIEN 1	ALTA	FINNMARK	NO	9513		https://www.dnb.no		postal		69.9607025667144	23.2340382043821						
127107	N&aelig;rbutikken Gamvik	GRUNDNES 1	GAMVIK	FINNMARK	NO	9775		https://www.dnb.no		postal		71.0616342290436	28.2480392783437						
127109	Knut Bye Kolonial	SKAGVEIEN 1	VARD&Oslash;	FINNMARK	NO	9950		https://www.dnb.no		postal		70.3741991920568	31.0997290813132						
127112	Mossakiosken	STRANDVEGEN 141	KJ&Oslash;LLEFJORD	FINNMARK	NO	9790		https://www.dnb.no		postal		70.9459432338458	27.3553424188667						
127113	Mix Johannes Nilsen Handleri	V&AElig;RVEIEN 59	MEHAMN	FINNMARK	NO	9770		https://www.dnb.no		postal		71.038834280701	27.8518316979717						
127116	Lind & S&oslash;nn		RUSSENES	FINNMARK	NO	9713		https://www.dnb.no		postal		70.4750711028811	25.0693425838671						
127130	Spar Ringvass&oslash;y		HANSNES	TROMS	NO	9130		https://www.dnb.no		postal		69.9604878369749	19.6099987162516						
127134	Eidet Handel	SKROLSVIKVEIEN 7	STONGLANDSEIDET	TROMS	NO	9392		https://www.dnb.no		postal		69.0851141973115	17.1770720129709						
127135	Extra Kroken	ANTON BORCHS VEG 5	KROKELVDALEN	TROMS	NO	9022		https://www.dnb.no		postal		69.684327846233	19.0719186336883						
127140	Extra Isrenna	STAKKEVOLLVEGEN 321	TROMS&Oslash;	TROMS	NO	9019		https://www.dnb.no		postal		69.6849941727834	19.003498883128						
127152	Spar Tennevoll	BAKKAN 1	TENNEVOLL	TROMS	NO	9357		https://www.dnb.no		postal		68.7479898358357	17.8078305618709						
127153	Coop Prix Burfjord	GÁRGU 2	BURFJORD	TROMS	NO	9161		https://www.dnb.no		postal		69.9390655398754	22.0508476019369						
127155	Matkroken Kvalfjord		KVALFJORD	FINNMARK	NO	9531		https://www.dnb.no		postal		70.3184354456683	22.871482473944						
127156	M&aring;s&oslash;y Super		M&Aring;S&Oslash;Y	FINNMARK	NO	9692		https://www.dnb.no		postal		71.0097323170293	25.0043171481271						
127161	Coop Marked Birtavarre	VERKSVEGEN 9	BIRTAVARRE	TROMS	NO	9147		https://www.dnb.no		postal		69.4955021951183	20.8314616572482						
127165	Veidnes Bygdehandel		VEIDNESKLUBBEN	FINNMARK	NO	9717		https://www.dnb.no		postal		70.6570251288271	26.5905376712283						
127168	Akkarfjord Forbrukarlag	AKKARFJORD 31	AKKARFJORD	FINNMARK	NO	9650		https://www.dnb.no		postal		70.7947794023988	23.4100654219298						
127169	C. Bucks Eftf.		BERGSFJORD	FINNMARK	NO	9580		https://www.dnb.no		postal		70.2521661427733	21.7864819652756						
127170	Gi&aelig;vers Landhandel	MOR LYNGS PLASS 2	HAVNNES	TROMS	NO	9159		https://www.dnb.no		postal		69.7875803781519	20.5678452033948						
127171	Joker Engenes	HAMNENESVEIEN 25	NORD-LENANGEN	TROMS	NO	9068		https://www.dnb.no		postal		69.9082611004541	20.161206916091						
127174	Varesenteret	SVENES	VANNAREID	TROMS	NO	9136		https://www.dnb.no		postal		70.1858121772211	19.628365642351						
127183	Thomassen		S&Oslash;R-TVERRFJORD	FINNMARK	NO	9584		https://www.dnb.no		postal		70.2184325172984	21.7139747126116						
127193	Matkroken Engenes	ENGENES	ENGENES	TROMS	NO	9455		https://www.dnb.no		postal		68.9256466986458	17.1221270442224						
127209	Coop Prix Nesna	IDRETTSVEGEN 13	NESNA	NORDLAND	NO	8700		https://www.dnb.no		postal		66.1997213051019	13.0231122617252						
127210	Coop Prix Rognan	JERNBANEGATA 12	ROGNAN	NORDLAND	NO	8250		https://www.dnb.no		postal		67.1020724600808	15.3935806055878						
127213	Coop Prix Karasjok	FITNODATGEAIDNU 1	KARASJOK	FINNMARK	NO	9730		https://www.dnb.no		postal		69.4721952719213	25.5128746274873						
127214	Coop Jernvarer Kautokeino	BREDBUKTNESVEIEN 2	KAUTOKEINO	FINNMARK	NO	9520		https://www.dnb.no		postal		69.0114592238766	23.0415375618688						
127217	Joker S&oslash;rkjosen	RINGVEGEN 45	S&Oslash;RKJOSEN	TROMS	NO	9152		https://www.dnb.no		postal		69.7926462696615	20.939114121957						
127220	Coop Marked Engav&aring;gen	ENGA 1	ENGAV&Aring;GEN	NORDLAND	NO	8170		https://www.dnb.no		postal		66.7798445846628	13.5344289602766						
127233	Coop Marked Hattfjelldal	OL JOHANS VEI 1	HATTFJELLDAL	NORDLAND	NO	8690		https://www.dnb.no		postal		65.5968866618434	13.9884004711984						
127244	Extra Ballangen	SENTRUMSVEIEN 57	BALLANGEN	NORDLAND	NO	8540		https://www.dnb.no		postal		68.3423048543713	16.8318726323739						
127245	Coop Marked Kj&oslash;psvik	F.L. SMITHS VEI 2	KJ&Oslash;PSVIK	NORDLAND	NO	8590		https://www.dnb.no		postal		68.0975054964018	16.3786601635243						
127246	Extra Ankenesstrand	TORGVEIEN 2	ANKENES	NORDLAND	NO	8520		https://www.dnb.no		postal		68.419854440322	17.386792089832						
127247	Coop Prix Bj&oslash;rnevatn	GRUBEVEIEN 4	BJ&Oslash;RNEVATN	FINNMARK	NO	9910		https://www.dnb.no		postal		69.6666933550009	29.9847752905199						
127253	Spar Borg	VIKINGVEIEN 436	B&Oslash;STAD	NORDLAND	NO	8360		https://www.dnb.no		postal		68.2376252760046	13.7461243138632						
127254	Matkroken Grovfjord	&Oslash;RA	GROVFJORD	TROMS	NO	9446		https://www.dnb.no		postal		68.6809940867965	17.1195632921374						
127268	Krambua Lars Nibe		ING&Oslash;Y	FINNMARK	NO	9672		https://www.dnb.no		postal		71.0838978281094	24.0572394702257						
127271	Joker S&oslash;rv&aelig;r	HAVNEVEIEN 9	S&Oslash;RV&AElig;R	FINNMARK	NO	9595		https://www.dnb.no		postal		70.6299416105029	21.9815922150626						
127272	Joker R&oslash;st	GLEAVEIEN 12	R&Oslash;ST	NORDLAND	NO	8064		https://www.dnb.no		postal		67.5057954323239	12.0673824532879						
127273	Spar Fauske	FINNEIDGATA 1	FAUSKE	NORDLAND	NO	8210		https://www.dnb.no		postal		67.2521716148374	15.4295008639914						
127283	Joker Hus&oslash;y	OSKARBAKKEN 2	HUS&Oslash;Y I SENJA	TROMS	NO	9389		https://www.dnb.no		postal		69.5442799811404	17.6605333415411						
127290	D&oslash;nna Byggsenter	KARLSHOLMVEIEN 15	D&Oslash;NNA	NORDLAND	NO	8820		https://www.dnb.no		postal		66.1088652046808	12.4874110373335						
127292	Bunnpris Bogen	BERGVIKVEIEN 9 A	BOGEN I OFOTEN	NORDLAND	NO	8533		https://www.dnb.no		postal		68.5238356332519	17.0087726498006						
127297	Extra Borkenes	BYGDEVEGEN 39	BORKENES	TROMS	NO	9475		https://www.dnb.no		postal		68.7730642962574	16.1712165742846						
127301	Bug&oslash;ynes Bistro	GUNNARIVEIEN 1	BUG&Oslash;YNES	FINNMARK	NO	9935		https://www.dnb.no		postal		69.9731656616692	29.6431412280498						
127304	Coop Marked Leines	HELNESSUND	LEINES	NORDLAND	NO	8285		https://www.dnb.no		postal		67.7316694940803	14.7725143105705						
127305	Coop Marked Olderdalen	OLDERDALSVEGEN 39	OLDERDALEN	TROMS	NO	9146		https://www.dnb.no		postal		69.6037437676905	20.532920945032						
127307	Tor A.Swensen Eftf.	NERVEIEN 1	BOLGA	NORDLAND	NO	8158		https://www.dnb.no		postal		66.8049153792497	13.2351149915932						
127310	Joker Stamsund	J.M.JOHANSENS VEI 149	STAMSUND	NORDLAND	NO	8340		https://www.dnb.no		postal		68.1303465438548	13.8488602942302						
127312	Coop Prix L&oslash;psmarka	L&Oslash;PSMARKA	BOD&Oslash;	NORDLAND	NO	8015		https://www.dnb.no		postal		67.3131972289583	14.4499351521442						
127315	Coop Prix Leirfjord	LEIRFJORDVEIEN 220	LEIRFJORD	NORDLAND	NO	8890		https://www.dnb.no		postal		66.0657668589254	12.9352489429851						
127316	Extra Nordkjosbotn	SENTRUMSVEIEN 22	NORDKJOSBOTN	TROMS	NO	9040		https://www.dnb.no		postal		69.2181185283764	19.5570743152462						
127317	Extra Evenskjer	SK&Aring;NLANDSVEIEN 77	EVENSKJER	TROMS	NO	9440		https://www.dnb.no		postal		68.5836831348808	16.5718434413385						
127319	Joker Skaland	BERGSFJORDVEIEN 1784	SKALAND	TROMS	NO	9385		https://www.dnb.no		postal		69.4445016420704	17.2979006133244						
127322	Rema 1000 Myre	STORGATA 30	MYRE	NORDLAND	NO	8430		https://www.dnb.no		postal		68.9146101024912	15.0814708830917						
127327	Coop Prix Tana	RINGVEIEN 3	TANA	FINNMARK	NO	9845		https://www.dnb.no		postal		70.1985933394555	28.1866850726202						
127328	Coop Marked Misv&aelig;r	KULTURVEIEN 3594	MISV&AElig;R	NORDLAND	NO	8100		https://www.dnb.no		postal		67.115994917662	15.005761085876						
127332	Kunes Opplevelse og Handel	LAKSEFJORDVEIEN 10	KUNES	FINNMARK	NO	9742		https://www.dnb.no		postal		70.3462783912273	26.5042139310448						
127334	Coop Prix Andenes	STORGATA 69	ANDENES	NORDLAND	NO	8480		https://www.dnb.no		postal		69.3144684913463	16.1197758619627						
127335	Extra Gruben	MYRA 4	MO I RANA	NORDLAND	NO	8610		https://www.dnb.no		postal		66.3210036874852	14.1930487295623						
127336	Rema 1000 &Oslash;rnes	GAMMELVEIEN 19	&Oslash;RNES	NORDLAND	NO	8150		https://www.dnb.no		postal		66.8737577801381	13.7071556886551						
127339	Coop Prix Stokmarknes	MARKEDSGATA 3	STOKMARKNES	NORDLAND	NO	8450		https://www.dnb.no		postal		68.5684843181891	14.9119112518699						
127342	Varangerbotn Servicenter	ANTHIS VEI 5	VARANGERBOTN	FINNMARK	NO	9840		https://www.dnb.no		postal		70.1730800188359	28.555354377897						
127344	Extra Lyngseidet	PARKVEIEN 32	LYNGSEIDET	TROMS	NO	9060		https://www.dnb.no		postal		69.5747443673388	20.2069532588667						
127346	Coop Marked Inndyr	INNDYRVEIEN 82	INNDYR	NORDLAND	NO	8140		https://www.dnb.no		postal		67.0357739352323	14.0274226890098						
127348	Extra Storsteinnes	R&Aring;DHUSGATA 9	STORSTEINNES	TROMS	NO	9050		https://www.dnb.no		postal		69.2397071851794	19.2270359748411						
127350	Coop Prix Saltstraumen	STRAUM&Oslash;YVEIEN 5	SALTSTRAUMEN	NORDLAND	NO	8056		https://www.dnb.no		postal		67.2284112884038	14.6026417336415						
127351	Coop Prix Valnesfjord	STR&Oslash;MSNES	VALNESFJORD	NORDLAND	NO	8215		https://www.dnb.no		postal		67.3000569354422	15.1841196824217						
127352	Coop Prix Melbu	CHR. FREDERIKSENS GATE 1	MELBU	NORDLAND	NO	8445		https://www.dnb.no		postal		68.4992378739416	14.7988871832314						
127354	Extra Skjerv&oslash;y	STRANDVEIEN 88	SKJERV&Oslash;Y	TROMS	NO	9180		https://www.dnb.no		postal		70.0307962250599	20.970967305036						
127356	Coop Prix Tverlandet	HAGEBYEN 2	TVERLANDET	NORDLAND	NO	8050		https://www.dnb.no		postal		67.2995859261106	14.7409739985198						
127358	Coop Prix Straumen	SENTRUM 2	STRAUMEN	NORDLAND	NO	8226		https://www.dnb.no		postal		67.346495271324	15.5930128147396						
127359	Joker Bergseng	BERGSENGVEIEN 27	HARSTAD	TROMS	NO	9403		https://www.dnb.no		postal		68.8115127195774	16.5074495809633						
127360	Joker Lovund	LUNDVOLLVEIEN 2	LOVUND	NORDLAND	NO	8764		https://www.dnb.no		postal		66.369117813482	12.3633521622937						
127361	Extra Bardufoss	ANDSELV	BARDUFOSS	TROMS	NO	9325		https://www.dnb.no		postal		69.0645740149319	18.5115659131581						
127362	Coop Prix Br&oslash;stadbotn	TVERRVEIEN 7	BR&Oslash;STADBOTN	TROMS	NO	9311		https://www.dnb.no		postal		69.0912027069571	17.6979843499776						
127364	Coop Prix Olsborg	OLSBORG	MOEN	TROMS	NO	9321		https://www.dnb.no		postal		69.1444994585762	18.5933870028382						
127365	Extra Silsand	FERGEVEIEN 3	SILSAND	TROMS	NO	9303		https://www.dnb.no		postal		69.2426312929019	17.9491179368378						
127366	Coop Prix Her&oslash;y	HER&Oslash;YHOLMVEIEN 26	HER&Oslash;Y	NORDLAND	NO	8850		https://www.dnb.no		postal		65.9803810389905	12.2819667743343						
127367	Coop Prix Reine		REINE	NORDLAND	NO	8390		https://www.dnb.no		postal		67.938793796459	13.0838755997115						
127368	Extra Kabelv&aring;g	TORGGATA 22	KABELV&Aring;G	NORDLAND	NO	8310		https://www.dnb.no		postal		68.2100574614809	14.4768632461818						
127369	Coop Marked Skrova	V&AElig;RET 2	SKROVA	NORDLAND	NO	8320		https://www.dnb.no		postal		68.1591742595555	14.6637785806981						
127370	Coop Prix Korgen	MEIERIVEIEN 1	KORGEN	NORDLAND	NO	8646		https://www.dnb.no		postal		66.0804152763215	13.8246405280554						
127371	Coop Marked Vega	&Aring;SVEIEN 2	VEGA	NORDLAND	NO	8980		https://www.dnb.no		postal		65.6763069601701	11.9598785171281						
127373	Matkroken Berlev&aring;g	STORGATA 7	BERLEV&Aring;G	FINNMARK	NO	9980		https://www.dnb.no		postal		70.8570314774634	29.0863133680052						
127375	Coop Marked Sulitjelma	CHARLOTTA 54	SULITJELMA	NORDLAND	NO	8230		https://www.dnb.no		postal		67.1349117871379	16.0619260126917						
127376	Coop Prix Honningsv&aring;g	STORGATA 18	HONNINGSV&Aring;G	FINNMARK	NO	9750		https://www.dnb.no		postal		70.9805690094714	25.9777559891767						
127377	Coop Marked Kvalsund	R&Aring;DHUSVEGEN 4 B	KVALSUND	FINNMARK	NO	9620		https://www.dnb.no		postal		70.5018850450897	23.9806817500399						
127378	Coop Prix Glomfjord	LARS EVENSENS VEI 1	GLOMFJORD	NORDLAND	NO	8160		https://www.dnb.no		postal		66.8169620988717	13.9436878902859						
127380	Joker Vannv&aring;g		VANNV&Aring;G	TROMS	NO	9135		https://www.dnb.no		postal		70.0720192365488	19.9974112037851						
127381	Joker Breivikbotn	STRANDGATA 21	BREIVIKBOTN	FINNMARK	NO	9593		https://www.dnb.no		postal		70.5892825106861	22.2827335607688						
127384	Joker Gibostad	GISUNDVEIEN 21	GIBOSTAD	TROMS	NO	9372		https://www.dnb.no		postal		69.3533752121464	18.0779005958257						
127390	Coop Prix B&aring;tsfjord	HAVNEGATA 2	B&Aring;TSFJORD	FINNMARK	NO	9990		https://www.dnb.no		postal		70.637387041799	29.7268443860496						
127391	Extra Finnsnes	TORGGATA 2	FINNSNES	TROMS	NO	9300		https://www.dnb.no		postal		69.2301659329645	17.9776515890735						
127393	Extra Fauske	TERMINALVEIEN 5	FAUSKE	NORDLAND	NO	8208		https://www.dnb.no		postal		67.2678999773035	15.3968052866657						
127394	Coop Marked Nyg&aring;rdsj&oslash;en	NYG&Aring;RDVEIEN 134	NYG&Aring;RDSJ&Oslash;EN	NORDLAND	NO	8120		https://www.dnb.no		postal		67.111002103011	14.3048836242691						
127397	Rema 1000 Innhavet		INNHAVET	NORDLAND	NO	8260		https://www.dnb.no		postal		67.9629544259339	15.928414360691						
127399	Coop Prix Salhus	SALHUS	BR&Oslash;NN&Oslash;YSUND	NORDLAND	NO	8907		https://www.dnb.no		postal		65.4903346065899	12.2376091012748						
127400	Bunnpris Br&oslash;nn&oslash;ysund	STORGATA 30	BR&Oslash;NN&Oslash;YSUND	NORDLAND	NO	8900		https://www.dnb.no		postal		65.4703912430494	12.2057557300334						
127401	Bunnpris Mosj&oslash;en	SM&Aring;GAN 2	MOSJ&Oslash;EN	NORDLAND	NO	8656		https://www.dnb.no		postal		65.8398707641146	13.1908391862497						
127403	Mix Senjahopen kiosk AS	MEFJORDVEIEN 1537	SENJAHOPEN	TROMS	NO	9386		https://www.dnb.no		postal		69.4967990264859	17.490608862684						
127406	Extra Leknes	STORGATA 8	LEKNES	NORDLAND	NO	8370		https://www.dnb.no		postal		68.1487323491808	13.6172815614085						
127411	Bunnpris Mo	OLE TOBIAS OLSENS GATE 1	MO I RANA	NORDLAND	NO	8622		https://www.dnb.no		postal		66.3061564448693	14.1348476203471						
127413	&Oslash;verbygd Bensin AS	TAKVASSVEIEN 8	&Oslash;VERBYGD	TROMS	NO	9334		https://www.dnb.no		postal		69.025075624393	19.2966564499438						
127414	Kiwi 163 Elvebakken	ALTAVEIEN 252 B	ALTA	FINNMARK	NO	9515		https://www.dnb.no		postal		69.9737202268755	23.361433673146						
127415	Extra Bryggen	STRANDGATA 58 B	HAMMERFEST	FINNMARK	NO	9600		https://www.dnb.no		postal		70.6663698321549	23.6931330277817						
127417	Matkroken Gryllefjord		GRYLLEFJORD	TROMS	NO	9380		https://www.dnb.no		postal		69.363018509289	17.0537012357913						
127418	Matkroken Sommar&oslash;y	HAMNEVEGEN 16	SOMMAR&Oslash;Y	TROMS	NO	9110		https://www.dnb.no		postal		69.634239459996	18.0047692434034						
127419	Joker Kvina	TONNESVEIEN 30	KONSVIKOSEN	NORDLAND	NO	8752		https://www.dnb.no		postal		66.4668290901526	13.1681125257457						
127421	Kiwi Svolv&aelig;r Sentrum	SIVERT NILSENS GATE 31	SVOLV&AElig;R	NORDLAND	NO	8300		https://www.dnb.no		postal		68.2334060464897	14.5610037979246						
127422	Extra Bolaget	BOLAGSGATA 20	NARVIK	NORDLAND	NO	8514		https://www.dnb.no		postal		68.4355799822616	17.4123076545942						
127424	Extra Bardu	GAMMELVEIEN 8	BARDU	TROMS	NO	9360		https://www.dnb.no		postal		68.8615069143051	18.3455876731809						
127425	Rema 1000 K1	KARLS&Oslash;YVEGEN 1 A	TROMS&Oslash;	TROMS	NO	9015		https://www.dnb.no		postal		69.6733132894018	18.9220126886065						
127426	Coop Marked &Oslash;ksfjord	STRANDVEIEN 12	&Oslash;KSFJORD	FINNMARK	NO	9550		https://www.dnb.no		postal		70.2405842259982	22.3495768123123						
127427	Joker Ballstad	FRYSERIVEIEN 1	BALLSTAD	NORDLAND	NO	8373		https://www.dnb.no		postal		68.0711918079786	13.5387204530238						
127428	Joker Hamnvik	BYGDAVEIEN 26	HAMNVIK	TROMS	NO	9450		https://www.dnb.no		postal		68.7783901596852	17.1732430424333						
127430	Rolvs&oslash;y dagligvare AS	GUNNARNES	TUFJORD	FINNMARK	NO	9670		https://www.dnb.no		postal		70.9981957886555	24.1167799583115						
127431	Coop Prix Hav&oslash;ysund	TORGET 2	HAV&Oslash;YSUND	FINNMARK	NO	9690		https://www.dnb.no		postal		70.9964846413236	24.6602358448643						
127432	Bunnpris Stormyra	GAMLE RIKSVEI 21	BOD&Oslash;	NORDLAND	NO	8008		https://www.dnb.no		postal		67.2807647849726	14.4156413893549						
127433	Rema 1000 Tromsdalen	SOLSTRANDVEGEN 47	TROMSDALEN	TROMS	NO	9020		https://www.dnb.no		postal		69.6403369462332	18.9721703461624						
127434	Bunnpris Rypefjord	MELLOMVEIEN 25	RYPEFJORD	FINNMARK	NO	9610		https://www.dnb.no		postal		70.6447404161054	23.6760048821089						
127435	Rema 1000 Kirkenes	SMIEVEIEN 2	KIRKENES	FINNMARK	NO	9900		https://www.dnb.no		postal		69.7263261679381	30.06558142688						
127436	Extra Bod&oslash;sj&oslash;en	GARNVEIEN 2	BOD&Oslash;	NORDLAND	NO	8013		https://www.dnb.no		postal		67.2716462449474	14.4499125062425						
127437	Joker R&oslash;nvik	SMED QVALES VEI 9	BOD&Oslash;	NORDLAND	NO	8012		https://www.dnb.no		postal		67.2984769442608	14.4046447586555						
127438	Extra Breivika	STAKKEVOLLVEGEN 63	TROMS&Oslash;	TROMS	NO	9010		https://www.dnb.no		postal		69.673429106094	18.9767397524661						
127439	Extra Hamna	HAMNENESET 1	TROMS&Oslash;	TROMS	NO	9017		https://www.dnb.no		postal		69.6967796407477	18.9524077693596						
127441	Bunnpris & Gourmet Sortland	STRANDGATA 26	SORTLAND	NORDLAND	NO	8400		https://www.dnb.no		postal		68.6939508230078	15.4161834054603						
127442	Spar Finnbekken	FRYDENLUNDGATA 44	NARVIK	NORDLAND	NO	8517		https://www.dnb.no		postal		68.4417561196932	17.4301936007904						
127443	Coop Prix Storslett	SENTRUM 22	STORSLETT	TROMS	NO	9151		https://www.dnb.no		postal		69.7692234625849	21.0244074318446						
127444	Jernia Hesseng	E. K. ANDERSONS VEI 4	HESSENG	FINNMARK	NO	9912		https://www.dnb.no		postal		69.6883782369717	29.992278990024						
127446	Hasvik hotel	STORGATA 18	HASVIK	FINNMARK	NO	9590		https://www.dnb.no		postal		70.4868019632746	22.1575360011759						
127447	Spar Gratangen	NORDSIVEIEN 86	GRATANGEN	TROMS	NO	9470		https://www.dnb.no		postal		68.6921413348915	17.530333482215						
127448	Extra St&oslash;ver	ST&Oslash;VERVEIEN 2	BOD&Oslash;	NORDLAND	NO	8030		https://www.dnb.no		postal		67.2890225984276	14.5986212115605						
127449	Rema 1000 Nyrud	NYRUDVEGEN 1	MOSJ&Oslash;EN	NORDLAND	NO	8657		https://www.dnb.no		postal		65.8339455350096	13.2120807081341						
127450	Extra Lyng&aring;sen	NOVIKVEIEN 111	SANDNESSJ&Oslash;EN	NORDLAND	NO	8802		https://www.dnb.no		postal		66.0085979022841	12.5810511470803						
127451	Coop Mega Fauske	SJ&Oslash;GATA 62	FAUSKE	NORDLAND	NO	8200		https://www.dnb.no		postal		67.2580192269253	15.3913106095763						
127452	Lekebingen AS	HELSETUNVEIEN 3	LAKSELV	FINNMARK	NO	9700		https://www.dnb.no		postal		70.0517673132745	24.9588155254956						
127453	Extra S&oslash;rreisa	NORDSIVEIEN 17	S&Oslash;RREISA	TROMS	NO	9310		https://www.dnb.no		postal		69.1448700398778	18.1535975090664						
127454	Coop Prix Straume	VEAVEIEN 7	STRAUMSJ&Oslash;EN	NORDLAND	NO	8475		https://www.dnb.no		postal		68.6883712971699	14.4740305424853						
127455	Rema 1000 Sandnessj&oslash;en	NESSET	SANDNESSJ&Oslash;EN	NORDLAND	NO	8800		https://www.dnb.no		postal		66.0229930466961	12.6421753801402						
127456	Spar Halsa	FUR&Oslash;YVEIEN 6	HALSA	NORDLAND	NO	8178		https://www.dnb.no		postal		66.7433600228989	13.5517628906697						
127457	Extra Sj&oslash;vegan	KONGSVEIEN 80	SJ&Oslash;VEGAN	TROMS	NO	9350		https://www.dnb.no		postal		68.8767681737743	17.8314992300534						
127458	Rema 1000 Vads&oslash;	STRANDGATA 18	VADS&Oslash;	FINNMARK	NO	9800		https://www.dnb.no		postal		70.0720027536819	29.7531519615275						
127459	Plantasjen Harstad	KILAMYRA 8	HARSTAD	TROMS	NO	9415		https://www.dnb.no		postal		68.7394662352639	16.5611612865825						
127460	Coop Marked Manndalen	SENTRUMSVEGEN 4	SAMUELSBERG	TROMS	NO	9144		https://www.dnb.no		postal		69.5414494240984	20.5476527071059						
127461	Joker Jektvik		JEKTVIK	NORDLAND	NO	8187		https://www.dnb.no		postal		66.6264869317548	13.2923668481793						
127462	Joker S&oslash;rarn&oslash;y	HEST&Oslash;YSUNDET 2	S&Oslash;RARN&Oslash;Y	NORDLAND	NO	8135		https://www.dnb.no		postal		67.1342649457914	13.9708538800444						
127463	Rema 1000 Bjerkvik	NORDMOVEIEN 9	BJERKVIK	NORDLAND	NO	8530		https://www.dnb.no		postal		68.550644039892	17.5573623762524						
127464	Bunnpris Gravdal	GRAVDALSGATA 22	GRAVDAL	NORDLAND	NO	8372		https://www.dnb.no		postal		68.1200026500148	13.5476488122612						
127466	Rema 1000 Hammerfest	VERKSTEDVEIEN 33	HAMMERFEST	FINNMARK	NO	9602		https://www.dnb.no		postal		70.6778220756606	23.6725198450078						
127467	Bunnpris Ramberg	FLAKSTADVEIEN 457	RAMBERG	NORDLAND	NO	8380		https://www.dnb.no		postal		68.0890846439406	13.2281374700141						
127468	Extra Storelva	STORELVBAKKEN 5	KVAL&Oslash;YA	TROMS	NO	9104		https://www.dnb.no		postal		69.683938277916	18.7987521167686						
140113	Lysaker bedriftssenter	LYSAKER TORG 10	LYSAKER	AKERSHUS	NO	1366		https://www.dnb.no		postal		59.9117704872396	10.6364156759378						
140116	Sk&oslash;yen bedriftssenter	KARENSLYST ALL&Eacute; 7	OSLO	OSLO	NO	0278		https://www.dnb.no		postal		59.9199125191287	10.6856381612855						
140117	Forus bedriftssenter	SVANHOLMEN 4	STAVANGER	ROGALAND	NO	4033		https://www.dnb.no		postal		58.8934086490852	5.7089348005802						
140121	Sandefjord Bedriftssenter	HINDERVEIEN 2	SANDEFJORD	VESTFOLD	NO	3223		https://www.dnb.no		postal		59.1349609470538	10.1787302438021						
140122	Troms&oslash; bedriftssenter	KVAL&Oslash;YVEGEN 329	TROMS&Oslash;	TROMS	NO	9016		https://www.dnb.no		postal		69.6690232248202	18.9206253167477						
140124	Drammen bedriftssenter	INGVALD LUDVIGSENS G. 21	DRAMMEN	BUSKERUD	NO	3027		https://www.dnb.no		postal		59.7530966219856	10.126048604625						
140126	Grenland bedriftssenter	BEDRIFTSVEGEN 27	SKIEN	TELEMARK	NO	3735		https://www.dnb.no		postal		59.1807011011877	9.61022343511709						
140212	Oslo Sentrum bedriftssenter	TOLLBUGATA 17	OSLO	OSLO	NO	0152		https://www.dnb.no		postal		59.9106692990051	10.7442075032014						
140213	Alnabru bedriftssenter	PERSVEIEN 34	OSLO	OSLO	NO	0581		https://www.dnb.no		postal		59.924701870208	10.8261095840058						
140216	Majorstuen bedriftssenter	ROSENBORGGATA 19	OSLO	OSLO	NO	0356		https://www.dnb.no		postal		59.9271903140288	10.7270942818956						
171102	Vika postkontor	KLINGENBERGGATA 7 B	OSLO	OSLO	NO	0161		https://www.dnb.no		postal		59.9136146655815	10.7313132632679						
171103	Elisenberg postkontor	BALCHENS GATE 7	OSLO	OSLO	NO	0265		https://www.dnb.no		postal		59.9183604271005	10.7074745762635						
171107	Gr&oslash;nland postkontor	OLAFIAGANGEN 5	OSLO	OSLO	NO	0188		https://www.dnb.no		postal		59.9128671459995	10.7590919394655						
171116	St. Olavs plass postkontor	UNIVERSITETSGATA 2	OSLO	OSLO	NO	0164		https://www.dnb.no		postal		59.9177244984085	10.7404910852851						
172210	Etterstad postkontor	KAROL. KRISTIANSENS V. 2	OSLO	OSLO	NO	0661		https://www.dnb.no		postal		59.9138381652536	10.7972151994211						
173115	Grünerl&oslash;kka postkontor	MARKVEIEN 35 B	OSLO	OSLO	NO	0554		https://www.dnb.no		postal		59.9217255633106	10.7571895808732						
173117	Rodel&oslash;kka postkontor	D&AElig;LENENGGATA 3	OSLO	OSLO	NO	0567		https://www.dnb.no		postal		59.9256729531741	10.7745256816831						
174113	Nydalen postkontor	KRISTOFFER AAMOTS GATE 5	OSLO	OSLO	NO	0484		https://www.dnb.no		postal		59.9470877231106	10.7691073941075						
174210	Majorstuen postkontor	KIRKEVEIEN 61	OSLO	OSLO	NO	0364		https://www.dnb.no		postal		59.929393801924	10.7174229044982						
175101	Asker postkontor	HAGAL&Oslash;KKVEIEN 4 A	ASKER	AKERSHUS	NO	1383		https://www.dnb.no		postal		59.8332408657979	10.4321833386459						
175210	Sandvika postkontor	L&Oslash;KKETANGEN 10 B	SANDVIKA	AKERSHUS	NO	1337		https://www.dnb.no		postal		59.892088102834	10.5211521955076						
176210	Ski postkontor	&Aring;SENVEIEN 3	SKI	AKERSHUS	NO	1400		https://www.dnb.no		postal		59.7180808618729	10.837977584435						
208112	Gj&oslash;vik postkontor	KAUFFELDTS PLASS 3	GJ&Oslash;VIK	OPPLAND	NO	2815		https://www.dnb.no		postal		60.7956678197399	10.6928308378306						
210129	Hamar postkontor	GR&Oslash;NNEGATA 52	HAMAR	HEDMARK	NO	2317		https://www.dnb.no		postal		60.7942241180112	11.0742130649706						
221133	H&oslash;yden postkontor	VARNAVEIEN 35	MOSS	&Oslash;STFOLD	NO	1526		https://www.dnb.no		postal		59.4163842632992	10.6750734763363						
301107	Str&oslash;ms&oslash; postkontor	TOLLBUGATA 13	DRAMMEN	BUSKERUD	NO	3044		https://www.dnb.no		postal		59.7387730060644	10.2050121197503						
318113	Skien Sentrum postkontor	LIEGATA 10	SKIEN	TELEMARK	NO	3717		https://www.dnb.no		postal		59.2103696759232	9.60497324318601						
321113	T&oslash;nsberg postkontor	SLAGENVEIEN 16	T&Oslash;NSBERG	VESTFOLD	NO	3110		https://www.dnb.no		postal		59.2688048384262	10.4142345390145						
401105	Arendal postkontor	KIRKEGATEN 2 A	ARENDAL	AUST-AGDER	NO	4836		https://www.dnb.no		postal		58.4591553537135	8.76647017070889						
407122	Kristiansand postkontor	GYLDENL&Oslash;VES GATE 2	KRISTIANSAND S	VEST-AGDER	NO	4611		https://www.dnb.no		postal		58.1450244503617	7.99232445193646						
413101	Stavanger Sentrum postkontor	HAAKON VIIS GATE 9	STAVANGER	ROGALAND	NO	4005		https://www.dnb.no		postal		58.9693756712942	5.72996907842759						
413210	Sandnes postkontor	GRAVARSVEIEN 7	SANDNES	ROGALAND	NO	4306		https://www.dnb.no		postal		58.8482388771932	5.73969334723002						
501131	Bergen Sentrum postkontor	SM&Aring;STRANDGATEN 3	BERGEN	HORDALAND	NO	5014		https://www.dnb.no		postal		60.3926653867147	5.32635957994227						
603106	Molde postkontor	MOLDEG&Aring;RDSVEGEN 5	MOLDE	M&Oslash;RE OG ROMSDAL	NO	6415		https://www.dnb.no		postal		62.7394598560878	7.17653162058002						
609240	Stj&oslash;rdal postkontor	STOKMOVEGEN 1	STJ&Oslash;RDAL	NORD-TR&Oslash;NDELAG	NO	7500		https://www.dnb.no		postal		63.4692915064363	10.923146932474						
613142	Trondheim Sentrum postkontor	MUNKEGATA 30	TRONDHEIM	S&Oslash;R-TR&Oslash;NDELAG	NO	7011		https://www.dnb.no		postal		63.4311803524742	10.3942472461219						
701108	Bod&oslash; postkontor	HAVNEGATA 9	BOD&Oslash;	NORDLAND	NO	8006		https://www.dnb.no		postal		67.2832710226845	14.3853201919469						
805220	Alta postkontor	MARKEDSGATA 21	ALTA	FINNMARK	NO	9510		https://www.dnb.no		postal		69.9661315759064	23.2724166541286						
806114	Harstad postkontor	FJORDGATA 1	HARSTAD	TROMS	NO	9405		https://www.dnb.no		postal		68.7990150592036	16.5455133324156						
809106	Longyearbyen postkontor	VEI 227 2	LONGYEARBYEN	SVALBARD	NO	9170		https://www.dnb.no		postal		78.2192638384495	15.6808707932822						
809113	Troms&oslash; postkontor	SJ&Oslash;GATA 7	TROMS&Oslash;	TROMS	NO	9008		https://www.dnb.no		postal		69.6490433237336	18.9594216489805						
